iata_code,type,name,lat,lon,elevation_ft,iso_region,municipality,icao_code,home_link,wikipedia_link
WKK,medium_airport,Aleknagik / New Airport,59.2826004028,-158.617996216,66.0,US-AK,Aleknagik,5A8,,http://en.wikipedia.org/wiki/Aleknagik_Airport
ABE,medium_airport,Lehigh Valley International Airport,40.652099609375,-75.44080352783203,393.0,US-PA,Allentown,KABE,,http://en.wikipedia.org/wiki/Lehigh_Valley_International_Airport
ABI,medium_airport,Abilene Regional Airport,32.4113006592,-99.68190002440001,1791.0,US-TX,Abilene,KABI,,http://en.wikipedia.org/wiki/Abilene_Regional_Airport
ABR,medium_airport,Aberdeen Regional Airport,45.44910049438477,-98.42179870605469,1302.0,US-SD,Aberdeen,KABR,,http://en.wikipedia.org/wiki/Aberdeen_Regional_Airport
ABY,medium_airport,Southwest Georgia Regional Airport,31.535499572753906,-84.19450378417969,197.0,US-GA,Albany,KABY,,http://en.wikipedia.org/wiki/Southwest_Georgia_Regional_Airport
ACK,medium_airport,Nantucket Memorial Airport,41.25310135,-70.06020355,47.0,US-MA,Nantucket,KACK,,http://en.wikipedia.org/wiki/Nantucket_Memorial_Airport
ACT,medium_airport,Waco Regional Airport,31.61129951477051,-97.23049926757812,516.0,US-TX,Waco,KACT,,http://en.wikipedia.org/wiki/Waco_Regional_Airport
ACV,medium_airport,Arcata Airport,40.97809982299805,-124.10900115966795,221.0,US-CA,Arcata/Eureka,KACV,,http://en.wikipedia.org/wiki/Arcata-Eureka_Airport
ACY,medium_airport,Atlantic City International Airport,39.45759963989258,-74.57720184326172,75.0,US-NJ,Atlantic City,KACY,,http://en.wikipedia.org/wiki/Atlantic_City_International_Airport
AEX,medium_airport,Alexandria International Airport,31.32740020751953,-92.54979705810548,89.0,US-LA,Alexandria,KAEX,,http://en.wikipedia.org/wiki/Alexandria_International_Airport
AGC,medium_airport,Allegheny County Airport,40.354400634765625,-79.9301986694336,1252.0,US-PA,Pittsburgh,KAGC,,http://en.wikipedia.org/wiki/Allegheny_County_Airport
AHN,medium_airport,Athens Ben Epps Airport,33.94860076904297,-83.32630157470703,808.0,US-GA,Athens,KAHN,,http://en.wikipedia.org/wiki/Athens-Ben_Epps_Airport
AKC,medium_airport,Akron Fulton International Airport,41.0374984741,-81.46690368649999,1067.0,US-OH,Akron,KAKR,,http://en.wikipedia.org/wiki/Akron_Fulton_International_Airport
ALB,medium_airport,Albany International Airport,42.74829864501953,-73.80169677734375,285.0,US-NY,Albany,KALB,http://www.albanyairport.com/,http://en.wikipedia.org/wiki/Albany_International_Airport
ALI,medium_airport,Alice International Airport,27.740900039699998,-98.02690124510002,178.0,US-TX,Alice,KALI,,http://en.wikipedia.org/wiki/Alice_International_Airport
ALM,medium_airport,Alamogordo White Sands Regional Airport,32.839900970500004,-105.990997314,4200.0,US-NM,Alamogordo,KALM,,http://en.wikipedia.org/wiki/Alamogordo-White_Sands_Regional_Airport
ALN,medium_airport,St Louis Regional Airport,38.89030075069999,-90.04599761959999,544.0,US-IL,Alton/St Louis,KALN,,http://en.wikipedia.org/wiki/St._Louis_Regional_Airport
ALO,medium_airport,Waterloo Regional Airport,42.55709838867188,-92.40029907226562,873.0,US-IA,Waterloo,KALO,,http://en.wikipedia.org/wiki/Waterloo_Regional_Airport
ALS,medium_airport,San Luis Valley Regional Bergman Field,37.434898,-105.866997,7539.0,US-CO,Alamosa,KALS,,https://en.wikipedia.org/wiki/San_Luis_Valley_Regional_Airport
ALW,medium_airport,Walla Walla Regional Airport,46.09489822,-118.288002,1194.0,US-WA,Walla Walla,KALW,,http://en.wikipedia.org/wiki/Walla_Walla_Regional_Airport
ANB,medium_airport,Anniston Metropolitan Airport,33.58819962,-85.85810089,612.0,US-AL,Anniston,KANB,,http://en.wikipedia.org/wiki/Anniston_Metropolitan_Airport
AND,medium_airport,Anderson Regional Airport,34.4945983887,-82.70939636230001,782.0,US-SC,Anderson,KAND,,http://en.wikipedia.org/wiki/Anderson_Regional_Airport
AOO,medium_airport,Altoona Blair County Airport,40.29639816,-78.31999969,1503.0,US-PA,Altoona,KAOO,,http://en.wikipedia.org/wiki/Altoona-Blair_County_Airport
APA,medium_airport,Centennial Airport,39.57009888,-104.84899899999999,5885.0,US-CO,Denver,KAPA,,http://en.wikipedia.org/wiki/Centennial_Airport
APF,medium_airport,Naples Municipal Airport,26.1525993347,-81.7752990723,8.0,US-FL,Naples,KAPF,,http://en.wikipedia.org/wiki/Naples_Municipal_Airport
APG,medium_airport,Phillips Army Air Field,39.466202,-76.1688,57.0,US-MD,Aberdeen Proving Grounds(Aberdeen),KAPG,,https://en.wikipedia.org/wiki/Phillips_Army_Airfield
APN,medium_airport,Alpena County Regional Airport,45.07809829999999,-83.56030273,690.0,US-MI,Alpena,KAPN,,http://en.wikipedia.org/wiki/Alpena_County_Regional_Airport
ARA,medium_airport,Acadiana Regional Airport,30.0378,-91.883904,24.0,US-LA,New Iberia,KARA,http://www.flyiberiaparish.com/,https://en.wikipedia.org/wiki/Acadiana_Regional_Airport
ART,medium_airport,Watertown International Airport,43.99190139770508,-76.02169799804688,325.0,US-NY,Watertown,KART,,http://en.wikipedia.org/wiki/Watertown_International_Airport
ASE,medium_airport,Aspen-Pitkin Co/Sardy Field,39.22320175,-106.8690033,7820.0,US-CO,Aspen,KASE,http://aspenairport.com/,http://en.wikipedia.org/wiki/Aspen%E2%80%93Pitkin_County_Airport
AST,medium_airport,Astoria Regional Airport,46.158000946,-123.87899780299999,15.0,US-OR,Astoria,KAST,,http://en.wikipedia.org/wiki/Astoria_Regional_Airport
ATY,medium_airport,Watertown Regional Airport,44.91400146,-97.15470123,1749.0,US-SD,Watertown,KATY,,http://en.wikipedia.org/wiki/Watertown_Regional_Airport
AUG,medium_airport,Augusta State Airport,44.320598602299995,-69.7973022461,352.0,US-ME,Augusta,KAUG,,http://en.wikipedia.org/wiki/Augusta_State_Airport
AUW,medium_airport,Wausau Downtown Airport,44.9262008667,-89.62660217290001,1201.0,US-WI,Wausau,KAUW,http://www.ci.wausau.wi.us/Departments/Airport/GeneralInformation.aspx,http://en.wikipedia.org/wiki/Wausau_Downtown_Airport
AVP,medium_airport,Wilkes Barre Scranton International Airport,41.338500976599995,-75.72339630130001,962.0,US-PA,Wilkes-Barre/Scranton,KAVP,http://www.flyavp.com/,http://en.wikipedia.org/wiki/Wilkes-Barre/Scranton_International_Airport
AXN,medium_airport,Chandler Field,45.866298675500005,-95.3946990967,1425.0,US-MN,Alexandria,KAXN,,http://en.wikipedia.org/wiki/Alexandria_Municipal_Airport
AZO,medium_airport,Kalamazoo Battle Creek International Airport,42.234901428222656,-85.5521011352539,874.0,US-MI,Kalamazoo,KAZO,,http://en.wikipedia.org/wiki/Kalamazoo-Battle_Creek_International_Airport
BAF,medium_airport,Westfield-Barnes Regional Airport,42.157799,-72.715599,271.0,US-MA,Westfield/Springfield,KBAF,,https://en.wikipedia.org/wiki/Westfield-Barnes_Regional_Airport
CLU,medium_airport,Columbus Municipal Airport,39.2619018555,-85.8963012695,656.0,US-IN,Columbus,KBAK,,http://en.wikipedia.org/wiki/Columbus_Municipal_Airport_(Indiana)
BBD,medium_airport,Curtis Field,31.179300308200002,-99.32389831540002,1827.0,US-TX,Brady,KBBD,,http://en.wikipedia.org/wiki/Curtis_Field
BCE,medium_airport,Bryce Canyon Airport,37.706401825,-112.144996643,7590.0,US-UT,Bryce Canyon,KBCE,http://www.brycecanyonairport.com/,http://en.wikipedia.org/wiki/Bryce_Canyon_Airport
BDE,medium_airport,Baudette International Airport,48.7284011841,-94.61219787600001,1086.0,US-MN,Baudette,KBDE,,http://en.wikipedia.org/wiki/Baudette_International_Airport
BDR,medium_airport,Igor I Sikorsky Memorial Airport,41.16350173950195,-73.1261978149414,9.0,US-CT,Bridgeport,KBDR,,http://en.wikipedia.org/wiki/Sikorsky_Memorial_Airport
BED,medium_airport,Laurence G Hanscom Field,42.47000122,-71.28900146,133.0,US-MA,Bedford,KBED,http://www.massport.com/hansc/,http://en.wikipedia.org/wiki/Hanscom_Field
BFD,medium_airport,Bradford Regional Airport,41.8031005859375,-78.64009857177734,2143.0,US-PA,Bradford,KBFD,,http://en.wikipedia.org/wiki/Bradford_Regional_Airport
BFF,medium_airport,Western Neb. Rgnl/William B. Heilig Airport,41.87400055,-103.5960007,3967.0,US-NE,Scottsbluff,KBFF,,http://en.wikipedia.org/wiki/Western_Nebraska_Regional_Airport
BFL,medium_airport,Meadows Field,35.43360138,-119.0569992,510.0,US-CA,Bakersfield,KBFL,,http://en.wikipedia.org/wiki/Meadows_Field_Airport
BFM,medium_airport,Mobile Downtown Airport,30.626800537100006,-88.06809997559998,26.0,US-AL,Mobile,KBFM,,http://en.wikipedia.org/wiki/Mobile_Downtown_Airport
BGM,medium_airport,Greater Binghamton/Edwin A Link field,42.20869827,-75.97979736,1636.0,US-NY,Binghamton,KBGM,http://binghamtonairport.com/,http://en.wikipedia.org/wiki/Greater_Binghamton_Airport
BHB,medium_airport,Hancock County-Bar Harbor Airport,44.45000076,-68.36150359999999,83.0,US-ME,Bar Harbor,KBHB,,http://en.wikipedia.org/wiki/Hancock_County-Bar_Harbor_Airport
BIF,medium_airport,Biggs Army Air Field (Fort Bliss),31.84950066,-106.3799973,3946.0,US-TX,Fort Bliss/El Paso,KBIF,https://www.bliss.army.mil/biggs/,http://en.wikipedia.org/wiki/Biggs_Army_Airfield
BIH,medium_airport,Eastern Sierra Regional Airport,37.373100280799996,-118.36399841299999,4124.0,US-CA,Bishop,KBIH,http://www.inyocounty.us/Airport/index.html,http://en.wikipedia.org/wiki/Eastern_Sierra_Regional_Airport
BIS,medium_airport,Bismarck Municipal Airport,46.77270126342773,-100.74600219726562,1661.0,US-ND,Bismarck,KBIS,http://bismarckairport.com/,http://en.wikipedia.org/wiki/Bismarck_Municipal_Airport
BIX,medium_airport,Keesler Air Force Base,30.4104003906,-88.92440032959999,33.0,US-MS,Biloxi,KBIX,,http://en.wikipedia.org/wiki/Keesler_Air_Force_Base
BJC,medium_airport,Rocky Mountain Metropolitan Airport,39.90879822,-105.11699679999998,5673.0,US-CO,Denver,KBJC,,http://en.wikipedia.org/wiki/Rocky_Mountain_Metropolitan_Airport
BJI,medium_airport,Bemidji Regional Airport,47.50939941,-94.93370056,1391.0,US-MN,Bemidji,KBJI,http://www.bemidjiairport.org/,http://en.wikipedia.org/wiki/Bemidji_Regional_Airport
BKE,medium_airport,Baker City Municipal Airport,44.8372993469,-117.808998108,3373.0,US-OR,Baker City,KBKE,http://www.bakeraircraft.com/,http://en.wikipedia.org/wiki/Baker_City_Municipal_Airport
BFK,medium_airport,Buckley Air Force Base,39.701698303200004,-104.75199890100001,5662.0,US-CO,Aurora,KBKF,,http://en.wikipedia.org/wiki/Buckley_Air_Force_Base
BKL,medium_airport,Burke Lakefront Airport,41.51750183105469,-81.68329620361328,583.0,US-OH,Cleveland,KBKL,http://www.clevelandairport.com/site/470/default.aspx,http://en.wikipedia.org/wiki/Cleveland_Burke_Lakefront_Airport
BKW,medium_airport,Raleigh County Memorial Airport,37.787300109899995,-81.1241989136,2504.0,US-WV,Beckley,KBKW,,http://en.wikipedia.org/wiki/Beckley_Raleigh_County_Memorial_Airport
BLF,medium_airport,Mercer County Airport,37.295799255371094,-81.20770263671875,2857.0,US-WV,Bluefield,KBLF,,http://en.wikipedia.org/wiki/Mercer_County_Airport_(West_Virginia)
BLH,medium_airport,Blythe Airport,33.6192016602,-114.717002869,399.0,US-CA,Blythe,KBLH,,http://en.wikipedia.org/wiki/Blythe_Airport
BLI,medium_airport,Bellingham International Airport,48.79280090332031,-122.53800201416016,170.0,US-WA,Bellingham,KBLI,,http://en.wikipedia.org/wiki/Bellingham_International_Airport
BMG,medium_airport,Monroe County Airport,39.14599990844727,-86.61669921875,846.0,US-IN,Bloomington,KBMG,,http://en.wikipedia.org/wiki/Monroe_County_Airport_(Indiana)
BNO,medium_airport,Burns Municipal Airport,43.5918998718,-118.955001831,4148.0,US-OR,Burns,KBNO,http://www.ci.burns.or.us/airport.html,http://en.wikipedia.org/wiki/Burns_Municipal_Airport
BPI,medium_airport,Miley Memorial Field,42.58509827,-110.1110001,6990.0,US-WY,Big Piney,KBPI,,http://en.wikipedia.org/wiki/Miley_Memorial_Field
WMH,medium_airport,Ozark Regional Airport,36.3689002991,-92.4704971313,928.0,US-AR,Mountain Home,KBPK,http://www.flytheozarks.com/,http://en.wikipedia.org/wiki/Ozark_Regional_Airport
BPT,medium_airport,Southeast Texas Regional Airport,29.9507999420166,-94.02069854736328,15.0,US-TX,Beaumont/Port Arthur,KBPT,,http://en.wikipedia.org/wiki/Southeast_Texas_Regional_Airport
BQK,medium_airport,Brunswick Golden Isles Airport,31.2588005065918,-81.46649932861328,26.0,US-GA,Brunswick,KBQK,,http://en.wikipedia.org/wiki/Brunswick_Golden_Isles_Airport
BRD,medium_airport,Brainerd Lakes Regional Airport,46.39830017,-94.13809967,1232.0,US-MN,Brainerd,KBRD,http://brainerdairport.com/,http://en.wikipedia.org/wiki/Brainerd_Lakes_Regional_Airport
BRL,medium_airport,Southeast Iowa Regional Airport,40.783199310302734,-91.12550354003906,698.0,US-IA,Burlington,KBRL,,http://en.wikipedia.org/wiki/Southeast_Iowa_Regional_Airport
BRO,medium_airport,Brownsville South Padre Island International Airport,25.90679931640625,-97.4259033203125,22.0,US-TX,Brownsville,KBRO,,http://en.wikipedia.org/wiki/Brownsville/South_Padre_Island_International_Airport
BTL,medium_airport,W K Kellogg Airport,42.3073005676,-85.25150299069999,952.0,US-MI,Battle Creek,KBTL,http://www.battlecreekmi.gov/City_Government/Departments/W_K__Kellogg_Airport.htm,http://en.wikipedia.org/wiki/W.K._Kellogg_Regional_Airport
BTM,medium_airport,Bert Mooney Airport,45.95479965209961,-112.49700164794922,5550.0,US-MT,Butte,KBTM,,http://en.wikipedia.org/wiki/Bert_Mooney_Airport
BTV,medium_airport,Burlington International Airport,44.471900939899996,-73.15329742429998,335.0,US-VT,Burlington,KBTV,http://www.vermontairports.com/btv.html,http://en.wikipedia.org/wiki/Burlington_International_Airport
BUR,medium_airport,Bob Hope Airport,34.200698852539055,-118.35900115966795,778.0,US-CA,Burbank,KBUR,,
BFP,medium_airport,Beaver County Airport,40.7724990845,-80.39140319820001,1253.0,US-PA,Beaver Falls,KBVI,,http://en.wikipedia.org/wiki/Beaver_County_Airport
BVY,medium_airport,Beverly Municipal Airport,42.5842018127,-70.91649627689999,107.0,US-MA,Beverly,KBVY,http://www.beverlyairport.com/,http://en.wikipedia.org/wiki/Beverly_Municipal_Airport
BWG,medium_airport,Bowling Green Warren County Regional Airport,36.9645004272,-86.41970062259999,547.0,US-KY,Bowling Green,KBWG,,http://en.wikipedia.org/wiki/Bowling_Green-Warren_County_Regional_Airport
BYH,medium_airport,Arkansas International Airport,35.9642982483,-89.94400024410002,254.0,US-AR,Blytheville,KBYH,,http://en.wikipedia.org/wiki/Arkansas_International_Airport
BYI,medium_airport,Burley Municipal Airport,42.5425987244,-113.77200317399999,4150.0,US-ID,Burley,KBYI,http://burleyidaho.org/city-of-burley/airport/,http://en.wikipedia.org/wiki/Burley_Municipal_Airport
BYS,medium_airport,Bicycle Lake Army Air Field,35.2804985046,-116.629997253,2350.0,US-CA,Fort Irwin/Barstow,KBYS,,http://en.wikipedia.org/wiki/Bicycle_Lake_Army_Airfield
BZN,medium_airport,Gallatin Field,45.77750015,-111.15299990000001,4473.0,US-MT,Bozeman,KBZN,,http://en.wikipedia.org/wiki/Gallatin_Field_Airport
CAK,medium_airport,Akron Canton Regional Airport,40.916099548339844,-81.44219970703125,1228.0,US-OH,Akron,KCAK,,http://en.wikipedia.org/wiki/Akron-Canton_Regional_Airport
CAR,medium_airport,Caribou Municipal Airport,46.8714981079,-68.0178985596,626.0,US-ME,Caribou,KCAR,,http://en.wikipedia.org/wiki/Caribou_Municipal_Airport
CCY,medium_airport,Northeast Iowa Regional Airport,43.072601318400004,-92.61080169680001,1125.0,US-IA,Charles City,KCCY,,http://en.wikipedia.org/wiki/Northeast_Iowa_Regional_Airport
CDC,medium_airport,Cedar City Regional Airport,37.70100021362305,-113.0989990234375,5622.0,US-UT,Cedar City,KCDC,,http://en.wikipedia.org/wiki/Cedar_City_Regional_Airport
CDR,medium_airport,Chadron Municipal Airport,42.837600708000004,-103.095001221,3297.0,US-NE,Chadron,KCDR,,http://en.wikipedia.org/wiki/Chadron_Municipal_Airport
CDS,medium_airport,Childress Municipal Airport,34.4337997437,-100.288002014,1954.0,US-TX,Childress,KCDS,,http://en.wikipedia.org/wiki/Childress_Municipal_Airport
CEC,medium_airport,Jack Mc Namara Field Airport,41.78020096,-124.23699950000001,61.0,US-CA,Crescent City,KCEC,,http://en.wikipedia.org/wiki/Del_Norte_County_Airport
CEF,medium_airport,Westover ARB/Metropolitan Airport,42.19400024,-72.53479767,241.0,US-MA,Springfield/Chicopee,KCEF,,http://en.wikipedia.org/wiki/Westover_Air_Reserve_Base/Metropolitan_Airport
CEW,medium_airport,Bob Sikes Airport,30.778799056999997,-86.522102356,213.0,US-FL,Crestview,KCEW,http://www.flycew.com/,http://en.wikipedia.org/wiki/Bob_Sikes_Airport
CGF,medium_airport,Cuyahoga County Airport,41.5651016235,-81.4863967896,879.0,US-OH,Cleveland,KCGF,http://publicworks.cuyahogacounty.us/en-US/County-Airport.aspx,http://en.wikipedia.org/wiki/Cuyahoga_County_Airport
CGI,medium_airport,Cape Girardeau Regional Airport,37.22529983520508,-89.57080078125,342.0,US-MO,Cape Girardeau,KCGI,,http://en.wikipedia.org/wiki/Cape_Girardeau_Regional_Airport
CHO,medium_airport,Charlottesville Albemarle Airport,38.13859939575195,-78.4529037475586,639.0,US-VA,Charlottesville,KCHO,,http://en.wikipedia.org/wiki/Charlottesville-Albemarle_Airport
CIU,medium_airport,Chippewa County International Airport,46.25080108642578,-84.47239685058594,800.0,US-MI,Sault Ste Marie,KCIU,,http://en.wikipedia.org/wiki/Chippewa_County_International_Airport
CKB,medium_airport,North Central West Virginia Airport,39.2966003418,-80.2281036377,1217.0,US-WV,Clarksburg,KCKB,,http://en.wikipedia.org/wiki/Harrison/Marion_Regional_Airport
CLL,medium_airport,Easterwood Field,30.58860016,-96.36380005,320.0,US-TX,College Station,KCLL,,http://en.wikipedia.org/wiki/Easterwood_Airport
CLM,medium_airport,William R Fairchild International Airport,48.120201110839844,-123.5,291.0,US-WA,Port Angeles,KCLM,,http://en.wikipedia.org/wiki/William_R._Fairchild_International_Airport
CMI,medium_airport,University of Illinois Willard Airport,40.03919983,-88.27809906,755.0,US-IL,Champaign/Urbana,KCMI,,http://en.wikipedia.org/wiki/University_of_Illinois_Willard_Airport
CMX,medium_airport,Houghton County Memorial Airport,47.16839981079102,-88.48909759521484,1095.0,US-MI,Hancock,KCMX,,http://en.wikipedia.org/wiki/Houghton_County_Memorial_Airport
CNM,medium_airport,Cavern City Air Terminal,32.337501525878906,-104.26300048828124,3295.0,US-NM,Carlsbad,KCNM,,http://en.wikipedia.org/wiki/Cavern_City_Air_Terminal
CNU,medium_airport,Chanute Martin Johnson Airport,37.668800354,-95.4850997925,1002.0,US-KS,Chanute,KCNU,http://www.chanute.org/index.aspx?NID=65,http://en.wikipedia.org/wiki/Chanute_Martin_Johnson_Airport
COD,medium_airport,Yellowstone Regional Airport,44.520198822,-109.024002075,5102.0,US-WY,Cody,KCOD,http://www.flyyra.com/,http://en.wikipedia.org/wiki/Yellowstone_Regional_Airport
COE,medium_airport,Coeur D'Alene - Pappy Boyington Field,47.77429962,-116.8199997,2320.0,US-ID,Coeur d'Alene,KCOE,http://www.cdaairport.com/,http://en.wikipedia.org/wiki/Coeur_d'Alene_Airport
COF,medium_airport,Patrick Air Force Base,28.2348995209,-80.6100997925,8.0,US-FL,Cocoa Beach,KCOF,http://www.patrick.af.mil/,http://en.wikipedia.org/wiki/Patrick_Air_Force_Base
CON,medium_airport,Concord Municipal Airport,43.20270157,-71.50229645,342.0,US-NH,Concord,KCON,http://www.concordnh.gov/facilities/facility/details/Concord-Municipal-Airport-31,http://en.wikipedia.org/wiki/Concord_Municipal_Airport
COU,medium_airport,Columbia Regional Airport,38.81809997558594,-92.21959686279295,889.0,US-MO,Columbia,KCOU,,http://en.wikipedia.org/wiki/Columbia_Regional_Airport
CRE,medium_airport,Grand Strand Airport,33.811698913600004,-78.72389984130002,32.0,US-SC,North Myrtle Beach,KCRE,,http://en.wikipedia.org/wiki/Grand_Strand_Airport
CRG,medium_airport,Jacksonville Executive at Craig Airport,30.3362998962,-81.51439666750002,41.0,US-FL,Jacksonville,KCRG,http://www.flyjacksonville.com/content.aspx?id=86,http://en.wikipedia.org/wiki/Jacksonville_Executive_at_Craig_Airport
CLD,medium_airport,Mc Clellan-Palomar Airport,33.12829971,-117.27999879999999,331.0,US-CA,Carlsbad,KCRQ,,http://en.wikipedia.org/wiki/McClellan-Palomar_Airport
CSG,medium_airport,Columbus Metropolitan Airport,32.516300201416016,-84.93890380859375,397.0,US-GA,Columbus,KCSG,,http://en.wikipedia.org/wiki/Columbus_Metropolitan_Airport
CSV,medium_airport,Crossville Memorial Whitson Field,35.9513015747,-85.08499908450001,1881.0,US-TN,Crossville,KCSV,http://www.crossvilletn.gov/index.php/departments/airport,
CTB,medium_airport,Cut Bank International Airport,48.6083984375,-112.375999451,3854.0,US-MT,Cut Bank,KCTB,http://www.cutbankairport.org/,http://en.wikipedia.org/wiki/Cut_Bank_Municipal_Airport
CUB,medium_airport,Jim Hamilton L.B. Owens Airport,33.970500946,-80.9952011108,193.0,US-SC,Columbia,KCUB,http://www.columbiasouthcarolina.com/owens.html,http://en.wikipedia.org/wiki/Jim_Hamilton_%E2%80%93_L.B._Owens_Airport
CVO,medium_airport,Corvallis Municipal Airport,44.49720001,-123.29000090000001,250.0,US-OR,Corvallis,KCVO,http://www.corvallisoregon.gov/index.aspx?page=160,http://en.wikipedia.org/wiki/Corvallis_Municipal_Airport
CWA,medium_airport,Central Wisconsin Airport,44.7775993347,-89.6668014526,1277.0,US-WI,Mosinee,KCWA,,
CXO,medium_airport,Conroe-North Houston Regional Airport,30.351801000000002,-95.414497,245.0,US-TX,Houston,KCXO,https://web.archive.org/web/20160301220928/http://www.lonestarairport.org:80/,http://en.wikipedia.org/wiki/Lone_Star_Executive_Airport
CYS,medium_airport,Cheyenne Regional Jerry Olson Field,41.15570068,-104.81199649999999,6159.0,US-WY,Cheyenne,KCYS,,http://en.wikipedia.org/wiki/Cheyenne_Regional_Airport
DAA,medium_airport,Davison Army Air Field,38.715000152600005,-77.1809997559,73.0,US-VA,Fort Belvoir,KDAA,,http://en.wikipedia.org/wiki/Davison_Army_Airfield
DAG,medium_airport,Barstow Daggett Airport,34.85369873,-116.78700259999998,1930.0,US-CA,Daggett,KDAG,,http://en.wikipedia.org/wiki/Barstow-Daggett_Airport
DAN,medium_airport,Danville Regional Airport,36.572898864746094,-79.33609771728516,571.0,US-VA,Danville,KDAN,,
DDC,medium_airport,Dodge City Regional Airport,37.76340103149414,-99.9655990600586,2594.0,US-KS,Dodge City,KDDC,,http://en.wikipedia.org/wiki/Dodge_City_Regional_Airport
DEC,medium_airport,Decatur Airport,39.83459854125977,-88.8656997680664,682.0,US-IL,Decatur,KDEC,,http://en.wikipedia.org/wiki/Decatur_Airport
DET,medium_airport,Coleman A. Young Municipal Airport,42.40919876,-83.00990295,626.0,US-MI,Detroit,KDET,,http://en.wikipedia.org/wiki/Coleman_A._Young_International_Airport
DHN,medium_airport,Dothan Regional Airport,31.3213005065918,-85.44960021972656,401.0,US-AL,Dothan,KDHN,,http://en.wikipedia.org/wiki/Dothan_Regional_Airport
DHT,medium_airport,Dalhart Municipal Airport,36.0225982666,-102.54699707,3991.0,US-TX,Dalhart,KDHT,,http://en.wikipedia.org/wiki/Dalhart_Municipal_Airport
DIK,medium_airport,Dickinson Theodore Roosevelt Regional Airport,46.7974014282,-102.80200195299999,2592.0,US-ND,Dickinson,KDIK,http://dickinsonairport.com/,http://en.wikipedia.org/wiki/Dickinson_Theodore_Roosevelt_Regional_Airport
DLS,medium_airport,Columbia Gorge Regional the Dalles Municipal Airport,45.618499755900004,-121.166999817,247.0,US-OR,The Dalles,KDLS,http://www.columbiagorgeairport.com/,http://en.wikipedia.org/wiki/Columbia_Gorge_Regional_Airport
DMA,medium_airport,Davis Monthan Air Force Base,32.1665000916,-110.883003235,2704.0,US-AZ,Tucson,KDMA,,http://en.wikipedia.org/wiki/Davis-Monthan_Air_Force_Base
DMN,medium_airport,Deming Municipal Airport,32.262298584,-107.721000671,4314.0,US-NM,Deming,KDMN,http://www.cityofdeming.org/deming-community/municipal-airport,http://en.wikipedia.org/wiki/Deming_Municipal_Airport
DNL,medium_airport,Daniel Field,33.4664993286,-82.0393981934,423.0,US-GA,Augusta,KDNL,http://www.augustaga.gov/index.aspx?NID=486,http://en.wikipedia.org/wiki/Daniel_Field
DPA,medium_airport,Dupage Airport,41.90779877,-88.24859619,759.0,US-IL,Chicago/West Chicago,KDPA,http://www.dupageairport.com/,http://en.wikipedia.org/wiki/DuPage_Airport
DRA,medium_airport,Desert Rock Airport,36.6194,-116.032997,3314.0,US-NV,Mercury,KDRA,,http://en.wikipedia.org/wiki/Desert_Rock_Airport
DRI,medium_airport,Beauregard Regional Airport,30.8316993713,-93.3398971558,202.0,US-LA,De Ridder,KDRI,,http://en.wikipedia.org/wiki/Beauregard_Regional_Airport
DRT,medium_airport,Del Rio International Airport,29.3742008209,-100.92700195299999,1002.0,US-TX,Del Rio,KDRT,http://www.cityofdelrio.com/index.aspx?NID=412,http://en.wikipedia.org/wiki/Del_Rio_International_Airport
DUG,medium_airport,Bisbee Douglas International Airport,31.4689998627,-109.60399627700001,4154.0,US-AZ,Douglas Bisbee,KDUG,http://www.azdot.gov/mpd/airport_development/airports/airports_list.asp?FAA=DUG,http://en.wikipedia.org/wiki/Bisbee-Douglas_International_Airport
DUJ,medium_airport,DuBois Regional Airport,41.17829895,-78.8986969,1817.0,US-PA,Dubois,KDUJ,,http://en.wikipedia.org/wiki/DuBois_Regional_Airport
EAT,medium_airport,Pangborn Memorial Airport,47.3988990784,-120.20700073200001,1249.0,US-WA,Wenatchee,KEAT,http://www.pangbornairport.com/,http://en.wikipedia.org/wiki/Pangborn_Memorial_Airport
EAU,medium_airport,Chippewa Valley Regional Airport,44.86579895019531,-91.48429870605469,913.0,US-WI,Eau Claire,KEAU,,http://en.wikipedia.org/wiki/Chippewa_Valley_Regional_Airport
ECG,medium_airport,Elizabeth City Regional Airport & Coast Guard Air Station,36.26060104,-76.17459869,12.0,US-NC,Elizabeth City,KECG,http://www.ecgairport.com/,http://en.wikipedia.org/wiki/Elizabeth_City_Regional_Airport
ECP,medium_airport,Northwest Florida Beaches International Airport,30.357105999999998,-85.79541400000001,69.0,US-FL,Panama City Beach,KECP,http://iflybeaches.com,http://en.wikipedia.org/wiki/Northwest_Florida_Beaches_International_Airport
EED,medium_airport,Needles Airport,34.7663002014,-114.62300109899999,983.0,US-CA,Needles,KEED,http://cms.sbcounty.gov/airports/Airports/Needles.aspx,http://en.wikipedia.org/wiki/Needles_Airport
EEN,medium_airport,Dillant Hopkins Airport,42.898399353027344,-72.27079772949219,488.0,US-NH,Keene,KEEN,,http://en.wikipedia.org/wiki/Dillant-Hopkins_Airport
EFD,medium_airport,Ellington Airport,29.6072998047,-95.15879821780001,32.0,US-TX,Houston,KEFD,,http://en.wikipedia.org/wiki/Ellington_Airport_(Texas)
EGE,medium_airport,Eagle County Regional Airport,39.64260101,-106.9179993,6548.0,US-CO,Eagle,KEGE,http://www.eaglecounty.us/airport/,http://en.wikipedia.org/wiki/Eagle_County_Regional_Airport
EGI,medium_airport,Duke Field,30.65040016,-86.52290344,191.0,US-FL,Crestview,KEGI,http://www.919sow.afrc.af.mil/,http://en.wikipedia.org/wiki/Duke_Field
EKA,medium_airport,Murray Field,40.8033981323,-124.112998962,7.0,US-CA,Eureka,KEKA,,http://en.wikipedia.org/wiki/Murray_Field
EKN,medium_airport,Elkins-Randolph Co-Jennings Randolph Field,38.88940048,-79.85710144,1987.0,US-WV,Elkins,KEKN,http://www.elkinsairport.com/,
EKO,medium_airport,Elko Regional Airport,40.82490158081055,-115.79199981689452,5140.0,US-NV,Elko,KEKO,,http://en.wikipedia.org/wiki/Elko_Regional_Airport
ELD,medium_airport,South Arkansas Regional At Goodwin Field,33.22100067138672,-92.81330108642578,277.0,US-AR,El Dorado,KELD,,http://en.wikipedia.org/wiki/South_Arkansas_Regional_Airport_at_Goodwin_Field
ELM,medium_airport,Elmira Corning Regional Airport,42.1599006652832,-76.8916015625,954.0,US-NY,Elmira/Corning,KELM,,http://en.wikipedia.org/wiki/Elmira-Corning_Regional_Airport
LYU,medium_airport,Ely Municipal Airport,47.82450104,-91.83070374,1456.0,US-MN,Ely,KELO,http://www.ely.mn.us/index.asp?Type=B_BASIC&SEC=%7B936B252D-C48B-42BD-B996-37F320A6CFF7%7D,http://en.wikipedia.org/wiki/Ely_Municipal_Airport
ELP,medium_airport,El Paso International Airport,31.80719948,-106.37799840000002,3959.0,US-TX,El Paso,KELP,,http://en.wikipedia.org/wiki/El_Paso_International_Airport
ELY,medium_airport,Ely Airport Yelland Field,39.29970169,-114.84200290000001,6259.0,US-NV,Ely,KELY,,http://en.wikipedia.org/wiki/Ely_Airport
ENV,medium_airport,Wendover Airport,40.7187004089,-114.03099823,4237.0,US-UT,Wendover,KENV,,http://en.wikipedia.org/wiki/Wendover_Airport
ENW,medium_airport,Kenosha Regional Airport,42.59569931,-87.92780304,742.0,US-WI,Kenosha,KENW,http://www.kenosha.org/departments/airport/,http://en.wikipedia.org/wiki/Kenosha_Regional_Airport
ESF,medium_airport,Esler Regional Airport,31.3948993683,-92.29579925540001,112.0,US-LA,Alexandria,KESF,http://www.alexandria-louisiana.com/esler-field-louisiana.htm,http://en.wikipedia.org/wiki/Esler_Airfield
EUG,medium_airport,Mahlon Sweet Field,44.12459945678711,-123.21199798583984,374.0,US-OR,Eugene,KEUG,,http://en.wikipedia.org/wiki/Eugene_Airport
EVV,medium_airport,Evansville Regional Airport,38.0369987488,-87.53240203860001,418.0,US-IN,Evansville,KEVV,,http://en.wikipedia.org/wiki/Evansville_Regional_Airport
EVW,medium_airport,Evanston-Uinta County Airport-Burns Field,41.27479935,-111.0350037,7143.0,US-WY,Evanston,KEVW,,
EWB,medium_airport,New Bedford Regional Airport,41.67610168457031,-70.95690155029297,80.0,US-MA,New Bedford,KEWB,,http://en.wikipedia.org/wiki/New_Bedford_Regional_Airport
EWN,medium_airport,Coastal Carolina Regional Airport,35.0730018616,-77.04290008539998,18.0,US-NC,New Bern,KEWN,,http://en.wikipedia.org/wiki/Craven_County_Regional_Airport
EYW,medium_airport,Key West International Airport,24.556100845336914,-81.75959777832031,3.0,US-FL,Key West,KEYW,,http://en.wikipedia.org/wiki/Key_West_International_Airport
FAF,medium_airport,Felker Army Air Field,37.1324996948,-76.60880279540002,12.0,US-VA,Fort Eustis,KFAF,,
FAR,medium_airport,Hector International Airport,46.92070007324219,-96.81580352783205,902.0,US-ND,Fargo,KFAR,http://www.fargoairport.com/,http://en.wikipedia.org/wiki/Hector_International_Airport
FAT,medium_airport,Fresno Yosemite International Airport,36.77619934082031,-119.71800231933594,336.0,US-CA,Fresno,KFAT,,http://en.wikipedia.org/wiki/Fresno_Yosemite_International_Airport
FAY,medium_airport,Fayetteville Regional Grannis Field,34.991199493408196,-78.88030242919922,189.0,US-NC,Fayetteville,KFAY,,http://en.wikipedia.org/wiki/Fayetteville_Regional_Airport
FBG,medium_airport,Simmons Army Air Field,35.13180161,-78.93669891,244.0,US-NC,Fort Bragg,KFBG,,http://en.wikipedia.org/wiki/Simmons_Army_Airfield
FCS,medium_airport,Butts AAF (Fort Carson) Air Field,38.67839813,-104.75700379999999,5838.0,US-CO,Fort Carson,KFCS,,
FDY,medium_airport,Findlay Airport,41.013500213600004,-83.66870117190001,813.0,US-OH,Findlay,KFDY,http://www.ci.findlay.oh.us/?id=56,http://en.wikipedia.org/wiki/Findlay_Airport
FHU,medium_airport,Sierra Vista Municipal Libby Army Air Field,31.58849906921387,-110.34400177001952,4719.0,US-AZ,Fort Huachuca Sierra Vista,KFHU,,http://en.wikipedia.org/wiki/Sierra_Vista_Municipal_Airport
FKL,medium_airport,Venango Regional Airport,41.3778991699,-79.8603973389,1540.0,US-PA,Franklin,KFKL,,http://en.wikipedia.org/wiki/Venango_Regional_Airport
FLG,medium_airport,Flagstaff Pulliam Airport,35.13850021,-111.6709976,7014.0,US-AZ,Flagstaff,KFLG,,http://en.wikipedia.org/wiki/Flagstaff_Pulliam_Airport
FLO,medium_airport,Florence Regional Airport,34.18539810180664,-79.7238998413086,146.0,US-SC,Florence,KFLO,,http://en.wikipedia.org/wiki/Florence_Regional_Airport
FME,medium_airport,Tipton Airport,39.08539962769999,-76.7593994141,150.0,US-MD,Fort Meade(Odenton),KFME,http://tiptonairport.org/,http://en.wikipedia.org/wiki/Tipton_Airport
FMN,medium_airport,Four Corners Regional Airport,36.7411994934,-108.230003357,5506.0,US-NM,Farmington,KFMN,,http://en.wikipedia.org/wiki/Four_Corners_Regional_Airport
FMY,medium_airport,Page Field,26.58659935,-81.86329650879998,17.0,US-FL,Fort Myers,KFMY,http://www.flylcpa.com/aboutfmy,http://en.wikipedia.org/wiki/Page_Field
FNT,medium_airport,Bishop International Airport,42.96540069580078,-83.74359893798828,782.0,US-MI,Flint,KFNT,,http://en.wikipedia.org/wiki/Bishop_International_Airport
FOD,medium_airport,Fort Dodge Regional Airport,42.55149841,-94.19259644,1156.0,US-IA,Fort Dodge,KFOD,,http://en.wikipedia.org/wiki/Fort_Dodge_Regional_Airport
FOE,medium_airport,Topeka Regional Airport - Forbes Field,38.9509010315,-95.6635971069,1078.0,US-KS,Topeka,KFOE,,http://en.wikipedia.org/wiki/Forbes_Field_(Kansas)
FPR,medium_airport,St Lucie County International Airport,27.49510002,-80.36830139,24.0,US-FL,Fort Pierce,KFPR,,http://en.wikipedia.org/wiki/St._Lucie_County_International_Airport
FRG,medium_airport,Republic Airport,40.7288017273,-73.41339874270001,82.0,US-NY,Farmingdale,KFRG,http://www.republicairport.net/,http://en.wikipedia.org/wiki/Republic_Airport
FRI,medium_airport,Marshall Army Air Field,39.05530167,-96.76450348,1065.0,US-KS,Fort Riley(Junction City),KFRI,,http://en.wikipedia.org/wiki/Marshall_Army_Airfield
FSD,medium_airport,Joe Foss Field Airport,43.5820007324,-96.741897583,1429.0,US-SD,Sioux Falls,KFSD,http://www.sfairport.com/,http://en.wikipedia.org/wiki/Sioux_Falls_Regional_Airport
FSI,medium_airport,Henry Post Army Air Field (Fort Sill),34.64979935,-98.40219879,1189.0,US-OK,Fort Sill,KFSI,http://sill-www.army.mil/History/Airfield/henrypost.htm,http://en.wikipedia.org/wiki/Henry_Post_Army_Airfield
FST,medium_airport,Fort Stockton Pecos County Airport,30.9157009125,-102.916000366,3011.0,US-TX,Fort Stockton,KFST,,http://en.wikipedia.org/wiki/Fort_Stockton%E2%80%93Pecos_County_Airport
FTK,medium_airport,Godman Army Air Field,37.9071006775,-85.9720993042,756.0,US-KY,Fort Knox,KFTK,,http://en.wikipedia.org/wiki/Godman_Army_Airfield
FTY,medium_airport,Fulton County Airport Brown Field,33.7790985107,-84.5214004517,841.0,US-GA,Atlanta,KFTY,http://www.fultoncountyga.gov/component/content/article/223-general-services/2098-fulton-county-airport-brown-field,http://en.wikipedia.org/wiki/Fulton_County_Airport_(Georgia)
FXE,medium_airport,Fort Lauderdale Executive Airport,26.1972999573,-80.1707000732,13.0,US-FL,Fort Lauderdale,KFXE,http://www.fortlauderdale.gov/fxE/index.htm,http://en.wikipedia.org/wiki/Fort_Lauderdale_Executive_Airport
FYV,medium_airport,Drake Field,36.00510025024414,-94.17009735107422,1251.0,US-AR,Fayetteville,KFYV,,http://en.wikipedia.org/wiki/Drake_Field
GCC,medium_airport,Gillette Campbell County Airport,44.3488998413,-105.539001465,4365.0,US-WY,Gillette,KGCC,http://www.iflygillette.com/,http://en.wikipedia.org/wiki/Gillette%E2%80%93Campbell_County_Airport
GCK,medium_airport,Garden City Regional Airport,37.9275016785,-100.72399902299999,2891.0,US-KS,Garden City,KGCK,,http://en.wikipedia.org/wiki/Garden_City_Regional_Airport
GCN,medium_airport,Grand Canyon National Park Airport,35.95240020751953,-112.14700317382812,6609.0,US-AZ,Grand Canyon,KGCN,http://www.azdot.gov/aviation/airports/airports_list.asp?FAA=GCN,http://en.wikipedia.org/wiki/Grand_Canyon_National_Park_Airport
GDV,medium_airport,Dawson Community Airport,47.13869858,-104.8069992,2458.0,US-MT,Glendive,KGDV,,
GFK,medium_airport,Grand Forks International Airport,47.949298999999996,-97.176102,845.0,US-ND,Grand Forks,KGFK,http://www.gfkairport.com/,http://en.wikipedia.org/wiki/Grand_Forks_International_Airport
GFL,medium_airport,Floyd Bennett Memorial Airport,43.3412017822,-73.6102981567,328.0,US-NY,Glens Falls,KGFL,http://www.warrencountydpw.com/airport_07/,http://en.wikipedia.org/wiki/Floyd_Bennett_Memorial_Airport
GGG,medium_airport,East Texas Regional Airport,32.38399887084961,-94.71150207519531,365.0,US-TX,Longview,KGGG,,http://en.wikipedia.org/wiki/East_Texas_Regional_Airport
GGW,medium_airport,Wokal Field Glasgow International Airport,48.212502,-106.614998,2296.0,US-MT,Glasgow,KGGW,http://www.glasgowmtairport.com/,http://en.wikipedia.org/wiki/Glasgow_Airport_(US)
GJT,medium_airport,Grand Junction Regional Airport,39.1223983765,-108.527000427,4858.0,US-CO,Grand Junction,KGJT,http://www.gjairport.com/,http://en.wikipedia.org/wiki/Grand_Junction_Regional_Airport
GLD,medium_airport,Renner Field-Goodland Municipal Airport,39.37060165,-101.6989975,3656.0,US-KS,Goodland,KGLD,,http://en.wikipedia.org/wiki/Goodland_Municipal_Airport
GLH,medium_airport,Mid Delta Regional Airport,33.482898712158196,-90.98560333251952,131.0,US-MS,Greenville,KGLH,,
GLS,medium_airport,Scholes International At Galveston Airport,29.265300750732425,-94.8603973388672,6.0,US-TX,Galveston,KGLS,,
GMU,medium_airport,Greenville Downtown Airport,34.847900390599996,-82.34999847410002,1048.0,US-SC,Greenville,KGMU,http://www.greenvilledowntownairport.com/,http://en.wikipedia.org/wiki/Greenville_Downtown_Airport
GNV,medium_airport,Gainesville Regional Airport,29.6900997162,-82.27179718020001,152.0,US-FL,Gainesville,KGNV,,http://en.wikipedia.org/wiki/Gainesville_Regional_Airport
GON,medium_airport,Groton New London Airport,41.3301010131836,-72.04509735107422,9.0,US-CT,Groton (New London),KGON,,http://en.wikipedia.org/wiki/Groton-New_London_Airport
FCA,medium_airport,Glacier Park International Airport,48.31050109863281,-114.25599670410156,2977.0,US-MT,Kalispell,KGPI,http://www.iflyglacier.com/,http://en.wikipedia.org/wiki/Glacier_Park_International_Airport
GRF,medium_airport,Gray Army Air Field,47.07920074,-122.5810013,300.0,US-WA,Fort Lewis/Tacoma,KGRF,,http://en.wikipedia.org/wiki/Gray_Army_Airfield
GRI,medium_airport,Central Nebraska Regional Airport,40.96749877929688,-98.30960083007812,1847.0,US-NE,Grand Island,KGRI,,http://en.wikipedia.org/wiki/Central_Nebraska_Regional_Airport
GRK,medium_airport,Robert Gray  Army Air Field Airport,31.067199706999997,-97.8289031982,1015.0,US-TX,Fort Hood/Killeen,KGRK,,http://en.wikipedia.org/wiki/Killeen-Fort_Hood_Regional_Airport
GRR,medium_airport,Gerald R. Ford International Airport,42.88079834,-85.52279663,794.0,US-MI,Grand Rapids,KGRR,,http://en.wikipedia.org/wiki/Gerald_R._Ford_International_Airport
GTF,medium_airport,Great Falls International Airport,47.48199844,-111.3710022,3680.0,US-MT,Great Falls,KGTF,,http://en.wikipedia.org/wiki/Great_Falls_International_Airport
GTR,medium_airport,Golden Triangle Regional Airport,33.450298309299995,-88.59140014649999,264.0,US-MS,Columbus/W Point/Starkville,KGTR,,
GUP,medium_airport,Gallup Municipal Airport,35.511100769,-108.789001465,6472.0,US-NM,Gallup,KGUP,,http://en.wikipedia.org/wiki/Gallup_Municipal_Airport
GUY,medium_airport,Guymon Municipal Airport,36.6851005554,-101.508003235,3123.0,US-OK,Guymon,KGUY,http://www.guymonok.org/index.aspx?NID=179,http://en.wikipedia.org/wiki/Guymon_Municipal_Airport
GWO,medium_airport,Greenwood–Leflore Airport,33.4943008423,-90.08470153809999,162.0,US-MS,Greenwood,KGWO,http://greenwoodms.com/index.aspx?nid=113,http://en.wikipedia.org/wiki/Greenwood%E2%80%93Leflore_Airport
GYY,medium_airport,Gary Chicago International Airport,41.61629867553711,-87.41280364990234,591.0,US-IN,Gary,KGYY,,http://en.wikipedia.org/wiki/Gary/Chicago_International_Airport
HBG,medium_airport,Hattiesburg Bobby L Chain Municipal Airport,31.26479912,-89.25279999,151.0,US-MS,Hattiesburg,KHBG,,https://en.wikipedia.org/wiki/Hattiesburg_Bobby_L._Chain_Municipal_Airport
HBR,medium_airport,Hobart Regional Airport,34.991316999999995,-99.05131300000001,1563.0,US-OK,Hobart,KHBR,,https://en.wikipedia.org/wiki/Hobart_Regional_Airport
HFD,medium_airport,Hartford Brainard Airport,41.736698150635,-72.64939880371101,18.0,US-CT,Hartford,KHFD,,http://en.wikipedia.org/wiki/Hartford-Brainard_Airport
HGR,medium_airport,Hagerstown Regional Richard A Henson Field,39.707901,-77.72949982,703.0,US-MD,Hagerstown,KHGR,,http://en.wikipedia.org/wiki/Hagerstown_Regional_Airport
HHR,medium_airport,Jack Northrop Field Hawthorne Municipal Airport,33.922798,-118.334999,66.0,US-CA,Hawthorne,KHHR,,http://en.wikipedia.org/wiki/Hawthorne_Municipal_Airport_(California)
HIF,medium_airport,Hill Air Force Base,41.12403,-111.97308600000001,4789.0,US-UT,Ogden,KHIF,http://www.hill.af.mil/,https://en.wikipedia.org/wiki/Hill_Air_Force_Base
HIO,medium_airport,Portland Hillsboro Airport,45.540401,-122.949997,208.0,US-OR,Portland,KHIO,http://www.flypdx.com/Airports/Hillsboro/,https://en.wikipedia.org/wiki/Hillsboro_Airport
HKY,medium_airport,Hickory Regional Airport,35.74110031,-81.38950348,1190.0,US-NC,Hickory,KHKY,,http://en.wikipedia.org/wiki/Hickory_Regional_Airport
HLG,medium_airport,Wheeling Ohio County Airport,40.1749992371,-80.6463012695,1195.0,US-WV,Wheeling,KHLG,,http://en.wikipedia.org/wiki/Wheeling_Ohio_County_Airport
HLN,medium_airport,Helena Regional Airport,46.6068000793457,-111.98300170898438,3877.0,US-MT,Helena,KHLN,,http://en.wikipedia.org/wiki/Helena_Regional_Airport
HLR,medium_airport,Hood Army Air Field,31.1387004852,-97.7145004272,924.0,US-TX,Fort Hood(Killeen),KHLR,,http://en.wikipedia.org/wiki/Hood_Army_Airfield
HOB,medium_airport,Lea County Regional Airport,32.6875,-103.21700290000001,3661.0,US-NM,Hobbs,KHOB,,http://en.wikipedia.org/wiki/Lea_County_Regional_Airport
HON,medium_airport,Huron Regional Airport,44.38520050048828,-98.22850036621094,1289.0,US-SD,Huron,KHON,,http://en.wikipedia.org/wiki/Huron_Regional_Airport
HOP,medium_airport,Campbell AAF (Fort Campbell) Air Field,36.668598175,-87.49620056150002,573.0,US-KY,Fort Campbell/Hopkinsville,KHOP,,http://en.wikipedia.org/wiki/Campbell_Army_Airfield
HOT,medium_airport,Memorial Field,34.47800064086914,-93.09619903564452,540.0,US-AR,Hot Springs,KHOT,,http://en.wikipedia.org/wiki/Hot_Springs_Memorial_Field_Airport
HPN,medium_airport,Westchester County Airport,41.06700134277344,-73.70760345458984,439.0,US-NY,White Plains,KHPN,,http://en.wikipedia.org/wiki/Westchester_County_Airport
HQM,medium_airport,Bowerman Airport,46.9711990356,-123.93699646,18.0,US-WA,Hoquiam,KHQM,http://www.portofgraysharbor.com/airport/airport.php,http://en.wikipedia.org/wiki/Bowerman_Airport
HRL,medium_airport,Valley International Airport,26.228500366210934,-97.65440368652344,36.0,US-TX,Harlingen,KHRL,,http://en.wikipedia.org/wiki/Valley_International_Airport
HRO,medium_airport,Boone County Airport,36.26150131225586,-93.15470123291016,1365.0,US-AR,Harrison,KHRO,,http://en.wikipedia.org/wiki/Boone_County_Airport
HST,medium_airport,Homestead ARB Airport,25.48859978,-80.38359833,5.0,US-FL,Homestead,KHST,http://www.homestead.afrc.af.mil/,http://en.wikipedia.org/wiki/Homestead_Air_Reserve_Base
HUA,medium_airport,Redstone Army Air Field,34.67869949,-86.68479919,684.0,US-AL,Redstone Arsnl Huntsville,KHUA,,http://en.wikipedia.org/wiki/Redstone_Army_Airfield
HUF,medium_airport,Terre Haute International Hulman Field,39.45149993896485,-87.30760192871094,589.0,US-IN,Terre Haute,KHUF,,http://en.wikipedia.org/wiki/Terre_Haute_International_Airport
HUL,medium_airport,Houlton International Airport,46.123100280799996,-67.79209899899999,489.0,US-ME,Houlton,KHUL,,http://en.wikipedia.org/wiki/Houlton_International_Airport
HUT,medium_airport,Hutchinson Municipal Airport,38.0654983521,-97.86060333250002,1543.0,US-KS,Hutchinson,KHUT,http://www.hutchgov.com/department/?fDD=20-0,http://en.wikipedia.org/wiki/Hutchinson_Municipal_Airport_(Kansas)
HVN,medium_airport,Tweed New Haven Airport,41.26369858,-72.88680267,12.0,US-CT,New Haven,KHVN,,http://en.wikipedia.org/wiki/Tweed_New_Haven_Regional_Airport
HVR,medium_airport,Havre City County Airport,48.54299927,-109.762001,2591.0,US-MT,Havre,KHVR,,
HYA,medium_airport,Barnstable Municipal Boardman Polando Field,41.66930008,-70.28040314,54.0,US-MA,Hyannis,KHYA,,http://en.wikipedia.org/wiki/Barnstable_Municipal_Airport
HYR,medium_airport,Sawyer County Airport,46.02519989010001,-91.44429779050002,1216.0,US-WI,Hayward,KHYR,http://sawyercountygov.org/Departments/Airport/tabid/93/Default.aspx,http://en.wikipedia.org/wiki/Sawyer_County_Airport
HYS,medium_airport,Hays Regional Airport,38.84220123,-99.27320099,1999.0,US-KS,Hays,KHYS,,http://en.wikipedia.org/wiki/Hays_Regional_Airport
IAB,medium_airport,Mc Connell Air Force Base,37.62189865,-97.26820374,1371.0,US-KS,Wichita,KIAB,http://public.mcconnell.amc.af.mil/,http://en.wikipedia.org/wiki/McConnell_Air_Force_Base
IAG,medium_airport,Niagara Falls International Airport,43.1072998046875,-78.94619750976562,589.0,US-NY,Niagara Falls,KIAG,,http://en.wikipedia.org/wiki/Niagara_Falls_International_Airport
IDA,medium_airport,Idaho Falls Regional Airport,43.514599,-112.070999,4744.0,US-ID,Idaho Falls,KIDA,,http://en.wikipedia.org/wiki/Idaho_Falls_Regional_Airport
IKK,medium_airport,Greater Kankakee Airport,41.07139968869999,-87.84629821780001,630.0,US-IL,Kankakee,KIKK,http://kvaa.com/,http://en.wikipedia.org/wiki/Greater_Kankakee_Airport
ILG,medium_airport,New Castle Airport,39.67869949,-75.60649872,80.0,US-DE,Wilmington,KILG,,http://en.wikipedia.org/wiki/New_Castle_Airport
ILM,medium_airport,Wilmington International Airport,34.27059936523437,-77.90260314941406,32.0,US-NC,Wilmington,KILM,,http://en.wikipedia.org/wiki/Wilmington_International_Airport
ILN,medium_airport,Wilmington Airpark,39.427898407,-83.79209899899999,1077.0,US-OH,Wilmington,KILN,http://www.wilmingtonairpark.com/,http://en.wikipedia.org/wiki/Airborne_Airpark
INK,medium_airport,Winkler County Airport,31.779600143400003,-103.20099639899999,2822.0,US-TX,Wink,KINK,http://www.co.winkler.tx.us/default.aspx?Winkler_County/County.Airport,http://en.wikipedia.org/wiki/Winkler_County_Airport
INL,medium_airport,Falls International Airport,48.566200256347656,-93.4030990600586,1185.0,US-MN,International Falls,KINL,,http://en.wikipedia.org/wiki/Falls_International_Airport
INT,medium_airport,Smith Reynolds Airport,36.13370132446289,-80.22200012207031,969.0,US-NC,Winston Salem,KINT,,http://en.wikipedia.org/wiki/Smith_Reynolds_Airport
INW,medium_airport,Winslow Lindbergh Regional Airport,35.021900177,-110.722999573,4941.0,US-AZ,Winslow,KINW,,http://en.wikipedia.org/wiki/Winslow-Lindbergh_Regional_Airport
IPL,medium_airport,Imperial County Airport,32.834201812699995,-115.57900238,-54.0,US-CA,Imperial,KIPL,,http://en.wikipedia.org/wiki/Imperial_County_Airport
IPT,medium_airport,Williamsport Regional Airport,41.241798400878906,-76.92109680175781,529.0,US-PA,Williamsport,KIPT,,http://en.wikipedia.org/wiki/Williamsport_Regional_Airport
IRK,medium_airport,Kirksville Regional Airport,40.09349822998047,-92.5448989868164,966.0,US-MO,Kirksville,KIRK,,http://en.wikipedia.org/wiki/Kirksville_Regional_Airport
ISM,medium_airport,Kissimmee Gateway Airport,28.289800643899998,-81.43710327149999,82.0,US-FL,Orlando,KISM,http://www.kissimmee.org/index.aspx?page=111,http://en.wikipedia.org/wiki/Kissimmee_Gateway_Airport
ISN,medium_airport,Sloulin Field International Airport,48.177898407,-103.64199829100001,1982.0,US-ND,Williston,KISN,,
ISO,medium_airport,Kinston Regional Jetport At Stallings Field,35.331401825,-77.60880279540002,93.0,US-NC,Kinston,KISO,http://www.jetkinston.com/,http://en.wikipedia.org/wiki/Kinston_Regional_Jetport
ISP,medium_airport,Long Island Mac Arthur Airport,40.79520035,-73.10019684,99.0,US-NY,Islip,KISP,,http://en.wikipedia.org/wiki/Long_Island_MacArthur_Airport
ITH,medium_airport,Ithaca Tompkins Regional Airport,42.49100112915039,-76.4583969116211,1099.0,US-NY,Ithaca,KITH,,http://en.wikipedia.org/wiki/Ithaca_Tompkins_Regional_Airport
AZA,medium_airport,Phoenix-Mesa-Gateway Airport,33.30780029,-111.65499879999999,1382.0,US-AZ,Phoenix,KIWA,http://www.flywga.org/,http://en.wikipedia.org/wiki/Williams_Gateway_Airport
JAC,medium_airport,Jackson Hole Airport,43.6072998046875,-110.73799896240234,6451.0,US-WY,Jackson,KJAC,,http://en.wikipedia.org/wiki/Jackson_Hole_Airport
JBR,medium_airport,Jonesboro Municipal Airport,35.83169937133789,-90.64640045166016,262.0,US-AR,Jonesboro,KJBR,,http://en.wikipedia.org/wiki/Jonesboro_Municipal_Airport
JCT,medium_airport,Kimble County Airport,30.5112991333,-99.76349639889999,1749.0,US-TX,Junction,KJCT,,
JHW,medium_airport,Chautauqua County-Jamestown Airport,42.15340042,-79.25800323,1723.0,US-NY,Jamestown,KJHW,,http://en.wikipedia.org/wiki/Chautauqua_County-Jamestown_Airport
JMS,medium_airport,Jamestown Regional Airport,46.92969894,-98.67819977,1500.0,US-ND,Jamestown,KJMS,,http://en.wikipedia.org/wiki/Jamestown_Regional_Airport
JST,medium_airport,John Murtha Johnstown Cambria County Airport,40.31610107421875,-78.83390045166016,2284.0,US-PA,Johnstown,KJST,,http://en.wikipedia.org/wiki/Johnstown-Cambria_County_Airport
JXN,medium_airport,Jackson County Reynolds Field,42.2597999573,-84.45939636230001,1001.0,US-MI,Jackson,KJXN,http://www.co.jackson.mi.us/airport/,http://en.wikipedia.org/wiki/Jackson_County_Airport_(Michigan)
KLS,medium_airport,Southwest Washington Regional Airport,46.11800003049999,-122.898002625,20.0,US-WA,Kelso,KKLS,http://www.kelso.gov/Departments%20%2526%20Services/Airport,http://en.wikipedia.org/wiki/Southwest_Washington_Regional_Airport
LAF,medium_airport,Purdue University Airport,40.41230010986328,-86.93689727783203,606.0,US-IN,Lafayette,KLAF,,http://en.wikipedia.org/wiki/Purdue_University_Airport
LAL,medium_airport,Lakeland Linder Regional Airport,27.988899230999998,-82.0186004639,142.0,US-FL,Lakeland,KLAL,,http://en.wikipedia.org/wiki/Lakeland_Linder_Regional_Airport
LAN,medium_airport,Capital City Airport,42.77870178222656,-84.58740234375,861.0,US-MI,Lansing,KLAN,,http://en.wikipedia.org/wiki/Lansing_Capital_City_Airport
LAR,medium_airport,Laramie Regional Airport,41.31209945678711,-105.6750030517578,7284.0,US-WY,Laramie,KLAR,,http://en.wikipedia.org/wiki/Laramie_Regional_Airport
LAW,medium_airport,Lawton Fort Sill Regional Airport,34.5676994324,-98.4166030884,1110.0,US-OK,Lawton,KLAW,,http://en.wikipedia.org/wiki/Lawton-Fort_Sill_Regional_Airport
LBE,medium_airport,Arnold Palmer Regional Airport,40.27590179,-79.40480042,1199.0,US-PA,Latrobe,KLBE,,http://en.wikipedia.org/wiki/Arnold_Palmer_Regional_Airport
LBF,medium_airport,North Platte Regional Airport Lee Bird Field,41.12620163,-100.6839981,2777.0,US-NE,North Platte,KLBF,,http://en.wikipedia.org/wiki/North_Platte_Regional_Airport
LBL,medium_airport,Liberal Mid-America Regional Airport,37.04420089999999,-100.95999909999999,2885.0,US-KS,Liberal,KLBL,,http://en.wikipedia.org/wiki/Liberal_Municipal_Airport
LBT,medium_airport,Lumberton Regional Airport,34.609901428200004,-79.05940246579998,126.0,US-NC,Lumberton,KLBT,http://www.lumbertonmunicipalairport.com/default.htm,http://en.wikipedia.org/wiki/Lumberton_Municipal_Airport
LJN,medium_airport,Texas Gulf Coast Regional Airport,29.108600616500002,-95.46209716799999,25.0,US-TX,Angleton/Lake Jackson,KLBX,http://www.flylbx.org/,http://en.wikipedia.org/wiki/Texas_Gulf_Coast_Regional_Airport
LCH,medium_airport,Lake Charles Regional Airport,30.12610054016113,-93.22329711914062,15.0,US-LA,Lake Charles,KLCH,,http://en.wikipedia.org/wiki/Lake_Charles_Regional_Airport
LEB,medium_airport,Lebanon Municipal Airport,43.626098632799994,-72.30419921880002,603.0,US-NH,Lebanon,KLEB,http://flyleb.com/,http://en.wikipedia.org/wiki/Lebanon_Municipal_Airport_(New_Hampshire)
LEE,medium_airport,Leesburg International Airport,28.82309914,-81.80870056,76.0,US-FL,Leesburg,KLEE,http://www.leesburgflorida.gov/index.aspx?page=45,http://en.wikipedia.org/wiki/Leesburg_International_Airport
LFK,medium_airport,Angelina County Airport,31.2339992523,-94.75,296.0,US-TX,Lufkin,KLFK,http://www.angelinacounty.net/departments/airport,http://en.wikipedia.org/wiki/Angelina_County_Airport
LGB,medium_airport,Long Beach /Daugherty Field/ Airport,33.81769943,-118.15200039999999,60.0,US-CA,Long Beach,KLGB,http://www.lgb.org/,http://en.wikipedia.org/wiki/Long_Beach_Airport
LGU,medium_airport,Logan-Cache Airport,41.7911987305,-111.851997375,4457.0,US-UT,Logan,KLGU,http://logan-cacheairport.org/,http://en.wikipedia.org/wiki/Logan-Cache_Airport
LMT,medium_airport,Crater Lake-Klamath Regional Airport,42.156101,-121.733002,4095.0,US-OR,Klamath Falls,KLMT,,http://en.wikipedia.org/wiki/Klamath_Falls_Airport
LND,medium_airport,Hunt Field,42.8152008057,-108.730003357,5586.0,US-WY,Lander,KLND,,
LNK,medium_airport,Lincoln Airport,40.85100173950195,-96.75920104980469,1219.0,US-NE,Lincoln,KLNK,http://www.lincolnairport.com/,http://en.wikipedia.org/wiki/Lincoln_Airport_%28Nebraska%29
LNS,medium_airport,Lancaster Airport,40.12170028686523,-76.29609680175781,403.0,US-PA,Lancaster,KLNS,,http://en.wikipedia.org/wiki/Lancaster_Airport_(Pennsylvania)
LOL,medium_airport,Derby Field,40.0663986206,-118.565002441,3904.0,US-NV,Lovelock,KLOL,http://pershingcounty.net/index.php/Derby-Field-Airport/derby-field-airport.html,http://en.wikipedia.org/wiki/Derby_Field
LOU,medium_airport,Bowman Field,38.2280006409,-85.6636962891,546.0,US-KY,Louisville,KLOU,http://www.flylouisville.com/bowman-field/fast-facts/,http://en.wikipedia.org/wiki/Bowman_Field_(airport)
LOZ,medium_airport,London-Corbin Airport/Magee Field,37.0821990967,-84.08489990230001,1212.0,US-KY,London,KLOZ,http://www.london-corbinairport.com/,http://en.wikipedia.org/wiki/London-Corbin_Airport
LRD,medium_airport,Laredo International Airport,27.543800354003906,-99.46160125732422,508.0,US-TX,Laredo,KLRD,,http://en.wikipedia.org/wiki/Laredo_International_Airport
LRF,medium_airport,Little Rock Air Force Base,34.916900634799994,-92.14969635010002,311.0,US-AR,Jacksonville,KLRF,http://www.littlerock.af.mil/,http://en.wikipedia.org/wiki/Little_Rock_Air_Force_Base
LRU,medium_airport,Las Cruces International Airport,32.28939819335937,-106.9219970703125,4456.0,US-NM,Las Cruces,KLRU,,http://en.wikipedia.org/wiki/Las_Cruces_International_Airport
LSE,medium_airport,La Crosse Municipal Airport,43.879002,-91.256699,655.0,US-WI,La Crosse,KLSE,http://www.lseairport.com/,http://en.wikipedia.org/wiki/La_Crosse_Municipal_Airport
LSF,medium_airport,Lawson Army Air Field (Fort Benning),32.337299346900004,-84.9913024902,232.0,US-GA,Fort Benning(Columbus),KLSF,,http://en.wikipedia.org/wiki/Lawson_Army_Airfield
LSV,medium_airport,Nellis Air Force Base,36.2361984253,-115.03399658200001,1870.0,US-NV,Las Vegas,KLSV,http://www.nellis.af.mil/,http://en.wikipedia.org/wiki/Nellis_Air_Force_Base
LUK,medium_airport,Cincinnati Municipal Airport Lunken Field,39.10329819,-84.41860199,483.0,US-OH,Cincinnati,KLUK,,http://en.wikipedia.org/wiki/Cincinnati_Municipal_Airport
LVM,medium_airport,Mission Field,45.6994018555,-110.44799804700001,4660.0,US-MT,Livingston,KLVM,http://www.parkcounty.org/site/Air_M_1.html#mf,http://en.wikipedia.org/wiki/Mission_Field
LVS,medium_airport,Las Vegas Municipal Airport,35.6542015076,-105.14199829100001,6877.0,US-NM,Las Vegas,KLVS,http://www.lasvegasnm.gov/business/municipal_airport/index.php,http://en.wikipedia.org/wiki/Las_Vegas_Municipal_Airport
LWB,medium_airport,Greenbrier Valley Airport,37.8582992554,-80.3994979858,2302.0,US-WV,Lewisburg,KLWB,,http://en.wikipedia.org/wiki/Greenbrier_Valley_Airport
LWM,medium_airport,Lawrence Municipal Airport,42.7172012329,-71.1233978271,148.0,US-MA,Lawrence,KLWM,http://www.lawrencemunicipalairport.com/,http://en.wikipedia.org/wiki/Lawrence_Municipal_Airport_(Massachusetts)
LWS,medium_airport,Lewiston Nez Perce County Airport,46.3745002746582,-117.01499938964844,1442.0,US-ID,Lewiston,KLWS,,http://en.wikipedia.org/wiki/Lewiston-Nez_Perce_County_Airport
LWT,medium_airport,Lewistown Municipal Airport,47.04930114746094,-109.46700286865234,4170.0,US-MT,Lewistown,KLWT,,http://en.wikipedia.org/wiki/Lewistown_Municipal_Airport
LYH,medium_airport,Lynchburg Regional Preston Glenn Field,37.326698303222656,-79.20040130615234,938.0,US-VA,Lynchburg,KLYH,,http://en.wikipedia.org/wiki/Lynchburg_Regional_Airport
MAF,medium_airport,Midland International Airport,31.9424991607666,-102.2020034790039,2871.0,US-TX,Midland,KMAF,,http://en.wikipedia.org/wiki/Midland_International_Airport
MBG,medium_airport,Mobridge Municipal Airport,45.54650116,-100.40799709999999,1716.0,US-SD,Mobridge,KMBG,,http://en.wikipedia.org/wiki/Mobridge_Municipal_Airport
MCB,medium_airport,Mc Comb/Pike County Airport/John E Lewis Field,31.17849922,-90.47190094,413.0,US-MS,Mc Comb,KMCB,,http://en.wikipedia.org/wiki/McComb%E2%80%93Pike_County_Airport
MCC,medium_airport,Mc Clellan Airfield,38.66759872,-121.40100100000001,77.0,US-CA,Sacramento,KMCC,,http://en.wikipedia.org/wiki/McClellan_Airfield
MCE,medium_airport,Merced Regional Macready Field,37.28469849,-120.5139999,155.0,US-CA,Merced,KMCE,,http://en.wikipedia.org/wiki/Merced_Regional_Airport
MCK,medium_airport,Mc Cook Ben Nelson Regional Airport,40.20629883,-100.59200290000001,2583.0,US-NE,Mc Cook,KMCK,,http://en.wikipedia.org/wiki/McCook_Regional_Airport
MCN,medium_airport,Middle Georgia Regional Airport,32.692798614501946,-83.64920043945312,354.0,US-GA,Macon,KMCN,,http://en.wikipedia.org/wiki/Middle_Georgia_Regional_Airport
MCW,medium_airport,Mason City Municipal Airport,43.15779876710001,-93.33129882809999,1213.0,US-IA,Mason City,KMCW,,
MDH,medium_airport,Southern Illinois Airport,37.778099060058594,-89.25199890136719,411.0,US-IL,Carbondale/Murphysboro,KMDH,,http://en.wikipedia.org/wiki/Southern_Illinois_Airport
MDT,medium_airport,Harrisburg International Airport,40.1935005188,-76.7633972168,310.0,US-PA,Harrisburg,KMDT,http://www.flyhia.com/,http://en.wikipedia.org/wiki/Harrisburg_International_Airport
MEI,medium_airport,Key Field,32.33259963989258,-88.75189971923828,297.0,US-MS,Meridian,KMEI,,http://en.wikipedia.org/wiki/Meridian_Regional_Airport
MER,medium_airport,Castle Airport,37.38050079,-120.5680008,191.0,US-CA,Merced,KMER,,http://en.wikipedia.org/wiki/Castle_Airport
MFD,medium_airport,Mansfield Lahm Regional Airport,40.82139968869999,-82.5166015625,1297.0,US-OH,Mansfield,KMFD,http://www.ci.mansfield.oh.us/index.php/lahm-airport,http://en.wikipedia.org/wiki/Mansfield_Lahm_Regional_Airport
MFE,medium_airport,Mc Allen Miller International Airport,26.17580032,-98.23860168,107.0,US-TX,Mc Allen,KMFE,,http://en.wikipedia.org/wiki/McAllen-Miller_International_Airport
MFR,medium_airport,Rogue Valley International Medford Airport,42.37419891357422,-122.8730010986328,1335.0,US-OR,Medford,KMFR,,http://en.wikipedia.org/wiki/Rogue_Valley_International-Medford_Airport
MGW,medium_airport,Morgantown Municipal Walter L. Bill Hart Field,39.64289856,-79.91629791,1248.0,US-WV,Morgantown,KMGW,,http://en.wikipedia.org/wiki/Morgantown_Municipal_Airport
MHK,medium_airport,Manhattan Regional Airport,39.14099884033203,-96.6707992553711,1057.0,US-KS,Manhattan,KMHK,,http://en.wikipedia.org/wiki/Manhattan_Regional_Airport
MHR,medium_airport,Sacramento Mather Airport,38.55390167,-121.29799650000001,98.0,US-CA,Sacramento,KMHR,http://www.sacramento.aero/mhr/,http://en.wikipedia.org/wiki/Sacramento_Mather_Airport
MIE,medium_airport,Delaware County Johnson Field,40.2422981262207,-85.3958969116211,937.0,US-IN,Muncie,KMIE,,http://en.wikipedia.org/wiki/Delaware_County_Airport
MKC,medium_airport,Charles B. Wheeler Downtown Airport,39.12319946289063,-94.5927963256836,759.0,US-MO,Kansas City,KMKC,,http://en.wikipedia.org/wiki/Charles_B._Wheeler_Downtown_Airport
MKL,medium_airport,Mc Kellar Sipes Regional Airport,35.59989929,-88.91560364,434.0,US-TN,Jackson,KMKL,,http://en.wikipedia.org/wiki/McKellar-Sipes_Regional_Airport
MLB,medium_airport,Melbourne International Airport,28.10280036926269,-80.64530181884766,33.0,US-FL,Melbourne,KMLB,,http://en.wikipedia.org/wiki/Melbourne_International_Airport
MLS,medium_airport,Frank Wiley Field,46.428001403808594,-105.88600158691406,2630.0,US-MT,Miles City,KMLS,,http://en.wikipedia.org/wiki/Miles_City_Municipal_Airport
MMT,medium_airport,Mc Entire Joint National Guard Base,33.92079926,-80.80130005,254.0,US-SC,Eastover,KMMT,,http://en.wikipedia.org/wiki/McEntire_Joint_National_Guard_Base
MMU,medium_airport,Morristown Municipal Airport,40.799400329589844,-74.41490173339844,187.0,US-NJ,Morristown,KMMU,,http://en.wikipedia.org/wiki/Morristown_Municipal_Airport
MOD,medium_airport,Modesto City Co-Harry Sham Field,37.62580109,-120.9540024,97.0,US-CA,Modesto,KMOD,,http://en.wikipedia.org/wiki/Modesto_City-County_Airport
MOT,medium_airport,Minot International Airport,48.2593994140625,-101.27999877929688,1716.0,US-ND,Minot,KMOT,,http://en.wikipedia.org/wiki/Minot_International_Airport
MPV,medium_airport,Edward F Knapp State Airport,44.20349884,-72.56230164,1166.0,US-VT,Barre/Montpelier,KMPV,,http://en.wikipedia.org/wiki/Edward_F._Knapp_State_Airport
MQY,medium_airport,Smyrna Airport,36.0089988708,-86.52010345459999,543.0,US-TN,Smyrna,KMQY,http://www.smyrnaairport.com/,http://en.wikipedia.org/wiki/Smyrna_Airport_(Tennessee)
MRB,medium_airport,Eastern WV Regional Airport/Shepherd Field,39.40190125,-77.98459625,565.0,US-WV,Martinsburg,KMRB,http://www.wvairport.org/,http://en.wikipedia.org/wiki/Eastern_WV_Regional_Airport
MRY,medium_airport,Monterey Peninsula Airport,36.58700180053711,-121.84300231933594,257.0,US-CA,Monterey,KMRY,,http://en.wikipedia.org/wiki/Monterey_Peninsula_Airport
MSL,medium_airport,Northwest Alabama Regional Airport,34.74530029,-87.61019897,551.0,US-AL,Muscle Shoals,KMSL,,http://en.wikipedia.org/wiki/Northwest_Alabama_Regional_Airport
MSO,medium_airport,Missoula International Airport,46.91630173,-114.0910034,3206.0,US-MT,Missoula,KMSO,,http://en.wikipedia.org/wiki/Missoula_International_Airport
MSS,medium_airport,Massena International Richards Field,44.93579864501953,-74.84559631347656,215.0,US-NY,Massena,KMSS,http://www.massenaworks.com/town/airport.asp,http://en.wikipedia.org/wiki/Massena_International_Airport
MTC,medium_airport,Selfridge Air National Guard Base Airport,42.613463,-82.836919,580.0,US-MI,Mount Clemens,KMTC,,http://en.wikipedia.org/wiki/Selfridge_Air_National_Guard_Base
MTJ,medium_airport,Montrose Regional Airport,38.5097999573,-107.89399719200001,5759.0,US-CO,Montrose,KMTJ,,
MWH,medium_airport,Grant County International Airport,47.20769882,-119.3199997,1189.0,US-WA,Moses Lake,KMWH,http://www.portofmoseslake.com/the-center-of-washington-aviation/,http://en.wikipedia.org/wiki/Grant_County_International_Airport
MYL,medium_airport,McCall Municipal Airport,44.88970184,-116.10099790000001,5024.0,US-ID,McCall,KMYL,http://www.mccall.id.us/services/airport.html,http://en.wikipedia.org/wiki/McCall_Municipal_Airport
MYR,medium_airport,Myrtle Beach International Airport,33.6796989441,-78.9282989502,25.0,US-SC,Myrtle Beach,KMYR,,http://en.wikipedia.org/wiki/Myrtle_Beach_International_Airport
MYV,medium_airport,Yuba County Airport,39.09780121,-121.5699997,64.0,US-CA,Marysville,KMYV,http://www.yubacoairport.com/,http://en.wikipedia.org/wiki/Yuba_County_Airport
NBG,medium_airport,New Orleans NAS JRB/Alvin Callender Field,29.82530022,-90.03500366,2.0,US-LA,New Orleans,KNBG,,http://en.wikipedia.org/wiki/Naval_Air_Station_Joint_Reserve_Base_New_Orleans
NEL,medium_airport,Lakehurst Maxfield Field Airport,40.03329849,-74.353302,101.0,US-NJ,Lakehurst,KNEL,,http://en.wikipedia.org/wiki/Naval_Air_Engineering_Station_Lakehurst
NEW,medium_airport,Lakefront Airport,30.042400360107003,-90.02829742431601,8.0,US-LA,New Orleans,KNEW,http://www.lakefrontairport.com/,http://en.wikipedia.org/wiki/New_Orleans_Lakefront_Airport
NFL,medium_airport,Fallon Naval Air Station,39.41659927,-118.70099640000001,3934.0,US-NV,Fallon,KNFL,http://www.cnic.navy.mil/regions/cnrsw/installations/nas_fallon.html,http://en.wikipedia.org/wiki/Naval_Air_Station_Fallon
FWH,medium_airport,NAS Fort Worth JRB/Carswell Field,32.76919937,-97.4414978,650.0,US-TX,Fort Worth,KNFW,http://www.cnic.navy.mil/regions/cnrse/installations/nas_jrb_fort_worth.html,http://en.wikipedia.org/wiki/Naval_Air_Station_Joint_Reserve_Base_Fort_Worth
NHZ,medium_airport,Brunswick Executive Airport,43.89220047,-69.93859863,72.0,US-ME,Brunswick,KBXM,http://mrra.us/brunswick-executive-airport/,https://en.wikipedia.org/wiki/Brunswick_Executive_Airport
NKX,medium_airport,Miramar Marine Corps Air Station - Mitscher Field,32.86840057,-117.1429977,477.0,US-CA,San Diego,KNKX,http://www.miramar.marines.mil/,https://en.wikipedia.org/wiki/Marine_Corps_Air_Station_Miramar
NLC,medium_airport,Lemoore Naval Air Station (Reeves Field) Airport,36.33300018,-119.95200349999999,232.0,US-CA,Lemoore,KNLC,http://www.cnic.navy.mil/regions/cnrsw/installations/nas_lemoore.html,http://en.wikipedia.org/wiki/Naval_Air_Station_Lemoore
NPA,medium_airport,Pensacola Naval Air Station/Forrest Sherman Field,30.35269928,-87.31860352,28.0,US-FL,Pensacola,KNPA,http://www.cnic.navy.mil/regions/cnrse/installations/nas_pensacola.html,http://en.wikipedia.org/wiki/Naval_Air_Station_Pensacola
NQA,medium_airport,Millington Regional Jetport Airport,35.356700897217,-89.87030029296899,320.0,US-TN,Millington,KNQA,,http://en.wikipedia.org/wiki/Millington_Regional_Jetport
NQI,medium_airport,Kingsville Naval Air Station,27.5072002411,-97.8097000122,50.0,US-TX,Kingsville,KNQI,http://www.cnic.navy.mil/regions/cnrse/installations/nas_kingsville.html,https://en.wikipedia.org/wiki/Naval_Air_Station_Kingsville
NQX,medium_airport,Naval Air Station Key West/Boca Chica Field,24.57579994,-81.68890381,6.0,US-FL,Key West,KNQX,http://www.cnic.navy.mil/regions/cnrse/installations/nas_key_west.html,https://en.wikipedia.org/wiki/Naval_Air_Station_Key_West
NRB,medium_airport,Naval Station Mayport (Admiral David L. Mcdonald Field),30.39109993,-81.42469788,15.0,US-FL,Mayport,KNRB,http://www.cnic.navy.mil/regions/cnrse/installations/ns_mayport.html,https://en.wikipedia.org/wiki/Naval_Station_Mayport
NSE,medium_airport,Whiting Field Naval Air Station - North,30.724199300000002,-87.02189636,199.0,US-FL,Milton,KNSE,,https://en.wikipedia.org/wiki/Naval_Air_Station_Whiting_Field_%E2%80%93_North
NTD,medium_airport,Point Mugu Naval Air Station (Naval Base Ventura Co),34.120300293,-119.12100219700001,13.0,US-CA,Point Mugu,KNTD,,http://en.wikipedia.org/wiki/Naval_Air_Station_Point_Mugu
YUM,medium_airport,Yuma MCAS/Yuma International Airport,32.65660095,-114.6060028,213.0,US-AZ,Yuma,KNYL,,http://en.wikipedia.org/wiki/Yuma_International_Airport
NZY,medium_airport,North Island Naval Air Station-Halsey Field,32.69919968,-117.2149963,26.0,US-CA,San Diego,KNZY,,http://en.wikipedia.org/wiki/Naval_Air_Station_North_Island
OAJ,medium_airport,Albert J Ellis Airport,34.8292007446,-77.61209869380002,94.0,US-NC,Jacksonville,KOAJ,,
OFF,medium_airport,Offutt Air Force Base,41.118301391602,-95.912498474121,1052.0,US-NE,Omaha,KOFF,http://www.offutt.af.mil/,http://en.wikipedia.org/wiki/Offutt_Air_Force_Base
OFK,medium_airport,Karl Stefan Memorial Airport,41.985500335693004,-97.435096740723,1573.0,US-NE,Norfolk,KOFK,http://www.norfolkairportservices.com/default.htm,https://en.wikipedia.org/wiki/Norfolk_Regional_Airport
OGB,medium_airport,Orangeburg Municipal Airport,33.456798553467,-80.859497070312,195.0,US-SC,Orangeburg,KOGB,http://www.orangeburg.sc.us/index.php?option=com_content&view=article&id=18&Itemid=69,https://en.wikipedia.org/wiki/Orangeburg_Municipal_Airport
OGD,medium_airport,Ogden Hinckley Airport,41.195899963379,-112.0120010376,4473.0,US-UT,Ogden,KOGD,http://flyogden.com/,http://en.wikipedia.org/wiki/Ogden-Hinckley_Airport
OLF,medium_airport,L M Clayton Airport,48.0945014954,-105.57499694799999,1986.0,US-MT,Wolf Point,KOLF,,http://en.wikipedia.org/wiki/L._M._Clayton_Airport
OLM,medium_airport,Olympia Regional Airport,46.9693985,-122.90299990000001,209.0,US-WA,Olympia,KOLM,,http://en.wikipedia.org/wiki/Olympia_Airport
OMA,medium_airport,Eppley Airfield,41.303199768066406,-95.89409637451172,984.0,US-NE,Omaha,KOMA,,http://en.wikipedia.org/wiki/Eppley_Airfield
NCO,medium_airport,Quonset State Airport,41.597099304199,-71.412101745605,18.0,US-RI,North Kingstown,KOQU,,http://en.wikipedia.org/wiki/Quonset_State_Airport
ORH,medium_airport,Worcester Regional Airport,42.26729965209961,-71.87570190429688,1009.0,US-MA,Worcester,KORH,,http://en.wikipedia.org/wiki/Worcester-Metrowest-Boston_Airport
OSH,medium_airport,Wittman Regional Airport,43.98440170288086,-88.55699920654297,808.0,US-WI,Oshkosh,KOSH,http://www.wittmanairport.com/,http://en.wikipedia.org/wiki/Wittman_Regional_Airport
OSU,medium_airport,Ohio State University Airport,40.0797996521,-83.072998046875,905.0,US-OH,Columbus,KOSU,,http://en.wikipedia.org/wiki/Ohio_State_University_Airport
OTH,medium_airport,Southwest Oregon Regional Airport,43.41709899902344,-124.24600219726562,17.0,US-OR,North Bend,KOTH,,http://en.wikipedia.org/wiki/Southwest_Oregon_Regional_Airport
OTM,medium_airport,Ottumwa Regional Airport,41.10660172,-92.44789886,845.0,US-IA,Ottumwa,KOTM,,
OWB,medium_airport,Owensboro Daviess County Airport,37.74010086,-87.16680145,407.0,US-KY,Owensboro,KOWB,,http://en.wikipedia.org/wiki/Owensboro-Daviess_County_Regional_Airport
OWD,medium_airport,Norwood Memorial Airport,42.1904983521,-71.1728973389,49.0,US-MA,Norwood,KOWD,http://www.ci.norwood.ma.us/Airport/Default.htm,http://en.wikipedia.org/wiki/Norwood_Memorial_Airport
OXR,medium_airport,Oxnard Airport,34.200801849365,-119.20700073241998,45.0,US-CA,Oxnard,KOXR,,http://en.wikipedia.org/wiki/Oxnard_Airport
OZR,medium_airport,Cairns AAF (Fort Rucker) Air Field,31.27569962,-85.71340179,301.0,US-AL,Fort Rucker/Ozark,KOZR,,http://en.wikipedia.org/wiki/Cairns_Army_Airfield
PAE,medium_airport,Snohomish County (Paine Field) Airport,47.90629959,-122.28199769999999,606.0,US-WA,Everett,KPAE,,http://en.wikipedia.org/wiki/Paine_Field
PAH,medium_airport,Barkley Regional Airport,37.06079864501953,-88.7738037109375,410.0,US-KY,Paducah,KPAH,,http://en.wikipedia.org/wiki/Barkley_Regional_Airport
PBF,medium_airport,Grider Field,34.173099517800004,-91.9356002808,206.0,US-AR,Pine Bluff,KPBF,http://www.cityofpinebluff.com/pbairport/,http://en.wikipedia.org/wiki/Grider_Field
PBG,medium_airport,Plattsburgh International Airport,44.6509017944336,-73.46810150146484,234.0,US-NY,Plattsburgh,KPBG,http://www.plattsburghinternationalairport.com/,http://en.wikipedia.org/wiki/Plattsburgh_International_Airport
PDK,medium_airport,DeKalb Peachtree Airport,33.8755989075,-84.3020019531,1003.0,US-GA,Atlanta,KPDK,http://web.co.dekalb.ga.us/pdkairport/index.asp,http://en.wikipedia.org/wiki/DeKalb-Peachtree_Airport
PDT,medium_airport,Eastern Oregon Regional At Pendleton Airport,45.695098877,-118.84100341799999,1497.0,US-OR,Pendleton,KPDT,,http://en.wikipedia.org/wiki/Eastern_Oregon_Regional_Airport
PGA,medium_airport,Page Municipal Airport,36.92610168,-111.447998,4316.0,US-AZ,Page,KPGA,,http://en.wikipedia.org/wiki/Page_Municipal_Airport
PGV,medium_airport,Pitt Greenville Airport,35.6352005,-77.38529968,26.0,US-NC,Greenville,KPGV,,http://en.wikipedia.org/wiki/Pitt-Greenville_Airport
PIB,medium_airport,Hattiesburg Laurel Regional Airport,31.467100143432614,-89.33709716796875,298.0,US-MS,Hattiesburg/Laurel,KPIB,,http://en.wikipedia.org/wiki/Hattiesburg-Laurel_Regional_Airport
PIE,medium_airport,St Petersburg Clearwater International Airport,27.91020012,-82.68740082,11.0,US-FL,St Petersburg-Clearwater,KPIE,,http://en.wikipedia.org/wiki/St._Petersburg-Clearwater_International_Airport
PIH,medium_airport,Pocatello Regional Airport,42.9098014831543,-112.59600067138672,4452.0,US-ID,Pocatello,KPIH,,http://en.wikipedia.org/wiki/Pocatello_Regional_Airport
PIR,medium_airport,Pierre Regional Airport,44.38270187,-100.2860031,1744.0,US-SD,Pierre,KPIR,,http://en.wikipedia.org/wiki/Pierre_Regional_Airport
PKB,medium_airport,Mid Ohio Valley Regional Airport,39.34510040283203,-81.43920135498047,858.0,US-WV,Parkersburg,KPKB,,http://en.wikipedia.org/wiki/Mid-Ohio_Valley_Regional_Airport
PLN,medium_airport,Pellston Regional Airport of Emmet County Airport,45.57089996,-84.79669952,721.0,US-MI,Pellston,KPLN,,http://en.wikipedia.org/wiki/Pellston_Regional_Airport
PMD,medium_airport,Palmdale Regional/USAF Plant 42 Airport,34.62939835,-118.08499909999999,2543.0,US-CA,Palmdale,KPMD,,http://en.wikipedia.org/wiki/LA/Palmdale_Regional_Airport
PWY,medium_airport,Ralph Wenz Field,42.79550171,-109.8069992,7102.0,US-WY,Pinedale,KPNA,http://www.pinedaleonline.com/pinedaleairport.HTM,https://en.wikipedia.org/wiki/Ralph_Wenz_Field
PNC,medium_airport,Ponca City Regional Airport,36.73199844,-97.09980011,1008.0,US-OK,Ponca City,KPNC,http://www.poncacityok.gov/index.aspx?nid=181,https://en.wikipedia.org/wiki/Ponca_City_Regional_Airport
PNE,medium_airport,Northeast Philadelphia Airport,40.081902,-75.010597,120.0,US-PA,Philadelphia,KPNE,http://www.phl.org/pne/pne.html,http://en.wikipedia.org/wiki/Northeast_Philadelphia_Airport
PNS,medium_airport,Pensacola Regional Airport,30.473400115967003,-87.18659973144501,121.0,US-FL,Pensacola,KPNS,http://www.flypensacola.com/,http://en.wikipedia.org/wiki/Pensacola_Regional_Airport
POB,medium_airport,Pope Field,35.1708984375,-79.014503479004,217.0,US-NC,Fayetteville,KPOB,http://www.pope.af.mil/,https://en.wikipedia.org/wiki/Pope_Field
POE,medium_airport,Polk Army Air Field,31.044799800000003,-93.1917038,330.0,US-LA,Fort Polk,KPOE,http://www.jrtc-polk.army.mil/,
POU,medium_airport,Dutchess County Airport,41.6265983581543,-73.88420104980469,165.0,US-NY,Poughkeepsie,KPOU,,http://en.wikipedia.org/wiki/Dutchess_County_Airport
PQI,medium_airport,Northern Maine Regional Airport at Presque Isle,46.68899918,-68.0447998,534.0,US-ME,Presque Isle,KPQI,,http://en.wikipedia.org/wiki/Northern_Maine_Regional_Airport_at_Presque_Isle
PRB,medium_airport,Paso Robles Municipal Airport,35.67290115,-120.6269989,840.0,US-CA,Paso Robles,KPRB,http://www.prcity.com/government/departments/publicworks/airport/,http://en.wikipedia.org/wiki/Paso_Robles_Municipal_Airport
PRC,medium_airport,Ernest A. Love Field,34.65449905,-112.41999820000001,5045.0,US-AZ,Prescott,KPRC,,http://en.wikipedia.org/wiki/Ernest_A._Love_Field
PRX,medium_airport,Cox Field,33.636600494385,-95.45079803466801,547.0,US-TX,Paris,KPRX,,http://en.wikipedia.org/wiki/Cox_Field
PSC,medium_airport,Tri Cities Airport,46.26470184326172,-119.11900329589844,410.0,US-WA,Pasco,KPSC,,
PSM,medium_airport,Portsmouth International at Pease Airport,43.0778999329,-70.8233032227,100.0,US-NH,Portsmouth,KPSM,,http://en.wikipedia.org/wiki/Pease_International_Airport
PSP,medium_airport,Palm Springs International Airport,33.829700469970696,-116.50700378417969,477.0,US-CA,Palm Springs,KPSP,http://www.palmspringsca.gov/index.aspx?page=270,http://en.wikipedia.org/wiki/Palm_Springs_International_Airport
PTK,medium_airport,Oakland County International Airport,42.665500640869006,-83.420097351074,980.0,US-MI,Pontiac,KPTK,https://www.oakgov.com/aviation/ocia,http://en.wikipedia.org/wiki/Oakland_County_International_Airport
PUW,medium_airport,Pullman Moscow Regional Airport,46.7439,-117.110001,2556.0,US-WA,Pullman/Moscow,KPUW,http://www.pullman-wa.gov/airport/,http://en.wikipedia.org/wiki/Pullman-Moscow_Regional_Airport
PVD,medium_airport,Theodore Francis Green State Airport,41.73260116577149,-71.42040252685547,55.0,US-RI,Providence,KPVD,,http://en.wikipedia.org/wiki/T._F._Green_Airport
PVU,medium_airport,Provo Municipal Airport,40.219200134277,-111.72299957275,4497.0,US-UT,Provo,KPVU,http://www.provo.org/city-services/airport,https://en.wikipedia.org/wiki/Provo_Municipal_Airport
PWK,medium_airport,Chicago Executive Airport,42.114222,-87.901494,647.0,US-IL,Chicago/Prospect Heights/Wheeling,KPWK,http://chiexec.com/,http://en.wikipedia.org/wiki/Chicago_Executive_Airport
PWT,medium_airport,Bremerton National Airport,47.490200042725,-122.76499938965,444.0,US-WA,Bremerton,KPWT,https://en.wikipedia.org/wiki/Bremerton_National_Airport,https://en.wikipedia.org/wiki/Bremerton_National_Airport
RAL,medium_airport,Riverside Municipal Airport,33.95190048,-117.4449997,819.0,US-CA,Riverside,KRAL,http://www.riversideca.gov/airport/,http://en.wikipedia.org/wiki/Riverside_Municipal_Airport
RAP,medium_airport,Rapid City Regional Airport,44.0452995300293,-103.05699920654295,3204.0,US-SD,Rapid City,KRAP,,http://en.wikipedia.org/wiki/Rapid_City_Regional_Airport
RBL,medium_airport,Red Bluff Municipal Airport,40.1506996155,-122.25199890100001,352.0,US-CA,Red Bluff,KRBL,,http://en.wikipedia.org/wiki/Red_Bluff_Municipal_Airport
RCA,medium_airport,Ellsworth Air Force Base,44.14500046,-103.1039963,3276.0,US-SD,Rapid City,KRCA,http://www.ellsworth.af.mil/,http://en.wikipedia.org/wiki/Ellsworth_Air_Force_Base
RDD,medium_airport,Redding Municipal Airport,40.50899887,-122.2929993,505.0,US-CA,Redding,KRDD,,http://en.wikipedia.org/wiki/Redding_Municipal_Airport
RDG,medium_airport,Reading Regional Carl A Spaatz Field,40.378501892089844,-75.96520233154297,344.0,US-PA,Reading,KRDG,,http://en.wikipedia.org/wiki/Reading_Regional_Airport
RDM,medium_airport,Roberts Field,44.254100799999996,-121.15000149999999,3080.0,US-OR,Redmond,KRDM,,http://en.wikipedia.org/wiki/Roberts_Field
RDR,medium_airport,Grand Forks Air Force Base,47.961101532,-97.4011993408,913.0,US-ND,Grand Forks,KRDR,http://www.grandforks.af.mil/,http://en.wikipedia.org/wiki/Grand_Forks_Air_Force_Base
RHI,medium_airport,Rhinelander Oneida County Airport,45.63119888305664,-89.46749877929688,1624.0,US-WI,Rhinelander,KRHI,,http://en.wikipedia.org/wiki/Rhinelander-Oneida_County_Airport
RIW,medium_airport,Riverton Regional Airport,43.064201355,-108.459999084,5525.0,US-WY,Riverton,KRIW,,http://en.wikipedia.org/wiki/Riverton_Regional_Airport
RKS,medium_airport,Rock Springs Sweetwater County Airport,41.59420013,-109.0650024,6764.0,US-WY,Rock Springs,KRKS,,http://en.wikipedia.org/wiki/Rock_Springs_-_Sweetwater_County_Airport
RME,medium_airport,Griffiss International Airport,43.23379898,-75.40699768,504.0,US-NY,Rome,KRME,http://www.ocgov.net/oneida/airport,http://en.wikipedia.org/wiki/Griffiss_Airfield
RMG,medium_airport,Richard B Russell Airport,34.3506011963,-85.15799713130002,644.0,US-GA,Rome,KRMG,http://www.romefloyd.com/EconomicDevelopment/Airport/tabid/306/Default.aspx,http://en.wikipedia.org/wiki/Richard_B._Russell_Airport
ROW,medium_airport,Roswell International Air Center Airport,33.30160140991211,-104.53099822998048,3671.0,US-NM,Roswell,KROW,,http://en.wikipedia.org/wiki/Roswell_International_Air_Center
RSL,medium_airport,Russell Municipal Airport,38.872100830078004,-98.811798095703,1862.0,US-KS,Russell,KRSL,http://www.russellcity.org/airport.php,
RUT,medium_airport,Rutland - Southern Vermont Regional Airport,43.52939987,-72.94960022,787.0,US-VT,Rutland,KRUT,,http://en.wikipedia.org/wiki/Rutland_State_Airport
RVS,medium_airport,Richard Lloyd Jones Jr Airport,36.039600372314,-95.98459625244101,638.0,US-OK,Tulsa,KRVS,http://www.tulsaairports.com/general-aviation/r-l-jones/,http://en.wikipedia.org/wiki/Richard_Lloyd_Jones_Jr._Airport
RWF,medium_airport,Redwood Falls Municipal Airport,44.54719925,-95.08229828,1024.0,US-MN,Redwood Falls,KRWF,,
RWI,medium_airport,Rocky Mount Wilson Regional Airport,35.856300354003906,-77.89189910888672,159.0,US-NC,Rocky Mount,KRWI,,
RWL,medium_airport,Rawlins Municipal Airport/Harvey Field,41.80559921,-107.1999969,6813.0,US-WY,Rawlins,KRWL,http://www.wyomingairports.org/index.php?/main/airports_detail/rawlins_municipal_airport/,http://en.wikipedia.org/wiki/Rawlins_Municipal_Airport
SAC,medium_airport,Sacramento Executive Airport,38.5125007629,-121.49299621600001,24.0,US-CA,Sacramento,KSAC,http://www.sacramento.aero/sac/,http://en.wikipedia.org/wiki/Sacramento_Executive_Airport
SAF,medium_airport,Santa Fe Municipal Airport,35.617099761999995,-106.08899688700001,6348.0,US-NM,Santa Fe,KSAF,,
MQT,medium_airport,Sawyer International Airport,46.3535995483,-87.39540100100001,1221.0,US-MI,Marquette,KSAW,http://www.sawyerairport.com/,http://en.wikipedia.org/wiki/Sawyer_International_Airport
SBA,medium_airport,Santa Barbara Municipal Airport,34.42620087,-119.8399963,13.0,US-CA,Santa Barbara,KSBA,,http://en.wikipedia.org/wiki/Santa_Barbara_Airport
SBD,medium_airport,San Bernardino International Airport,34.0954017639,-117.23500061,1159.0,US-CA,San Bernardino,KSBD,http://sbdairport.com/,http://en.wikipedia.org/wiki/San_Bernardino_International_Airport
SBP,medium_airport,San Luis County Regional Airport,35.2368011475,-120.64199829100001,212.0,US-CA,San Luis Obispo,KSBP,http://www.sloairport.com/,http://en.wikipedia.org/wiki/San_Luis_Obispo_County_Regional_Airport
SBY,medium_airport,Salisbury Ocean City Wicomico Regional Airport,38.34049987792969,-75.51029968261719,52.0,US-MD,Salisbury,KSBY,,http://en.wikipedia.org/wiki/Wicomico_Regional_Airport
SCH,medium_airport,Schenectady County Airport,42.852500915527,-73.92890167236301,378.0,US-NY,Schenectady,KSCH,http://www.schenectadycounty.com/FullStory.aspx?m=100&amid=432,http://en.wikipedia.org/wiki/Schenectady_County_Airport
SCK,medium_airport,Stockton Metropolitan Airport,37.894199371338,-121.2379989624,33.0,US-CA,Stockton,KSCK,http://www.sjgov.org/airport/,http://en.wikipedia.org/wiki/Stockton_Metropolitan_Airport
SDM,medium_airport,Brown Field Municipal Airport,32.572299957275,-116.98000335693001,526.0,US-CA,San Diego,KSDM,http://www.sandiego.gov/airports/brown/,http://en.wikipedia.org/wiki/Brown_Field_Municipal_Airport
SDY,medium_airport,Sidney Richland Municipal Airport,47.70690155,-104.1930008,1985.0,US-MT,Sidney,KSDY,,
SFF,medium_airport,Felts Field,47.682800292969,-117.32299804688,1953.0,US-WA,Spokane,KSFF,http://feltsfield.spokaneairports.net/,http://en.wikipedia.org/wiki/Felts_Field_Airport
SGH,medium_airport,Springfield-Beckley Municipal Airport,39.840301513671996,-83.840202331543,1051.0,US-OH,Springfield,KSGH,http://www.airparkohio.com/beckly_airport.html,http://en.wikipedia.org/wiki/Springfield-Beckley_Municipal_Airport
UST,medium_airport,Northeast Florida Regional Airport,29.9592,-81.339798,10.0,US-FL,St Augustine,KSGJ,http://www.flynf.com/,http://en.wikipedia.org/wiki/St._Augustine_Airport
SGR,medium_airport,Sugar Land Regional Airport,29.622299194335998,-95.65650177001999,82.0,US-TX,Houston,KSGR,http://www.sugarlandtx.gov/index.aspx?nid=1073,http://en.wikipedia.org/wiki/Sugar_Land_Regional_Airport
SGU,medium_airport,St George Municipal Airport,37.036389,-113.510306,2941.0,US-UT,St George,KSGU,http://www.sgcity.org/departments/publicworks/airport/,http://en.wikipedia.org/wiki/St._George_Municipal_Airport
SHR,medium_airport,Sheridan County Airport,44.76919937133789,-106.9800033569336,4021.0,US-WY,Sheridan,KSHR,,http://en.wikipedia.org/wiki/Sheridan_County_Airport
SJT,medium_airport,San Angelo Regional Mathis Field,31.35770034790039,-100.49600219726562,1919.0,US-TX,San Angelo,KSJT,,http://en.wikipedia.org/wiki/San_Angelo_Regional_Airport
SKF,medium_airport,Lackland Air Force Base,29.38419914,-98.58110046,691.0,US-TX,San Antonio,KSKF,,http://en.wikipedia.org/wiki/Lackland_Air_Force_Base
SLE,medium_airport,Salem Municipal Airport/McNary Field,44.90950012,-123.00299840000002,214.0,US-OR,Salem,KSLE,http://www.flysalem.com/,http://en.wikipedia.org/wiki/McNary_Field
SLK,medium_airport,Adirondack Regional Airport,44.38529968261719,-74.2061996459961,1663.0,US-NY,Saranac Lake,KSLK,,http://en.wikipedia.org/wiki/Adirondack_Regional_Airport
SLN,medium_airport,Salina Municipal Airport,38.79100036621094,-97.6521987915039,1288.0,US-KS,Salina,KSLN,,http://en.wikipedia.org/wiki/Salina_Municipal_Airport
SME,medium_airport,Lake Cumberland Regional Airport,37.0533981323,-84.61589813229999,927.0,US-KY,Somerset,KSME,,http://en.wikipedia.org/wiki/Lake_Cumberland_Regional_Airport
SMN,medium_airport,Lemhi County Airport,45.1237983704,-113.880996704,4043.0,US-ID,Salmon,KSMN,http://lemhicountyairport.com/,http://en.wikipedia.org/wiki/Lemhi_County_Airport
SMX,medium_airport,Santa Maria Pub/Capt G Allan Hancock Field,34.89889908,-120.4570007,261.0,US-CA,Santa Maria,KSMX,,http://en.wikipedia.org/wiki/Santa_Maria_Public_Airport
SNS,medium_airport,Salinas Municipal Airport,36.662799835205,-121.60600280761999,85.0,US-CA,Salinas,KSNS,http://www.ci.salinas.ca.us/services/airport/airport.cfm,http://en.wikipedia.org/wiki/Salinas_Municipal_Airport
SNY,medium_airport,Sidney Municipal-Lloyd W Carr Field,41.10129929,-102.98500059999999,4313.0,US-NE,Sidney,KSNY,http://www.cityofsidney.org/283/Airport,https://en.wikipedia.org/wiki/Sidney_Municipal_Airport_(Nebraska)
RUI,medium_airport,Sierra Blanca Regional Airport,33.462799072266,-105.53500366211,6814.0,US-NM,Ruidoso,KSRR,,http://en.wikipedia.org/wiki/Sierra_Blanca_Regional_Airport
SSF,medium_airport,Stinson Municipal Airport,29.336999893188,-98.47109985351601,577.0,US-TX,San Antonio,KSSF,http://www.sanantonio.gov/SSF.aspx,https://en.wikipedia.org/wiki/Stinson_Municipal_Airport
SSI,medium_airport,Malcolm McKinnon Airport,31.15180016,-81.39129639,19.0,US-GA,Brunswick,KSSI,http://www.goldenisles.com/listing/mckinnon-st-simons-island-airport,https://en.wikipedia.org/wiki/Malcolm_McKinnon_Airport
STC,medium_airport,St Cloud Regional Airport,45.54660034179688,-94.05989837646484,1031.0,US-MN,St Cloud,KSTC,,http://en.wikipedia.org/wiki/St._Cloud_Regional_Airport
STJ,medium_airport,Rosecrans Memorial Airport,39.771900177002,-94.909698486328,826.0,US-MO,St Joseph,KSTJ,http://www.stjoemo.info/index.aspx?NID=303,https://en.wikipedia.org/wiki/Rosecrans_Memorial_Airport
STP,medium_airport,St Paul Downtown Holman Field,44.93450164794922,-93.05999755859376,705.0,US-MN,St Paul,KSTP,,http://en.wikipedia.org/wiki/St._Paul_Downtown_Airport
STS,medium_airport,Charles M. Schulz Sonoma County Airport,38.50899887,-122.8130035,128.0,US-CA,Santa Rosa,KSTS,http://www.sonomacountyairport.org/,http://en.wikipedia.org/wiki/Charles_M._Schulz_-_Sonoma_County_Airport
SUN,medium_airport,Friedman Memorial Airport,43.50439835,-114.2959976,5318.0,US-ID,Hailey,KSUN,,http://en.wikipedia.org/wiki/Friedman_Memorial_Airport
SVN,medium_airport,Hunter Army Air Field,32.00999832,-81.14569855,41.0,US-GA,Savannah,KSVN,http://www.stewart.army.mil/units/home.asp?id=186,http://en.wikipedia.org/wiki/Hunter_Army_Airfield
SWF,medium_airport,Stewart International Airport,41.50410079956055,-74.10479736328125,491.0,US-NY,Newburgh,KSWF,,http://en.wikipedia.org/wiki/Stewart_International_Airport
SWO,medium_airport,Stillwater Regional Airport,36.161201477051,-97.08570098876999,1000.0,US-OK,Stillwater,KSWO,http://stillwater.org/government/city_facilities/stillwater_regional_airport/,http://en.wikipedia.org/wiki/Stillwater_Regional_Airport
TBN,medium_airport,Waynesville-St. Robert Regional Forney field,37.74160004,-92.14070129,1159.0,US-MO,Fort Leonard Wood,KTBN,,http://en.wikipedia.org/wiki/Waynesville_Regional_Airport_at_Forney_Field
TCC,medium_airport,Tucumcari Municipal Airport,35.182800293,-103.60299682600001,4065.0,US-NM,Tucumcari,KTCC,http://www.cityoftucumcari.com/airport.html,http://en.wikipedia.org/wiki/Tucumcari_Municipal_Airport
TCL,medium_airport,Tuscaloosa Regional Airport,33.220600128174,-87.611396789551,170.0,US-AL,Tuscaloosa,KTCL,http://www.tuscaloosa.com/Government/Departments/Transportation/airport,http://en.wikipedia.org/wiki/Tuscaloosa_Regional_Airport
TCS,medium_airport,Truth Or Consequences Municipal Airport,33.2369003296,-107.27200317399999,4853.0,US-NM,Truth Or Consequences,KTCS,http://www.torcnm.org/departments/airport.html,http://en.wikipedia.org/wiki/Truth_or_Consequences_Municipal_Airport
TEB,medium_airport,Teterboro Airport,40.85010147089999,-74.060798645,9.0,US-NJ,Teterboro,KTEB,http://www.teb.com/,http://en.wikipedia.org/wiki/Teterboro_Airport
TIW,medium_airport,Tacoma Narrows Airport,47.26789856,-122.57800290000002,294.0,US-WA,Tacoma,KTIW,,http://en.wikipedia.org/wiki/Tacoma_Narrows_Airport
TIX,medium_airport,Space Coast Regional Airport,28.514799118042003,-80.799201965332,34.0,US-FL,Titusville,KTIX,,http://en.wikipedia.org/wiki/Space_Coast_Regional_Airport
TMB,medium_airport,Kendall-Tamiami Executive Airport,25.6478996277,-80.432800293,8.0,US-FL,Miami,KTMB,http://www.miami-airport.com/kendall_tamiami.asp,http://en.wikipedia.org/wiki/Kendall-Tamiami_Executive_Airport
TOI,medium_airport,Troy Municipal Airport,31.860399246216,-86.012100219727,398.0,US-AL,Troy,KTOI,http://www.troyal.gov/KTOI,https://en.wikipedia.org/wiki/Troy_Municipal_Airport
TOP,medium_airport,Philip Billard Municipal Airport,39.068698883056996,-95.62249755859399,881.0,US-KS,Topeka,KTOP,http://www.mtaa-topeka.org/billard-airport,http://en.wikipedia.org/wiki/Philip_Billard_Municipal_Airport
TPH,medium_airport,Tonopah Airport,38.06019974,-117.086998,5430.0,US-NV,Tonopah,KTPH,http://www.tonopahnevada.com/airport.html,https://en.wikipedia.org/wiki/Tonopah_Airport
TPL,medium_airport,Draughon Miller Central Texas Regional Airport,31.15250015258789,-97.40779876708984,682.0,US-TX,Temple,KTPL,,
TKF,medium_airport,Truckee Tahoe Airport,39.3199996948,-120.13999939,5900.0,US-CA,Truckee,KTRK,,http://en.wikipedia.org/wiki/Truckee_Tahoe_Airport
TRM,medium_airport,Jacqueline Cochran Regional Airport,33.62670135498,-116.16000366211,-115.0,US-CA,Palm Springs,KTRM,http://www.rcjcra.com/,http://en.wikipedia.org/wiki/Jacqueline_Cochran_Regional_Airport
TTD,medium_airport,Portland Troutdale Airport,45.54940032959001,-122.40100097656,39.0,US-OR,Portland,KTTD,https://www2.portofportland.com/Airports/Troutdale/,https://en.wikipedia.org/wiki/Portland%E2%80%93Troutdale_Airport
TTN,medium_airport,Trenton Mercer Airport,40.27669906616211,-74.8134994506836,213.0,US-NJ,Trenton,KTTN,,http://en.wikipedia.org/wiki/Trenton-Mercer_Airport
TUP,medium_airport,Tupelo Regional Airport,34.26810073852539,-88.7698974609375,346.0,US-MS,Tupelo,KTUP,,http://en.wikipedia.org/wiki/Tupelo_Regional_Airport
TVC,medium_airport,Cherry Capital Airport,44.74140167236328,-85.58219909667969,624.0,US-MI,Traverse City,KTVC,,http://en.wikipedia.org/wiki/Cherry_Capital_Airport
TVL,medium_airport,Lake Tahoe Airport,38.89390182495117,-119.99500274658205,6264.0,US-CA,South Lake Tahoe,KTVL,,http://en.wikipedia.org/wiki/Lake_Tahoe_Airport
TWF,medium_airport,Joslin Field Magic Valley Regional Airport,42.48180008,-114.487999,4154.0,US-ID,Twin Falls,KTWF,,http://en.wikipedia.org/wiki/Magic_Valley_Regional_Airport
TXK,medium_airport,Texarkana Regional Webb Field,33.45370101928711,-93.99099731445312,390.0,US-AR,Texarkana,KTXK,,http://en.wikipedia.org/wiki/Texarkana_Regional_Airport
TYR,medium_airport,Tyler Pounds Regional Airport,32.35409927368164,-95.40239715576172,544.0,US-TX,Tyler,KTYR,,http://en.wikipedia.org/wiki/Tyler_Pounds_Regional_Airport
UIN,medium_airport,Quincy Regional Baldwin Field,39.94269943,-91.19460297,768.0,US-IL,Quincy,KUIN,,http://en.wikipedia.org/wiki/Quincy_Regional_Airport
UKI,medium_airport,Ukiah Municipal Airport,39.125999450684,-123.20099639893,614.0,US-CA,Ukiah,KUKI,http://www.cityofukiah.com/ukiah-airport/,http://en.wikipedia.org/wiki/Ukiah_Municipal_Airport
SCE,medium_airport,University Park Airport,40.8493003845,-77.84870147710002,1239.0,US-PA,State College,KUNV,http://universityparkairport.com/,http://en.wikipedia.org/wiki/University_Park_Airport
UOX,medium_airport,University Oxford Airport,34.384300231934,-89.536796569824,452.0,US-MS,Oxford,KUOX,http://airport.olemiss.edu/,https://en.wikipedia.org/wiki/University-Oxford_Airport
HTV,medium_airport,Huntsville Regional Airport,30.7469005585,-95.5871963501,363.0,US-TX,Huntsville,KUTS,,http://en.wikipedia.org/wiki/Huntsville_Regional_Airport
VAD,medium_airport,Moody Air Force Base,30.967800140399998,-83.1930007935,233.0,US-GA,Valdosta,KVAD,http://www.moody.af.mil/,http://en.wikipedia.org/wiki/Moody_Air_Force_Base
VCT,medium_airport,Victoria Regional Airport,28.85260009765625,-96.9185028076172,115.0,US-TX,Victoria,KVCT,,http://en.wikipedia.org/wiki/Victoria_Regional_Airport
VEL,medium_airport,Vernal Regional Airport,40.4408989,-109.5100021,5278.0,US-UT,Vernal,KVEL,,http://en.wikipedia.org/wiki/Vernal_Airport
VGT,medium_airport,North Las Vegas Airport,36.21070098877,-115.19400024414,2205.0,US-NV,Las Vegas,KVGT,http://www.vgt.aero/index.html,http://en.wikipedia.org/wiki/North_Las_Vegas_Airport
VLD,medium_airport,Valdosta Regional Airport,30.78249931335449,-83.27670288085938,203.0,US-GA,Valdosta,KVLD,,http://en.wikipedia.org/wiki/Valdosta_Regional_Airport
VNY,medium_airport,Van Nuys Airport,34.209800720215,-118.48999786376999,802.0,US-CA,Van Nuys,KVNY,,https://en.wikipedia.org/wiki/Van_Nuys_Airport
VOK,medium_airport,Volk Field,43.938999176025,-90.253402709961,912.0,US-WI,Camp Douglas,KVOK,http://www.volkfield.ang.af.mil/,https://en.wikipedia.org/wiki/Volk_Field_Air_National_Guard_Base
VPZ,medium_airport,Porter County Municipal Airport,41.45399857,-87.00710297,770.0,US-IN,Valparaiso,KVPZ,http://www.vpz.org/,http://en.wikipedia.org/wiki/Porter_County_Municipal_Airport
VRB,medium_airport,Vero Beach Municipal Airport,27.655599594116,-80.417900085449,24.0,US-FL,Vero Beach,KVRB,http://verobeachairport.org/,http://en.wikipedia.org/wiki/Vero_Beach_Municipal_Airport
VTN,medium_airport,Miller Field,42.85779953,-100.5479965,2596.0,US-NE,Valentine,KVTN,,https://en.wikipedia.org/wiki/Miller_Field_(airport)
WJF,medium_airport,General WM J Fox Airfield,34.74110031,-118.21900179999999,2351.0,US-CA,Lancaster,KWJF,,http://en.wikipedia.org/wiki/General_William_J._Fox_Airfield
WMC,medium_airport,Winnemucca Municipal Airport,40.8965988159,-117.805999756,4308.0,US-NV,Winnemucca,KWMC,,http://en.wikipedia.org/wiki/Winnemucca_Municipal_Airport
WRI,medium_airport,Mc Guire Air Force Base,40.01559829999999,-74.59169769,131.0,US-NJ,Wrightstown,KWRI,http://www.mcguire.af.mil/,http://en.wikipedia.org/wiki/McGuire_Air_Force_Base
WRL,medium_airport,Worland Municipal Airport,43.9656982421875,-107.95099639892578,4227.0,US-WY,Worland,KWRL,,http://en.wikipedia.org/wiki/Worland_Municipal_Airport
WWD,medium_airport,Cape May County Airport,39.008499145500004,-74.9083023071,23.0,US-NJ,Wildwood,KWWD,,http://en.wikipedia.org/wiki/Cape_May_Airport
WWR,medium_airport,West Woodward Airport,36.438,-99.5226667,2189.0,US-OK,Woodward,KWWR,http://www.cityofwoodward.com/airport-89/,http://en.wikipedia.org/wiki/West_Woodward_Airport
WYS,medium_airport,Yellowstone Airport,44.68840027,-111.11799620000001,6649.0,US-MT,West Yellowstone,KWYS,,http://en.wikipedia.org/wiki/Yellowstone_Airport
XNA,medium_airport,Northwest Arkansas Regional Airport,36.281898,-94.30680100000001,1287.0,US-AR,Fayetteville/Springdale,KXNA,http://www.flyxna.com/,https://en.wikipedia.org/wiki/Northwest_Arkansas_Regional_Airport
YIP,medium_airport,Willow Run Airport,42.23789978,-83.53040314,716.0,US-MI,Detroit,KYIP,,http://en.wikipedia.org/wiki/Willow_Run_Airport
YKM,medium_airport,Yakima Air Terminal McAllister Field,46.56819916,-120.5439987,1099.0,US-WA,Yakima,KYKM,,http://en.wikipedia.org/wiki/Yakima_Air_Terminal
YKN,medium_airport,Chan Gurney Municipal Airport,42.916698455811,-97.385902404785,1306.0,US-SD,Yankton,KYKN,http://www.cityofyankton.org/publicworks/airport/,http://en.wikipedia.org/wiki/Chan_Gurney_Municipal_Airport
YNG,medium_airport,Youngstown Warren Regional Airport,41.26070023,-80.67910004,1192.0,US-OH,Youngstown/Warren,KYNG,,http://en.wikipedia.org/wiki/Youngstown-Warren_Regional_Airport
ZZV,medium_airport,Zanesville Municipal Airport,39.9444007874,-81.89209747310001,900.0,US-OH,Zanesville,KZZV,,http://en.wikipedia.org/wiki/Zanesville_Municipal_Airport
PAQ,medium_airport,Palmer Municipal Airport,61.59489822387695,-149.08900451660156,242.0,US-AK,Palmer,PAAQ,,http://en.wikipedia.org/wiki/Palmer_Municipal_Airport
BTI,medium_airport,Barter Island LRRS Airport,70.13400268550001,-143.582000732,2.0,US-AK,Barter Island Lrrs,PABA,,http://en.wikipedia.org/wiki/Barter_Island_LRRS_Airport
BET,medium_airport,Bethel Airport,60.77980042,-161.8379974,126.0,US-AK,Bethel,PABE,,http://en.wikipedia.org/wiki/Bethel_Airport
BIG,medium_airport,Allen Army Airfield,63.994499206499995,-145.722000122,1291.0,US-AK,Delta Junction Ft Greely,PABI,,http://en.wikipedia.org/wiki/Allen_Army_Airfield00000000000000
BKC,medium_airport,Buckland Airport,65.9815979004,-161.149002075,31.0,US-AK,Buckland,PABL,,http://en.wikipedia.org/wiki/Buckland_Airport
BRW,medium_airport,Wiley Post Will Rogers Memorial Airport,71.285402,-156.766008,44.0,US-AK,Utqiaġvik,PABR,,http://en.wikipedia.org/wiki/Wiley_Post-Will_Rogers_Memorial_Airport
BTT,medium_airport,Bettles Airport,66.91390228,-151.529007,647.0,US-AK,Bettles,PABT,,http://en.wikipedia.org/wiki/Bettles_Airport
CDB,medium_airport,Cold Bay Airport,55.20610046386719,-162.72500610351562,96.0,US-AK,Cold Bay,PACD,,http://en.wikipedia.org/wiki/Cold_Bay_Airport
SCM,medium_airport,Scammon Bay Airport,61.84529876710001,-165.570999146,14.0,US-AK,Scammon Bay,PACM,,
CDV,medium_airport,Merle K (Mudhole) Smith Airport,60.49179839999999,-145.4779968,54.0,US-AK,Cordova,PACV,,http://en.wikipedia.org/wiki/Merle_K._(Mudhole)_Smith_Airport
CZF,medium_airport,Cape Romanzof LRRS Airport,61.78030014,-166.03900149999998,464.0,US-AK,Cape Romanzof,PACZ,,http://en.wikipedia.org/wiki/Cape_Romanzof_LRRS_Airport
DRG,medium_airport,Deering Airport,66.0696029663,-162.76600647,21.0,US-AK,Deering,PADE,,http://en.wikipedia.org/wiki/Deering_Airport
ADK,medium_airport,Adak Airport,51.87799835205078,-176.64599609375,18.0,US-AK,Adak Island,PADK,,http://en.wikipedia.org/wiki/Adak_Airport
DLG,medium_airport,Dillingham Airport,59.04470062,-158.50500490000002,81.0,US-AK,Dillingham,PADL,,http://en.wikipedia.org/wiki/Dillingham_Airport
MLL,medium_airport,Marshall Don Hunter Sr Airport,61.8642997742,-162.026000977,103.0,US-AK,Marshall,PADM,,http://en.wikipedia.org/wiki/Marshall_Don_Hunter_Sr._Airport
ADQ,medium_airport,Kodiak Airport,57.75,-152.4940033,78.0,US-AK,Kodiak,PADQ,,http://en.wikipedia.org/wiki/Kodiak_Airport
DUT,medium_airport,Unalaska Airport,53.900100708000004,-166.54400634799998,22.0,US-AK,Unalaska,PADU,,http://en.wikipedia.org/wiki/Unalaska_Airport
EDF,medium_airport,Elmendorf Air Force Base,61.2509994506836,-149.8070068359375,212.0,US-AK,Anchorage,PAED,,http://en.wikipedia.org/wiki/Elmendorf_Air_Force_Base
EHM,medium_airport,Cape Newenham LRRS Airport,58.6464004517,-162.06300354,541.0,US-AK,Cape Newenham,PAEH,,http://en.wikipedia.org/wiki/Cape_Newenham_LRRS_Airport
EIL,medium_airport,Eielson Air Force Base,64.66570282,-147.102005,547.0,US-AK,Fairbanks,PAEI,,http://en.wikipedia.org/wiki/Eielson_Air_Force_Base
EMK,medium_airport,Emmonak Airport,62.78609848,-164.49099730000003,13.0,US-AK,Emmonak,PAEM,,http://en.wikipedia.org/wiki/Emmonak_Airport
ENA,medium_airport,Kenai Municipal Airport,60.57310104370117,-151.2449951171875,99.0,US-AK,Kenai,PAEN,,http://en.wikipedia.org/wiki/Kenai_Municipal_Airport
FBK,medium_airport,Ladd AAF Airfield,64.83750153,-147.6139984,454.0,US-AK,Fairbanks/Ft Wainwright,PAFB,,http://en.wikipedia.org/wiki/Ladd_Army_Airfield
ABL,medium_airport,Ambler Airport,67.1063,-157.856989,334.0,US-AK,Ambler,PAFM,,http://en.wikipedia.org/wiki/Ambler_Airport
GAL,medium_airport,Edward G. Pitka Sr Airport,64.73619843,-156.93699650000002,153.0,US-AK,Galena,PAGA,,http://en.wikipedia.org/wiki/Edward_G._Pitka_Sr._Airport
GKN,medium_airport,Gulkana Airport,62.15489960000001,-145.4570007,1586.0,US-AK,Gulkana,PAGK,,http://en.wikipedia.org/wiki/Gulkana_Airport
GAM,medium_airport,Gambell Airport,63.76679992675781,-171.73300170898438,27.0,US-AK,Gambell,PAGM,,http://en.wikipedia.org/wiki/Gambell_Airport
GST,medium_airport,Gustavus Airport,58.42530060000001,-135.7070007,35.0,US-AK,Gustavus,PAGS,,http://en.wikipedia.org/wiki/Gustavus_Airport
HCR,medium_airport,Holy Cross Airport,62.18830108642578,-159.77499389648438,70.0,US-AK,Holy Cross,PAHC,,http://en.wikipedia.org/wiki/Holy_Cross_Airport
HSL,medium_airport,Huslia Airport,65.69789886,-156.3509979,220.0,US-AK,Huslia,PAHL,,http://en.wikipedia.org/wiki/Huslia_Airport
HNS,medium_airport,Haines Airport,59.24380111694336,-135.52400207519528,15.0,US-AK,Haines,PAHN,,http://en.wikipedia.org/wiki/Haines_Airport
HOM,medium_airport,Homer Airport,59.64559936523438,-151.4770050048828,84.0,US-AK,Homer,PAHO,,http://en.wikipedia.org/wiki/Homer_Airport
HPB,medium_airport,Hooper Bay Airport,61.52389908,-166.1470032,13.0,US-AK,Hooper Bay,PAHP,,http://en.wikipedia.org/wiki/Hooper_Bay_Airport
EGX,medium_airport,Egegik Airport,58.1855010986,-157.375,92.0,US-AK,Egegik,PAII,,http://en.wikipedia.org/wiki/Egegik_Airport
IAN,medium_airport,Bob Baker Memorial Airport,66.9759979248,-160.43699646,166.0,US-AK,Kiana,PAIK,,http://en.wikipedia.org/wiki/Bob_Baker_Memorial_Airport
ILI,medium_airport,Iliamna Airport,59.75439835,-154.9109955,192.0,US-AK,Iliamna,PAIL,,http://en.wikipedia.org/wiki/Iliamna_Airport
UTO,medium_airport,Indian Mountain LRRS Airport,65.99279785,-153.7039948,1273.0,US-AK,Utopia Creek,PAIM,,http://en.wikipedia.org/wiki/Indian_Mountain_LRRS_Airport
JNU,medium_airport,Juneau International Airport,58.35499954223633,-134.57600402832028,21.0,US-AK,Juneau,PAJN,,http://en.wikipedia.org/wiki/Juneau_International_Airport
AKN,medium_airport,King Salmon Airport,58.67679977,-156.6490021,73.0,US-AK,King Salmon,PAKN,,http://en.wikipedia.org/wiki/King_Salmon_Airport
AKP,medium_airport,Anaktuvuk Pass Airport,68.13359833,-151.7429962,2102.0,US-AK,Anaktuvuk Pass,PAKP,,http://en.wikipedia.org/wiki/Anaktuvuk_Pass_Airport
KTN,medium_airport,Ketchikan International Airport,55.35559845,-131.7140045,89.0,US-AK,Ketchikan,PAKT,,http://en.wikipedia.org/wiki/Ketchikan_International_Airport
KLW,medium_airport,Klawock Airport,55.5792007446,-133.076004028,80.0,US-AK,Klawock,PAKW,,http://en.wikipedia.org/wiki/Klawock_Airport
LUR,medium_airport,Cape Lisburne LRRS Airport,68.87509918,-166.1100006,16.0,US-AK,Cape Lisburne,PALU,,http://en.wikipedia.org/wiki/Cape_Lisburne_LRRS_Airport
MCG,medium_airport,McGrath Airport,62.95289993,-155.60600280000003,341.0,US-AK,McGrath,PAMC,,http://en.wikipedia.org/wiki/McGrath_Airport
MRI,medium_airport,Merrill Field,61.2135009765625,-149.843994140625,137.0,US-AK,Anchorage,PAMR,,http://en.wikipedia.org/wiki/Merrill_Field
MYU,medium_airport,Mekoryuk Airport,60.37139892578125,-166.27099609375,48.0,US-AK,Mekoryuk,PAMY,,
ANI,medium_airport,Aniak Airport,61.58160018920898,-159.54299926757812,88.0,US-AK,Aniak,PANI,,http://en.wikipedia.org/wiki/Aniak_Airport
ENN,medium_airport,Nenana Municipal Airport,64.54730224609375,-149.07400512695312,362.0,US-AK,Nenana,PANN,,http://en.wikipedia.org/wiki/Nenana_Municipal_Airport
ANN,medium_airport,Annette Island Airport,55.04240036010742,-131.57200622558594,119.0,US-AK,Annette,PANT,,http://en.wikipedia.org/wiki/Annette_Island_Airport
ANV,medium_airport,Anvik Airport,62.646702000000005,-160.190994,291.0,US-AK,Anvik,PANV,,https://en.wikipedia.org/wiki/Anvik_Airport
OME,medium_airport,Nome Airport,64.51219940185547,-165.44500732421875,37.0,US-AK,Nome,PAOM,,http://en.wikipedia.org/wiki/Nome_Airport
ORT,medium_airport,Northway Airport,62.96129989999999,-141.9290009,1715.0,US-AK,Northway,PAOR,,http://en.wikipedia.org/wiki/Northway_Airport
OTZ,medium_airport,Ralph Wien Memorial Airport,66.88469696,-162.598999,14.0,US-AK,Kotzebue,PAOT,,http://en.wikipedia.org/wiki/Ralph_Wien_Memorial_Airport
STG,medium_airport,St George Airport,56.5783004761,-169.662002563,125.0,US-AK,St George,PAPB,,http://en.wikipedia.org/wiki/St._George_Airport_(Alaska)
KPC,medium_airport,Port Clarence Coast Guard Station,65.25370025630001,-166.85899353,10.0,US-AK,Port Clarence,PAPC,,http://en.wikipedia.org/wiki/Port_Clarence_Coast_Guard_Station
PSG,medium_airport,Petersburg James A Johnson Airport,56.80170059,-132.9450073,111.0,US-AK,Petersburg,PAPG,,http://en.wikipedia.org/wiki/Petersburg_James_A._Johnson_Airport
PTH,medium_airport,Port Heiden Airport,56.95909881591797,-158.63299560546875,95.0,US-AK,Port Heiden,PAPH,,
PTU,medium_airport,Platinum Airport,59.01139831542969,-161.82000732421875,15.0,US-AK,Platinum,PAPM,,
NUI,medium_airport,Nuiqsut Airport,70.2099990845,-151.00599670399998,38.0,US-AK,Nuiqsut,PAQT,,http://en.wikipedia.org/wiki/Nuiqsut_Airport
ARC,medium_airport,Arctic Village Airport,68.1147,-145.578995,2092.0,US-AK,Arctic Village,PARC,,https://en.wikipedia.org/wiki/Arctic_Village_Airport
RBY,medium_airport,Ruby Airport,64.72720337,-155.47000119999998,658.0,US-AK,Ruby,PARY,,
SVA,medium_airport,Savoonga Airport,63.6864013671875,-170.4929962158203,53.0,US-AK,Savoonga,PASA,,
SCC,medium_airport,Deadhorse Airport,70.19470215,-148.46499630000002,65.0,US-AK,Deadhorse,PASC,,http://en.wikipedia.org/wiki/Deadhorse_Airport
SDP,medium_airport,Sand Point Airport,55.31499862670898,-160.5229949951172,21.0,US-AK,Sand Point,PASD,,
SHH,medium_airport,Shishmaref Airport,66.249604,-166.089112,12.0,US-AK,Shishmaref,PASH,,https://en.wikipedia.org/wiki/Shishmaref_Airport
SIT,medium_airport,Sitka Rocky Gutierrez Airport,57.04710006713867,-135.36199951171878,21.0,US-AK,Sitka,PASI,,http://en.wikipedia.org/wiki/Sitka_Rocky_Gutierrez_Airport
WLK,medium_airport,Selawik Airport,66.60009766,-159.98599240000001,17.0,US-AK,Selawik,PASK,,http://en.wikipedia.org/wiki/Selawik_Airport
KSM,medium_airport,St Mary's Airport,62.0605011,-163.30200200000002,312.0,US-AK,St Mary's,PASM,,http://en.wikipedia.org/wiki/St._Mary's_Airport_(Alaska)
SNP,medium_airport,St Paul Island Airport,57.16730117797852,-170.22000122070312,63.0,US-AK,St Paul Island,PASN,,
SVW,medium_airport,Sparrevohn LRRS Airport,61.09740067,-155.5740051,1585.0,US-AK,Sparrevohn,PASV,,http://en.wikipedia.org/wiki/Sparrevohn_LRRS_Airport
SXQ,medium_airport,Soldotna Airport,60.47570037841797,-151.03399658203125,113.0,US-AK,Soldotna,PASX,,
SYA,medium_airport,Eareckson Air Station,52.71229935,174.1139984,95.0,US-AK,Shemya,PASY,,http://en.wikipedia.org/wiki/Eareckson_Air_Station
TOG,medium_airport,Togiak Airport,59.05279922485352,-160.39700317382812,21.0,US-AK,Togiak Village,PATG,,
TKA,medium_airport,Talkeetna Airport,62.320499420165994,-150.09399414062,358.0,US-AK,Talkeetna,PATK,,http://en.wikipedia.org/wiki/Talkeetna_Airport
TLJ,medium_airport,Tatalina LRRS Airport,62.894401550299996,-155.977005005,964.0,US-AK,Takotna,PATL,,http://en.wikipedia.org/wiki/Tatalina_LRRS_Airport
ATK,medium_airport,Atqasuk Edward Burnell Sr Memorial Airport,70.46730041503906,-157.43600463867188,96.0,US-AK,Atqasuk,PATQ,,http://en.wikipedia.org/wiki/Atqasuk_Edward_Burnell_Sr._Memorial_Airport
VDZ,medium_airport,Valdez Pioneer Field,61.13389969,-146.24800109999998,121.0,US-AK,Valdez,PAVD,,http://en.wikipedia.org/wiki/Valdez_Airport
KVL,medium_airport,Kivalina Airport,67.73619842529297,-164.56300354003906,13.0,US-AK,Kivalina,PAVL,,
SWD,medium_airport,Seward Airport,60.12689971923828,-149.41900634765625,22.0,US-AK,Seward,PAWD,,
WRG,medium_airport,Wrangell Airport,56.48429871,-132.36999509999998,49.0,US-AK,Wrangell,PAWG,,http://en.wikipedia.org/wiki/Wrangell_Airport
AIN,medium_airport,Wainwright Airport,70.6380004883,-159.994995117,41.0,US-AK,Wainwright,PAWI,,http://en.wikipedia.org/wiki/Wainwright_Airport_(Alaska)
WTK,medium_airport,Noatak Airport,67.56610107421875,-162.97500610351562,88.0,US-AK,Noatak,PAWN,,
WWA,medium_airport,Wasilla Airport,61.5717010498,-149.539993286,354.0,US-AK,Wasilla,PAWS,,http://en.wikipedia.org/wiki/Wasilla_Airport
YAK,medium_airport,Yakutat Airport,59.503299713100006,-139.660003662,33.0,US-AK,Yakutat,PAYA,,http://en.wikipedia.org/wiki/Yakutat_Airport
FYU,medium_airport,Fort Yukon Airport,66.57150268554689,-145.25,433.0,US-AK,Fort Yukon,PFYU,,http://en.wikipedia.org/wiki/Fort_Yukon_Airport
BKH,medium_airport,Barking Sands Airport,22.022800445599998,-159.785003662,23.0,US-HI,Kekaha,PHBK,,http://en.wikipedia.org/wiki/Pacific_Missile_Range_Facility
HDH,medium_airport,Dillingham Airfield,21.5795001984,-158.197006226,14.0,US-HI,Mokuleia,PHDH,,http://en.wikipedia.org/wiki/Dillingham_Airfield
HHI,medium_airport,Wheeler Army Airfield,21.48349953,-158.03999330000002,837.0,US-HI,Wahiawa,PHHI,,http://en.wikipedia.org/wiki/Wheeler_Army_Airfield
HNM,medium_airport,Hana Airport,20.79560089111328,-156.01400756835938,78.0,US-HI,Hana,PHHN,,http://en.wikipedia.org/wiki/Hana_Airport
JHM,medium_airport,Kapalua Airport,20.962900161743164,-156.67300415039062,256.0,US-HI,Lahaina,PHJH,,http://en.wikipedia.org/wiki/Kapalua_Airport
JRF,medium_airport,Kalaeloa Airport,21.3074,-158.070009,30.0,US-HI,Kapolei,PHJR,http://hawaii.gov/hnl/airport-information/kalaeloa-airport-jrf,http://en.wikipedia.org/wiki/Kalaeloa_Airport
KOA,medium_airport,Kona International At Keahole Airport,19.738800048828125,-156.04600524902344,47.0,US-HI,Kailua/Kona,PHKO,,http://en.wikipedia.org/wiki/Kona_International_Airport
LIH,medium_airport,Lihue Airport,21.97599983215332,-159.33900451660156,153.0,US-HI,Lihue,PHLI,,http://en.wikipedia.org/wiki/Lihu'e_Airport
MKK,medium_airport,Molokai Airport,21.15290069580078,-157.0959930419922,454.0,US-HI,Kaunakakai,PHMK,,http://en.wikipedia.org/wiki/Molokai_Airport
MUE,medium_airport,Waimea Kohala Airport,20.001300811767575,-155.66799926757812,2671.0,US-HI,Kamuela,PHMU,,http://en.wikipedia.org/wiki/Waimea-Kohala_Airport
NGF,medium_airport,Kaneohe Bay MCAS (Marion E. Carl Field) Airport,21.450500488299998,-157.76800537100002,24.0,US-HI,Kaneohe,PHNG,http://www.mcbhawaii.marines.mil/Units/SubordinateCommands/MarineCorpsAirStation.aspx,https://en.wikipedia.org/wiki/Marine_Corps_Air_Station_Kaneohe_Bay
LNY,medium_airport,Lanai Airport,20.785600662231445,-156.9510040283203,1308.0,US-HI,Lanai City,PHNY,,http://en.wikipedia.org/wiki/Lanai_Airport
OGG,medium_airport,Kahului Airport,20.8986,-156.429993,54.0,US-HI,Kahului,PHOG,,http://en.wikipedia.org/wiki/Kahului_Airport
BSF,medium_airport,Bradshaw Army Airfield,19.760099411,-155.554000854,6190.0,US-HI,Camp Pohakuloa,PHSF,,
ITO,medium_airport,Hilo International Airport,19.721399307250977,-155.04800415039062,38.0,US-HI,Hilo,PHTO,,http://en.wikipedia.org/wiki/Hilo_International_Airport
UPP,medium_airport,Upolu Airport,20.265300750732425,-155.86000061035156,96.0,US-HI,Hawi,PHUP,,http://en.wikipedia.org/wiki/Upolu_Airport
PIZ,medium_airport,Point Lay LRRS Airport,69.73290253,-163.00500490000002,22.0,US-AK,Point Lay,PPIZ,,http://en.wikipedia.org/wiki/Point_Lay_LRRS_Airport
