iata_code,type,name,lat,lon,elevation_ft,iso_region,municipality,icao_code,home_link,wikipedia_link
OCA,small_airport,Ocean Reef Club Airport,25.325399398804002,-80.274803161621,8.0,US-FL,Key Largo,07FA,https://www.oceanreef.com/community/private-airport-1345.html,https://en.wikipedia.org/wiki/Ocean_Reef_Club_Airport
PQS,small_airport,Pilot Station Airport,61.934601,-162.899994,305.0,US-AK,Pilot Station,,,https://en.wikipedia.org/wiki/Pilot_Station_Airport
CSE,small_airport,Buckhorn Ranch Airport,38.851898193400004,-106.93281999999999,8980.0,US-CO,Crested Butte,0CO2,,
JCY,small_airport,LBJ Ranch Airport,30.251800537100006,-98.6224975586,1515.0,US-TX,Johnson City,0TE7,,
PMX,small_airport,Metropolitan Airport,42.223300933800004,-72.31140136719998,418.0,US-MA,Palmer,13MA,,http://en.wikipedia.org/wiki/Metropolitan_Airport
NUP,small_airport,Nunapitchuk Airport,60.905591,-162.44045400000002,12.0,US-AK,Nunapitchuk,PPIT,,http://en.wikipedia.org/wiki/Nunapitchuk_Airport
ICY,small_airport,Icy Bay Airport,59.96900177,-141.662002563,50.0,US-AK,Icy Bay,19AK,,http://en.wikipedia.org/wiki/Icy_Bay_Airport
KKK,small_airport,Kalakaket Creek AS Airport,64.4166256967,-156.820392609,1598.0,US-AK,Kalakaket Creek,1KC,,
MHS,small_airport,Dunsmuir Muni-Mott Airport,41.263199,-122.272003,3258.0,US-CA,Dunsmuir,KMHS,,http://en.wikipedia.org/wiki/Dunsmuir_Municipal-Mott_Airport
LVD,small_airport,Lime Village Airport,61.3591003418,-155.440002441,552.0,US-AK,Lime Village,2AK,,
HGZ,small_airport,Hog River Airport,66.21610260000001,-155.6690063,534.0,US-AK,Hogatza,2AK6,,
OTN,small_airport,Ed-Air Airport,38.851398468,-87.49970245360001,426.0,US-IN,Oaktown,I20,http://www.edairinc.com/index.html,http://en.wikipedia.org/wiki/Ed-Air_Airport
TLF,small_airport,Telida Airport,63.393901824951,-153.26899719238,650.0,US-AK,Telida,2K5,,https://en.wikipedia.org/wiki/Telida_Airport
BZT,small_airport,Eagle Air Park,28.982200622559,-95.579696655273,15.0,US-TX,Brazoria,2TE0,,
BYW,small_airport,Blakely Island Airport,48.578998565700005,-122.82599639899999,66.0,US-WA,Blakely Island,38WA,,
DRF,small_airport,Drift River Airport,60.5889015198,-152.162002563,30.0,US-AK,Kenai,3AK5,,
BDF,small_airport,Rinkenberger Restricted Landing Area,41.2308998108,-89.61569976810001,808.0,US-IL,Bradford,3IS8,,
VRS,small_airport,Roy Otten Memorial Airfield,38.427799224854,-92.875198364258,1030.0,US-MO,Versailles,3VS,,
ATT,small_airport,Atmautluak Airport,60.866699,-162.272995,17.0,US-AK,Atmautluak,,,http://en.wikipedia.org/wiki/Atmautluak_Airport
LIV,small_airport,Livengood Camp Airport,65.467,-148.6534,425.0,US-AK,Livengood,4AK,,
PDB,small_airport,Pedro Bay Airport,59.789600372299994,-154.12399292,45.0,US-AK,Pedro Bay,4K0,,
KOZ,small_airport,Ouzinkie Airport,57.925362,-152.496715,55.0,US-AK,Ouzinkie,,,http://en.wikipedia.org/wiki/Ouzinkie_Airport
TNK,small_airport,Tununak Airport,60.575500488281,-165.27200317383,14.0,US-AK,Tununak,4KA,,https://en.wikipedia.org/wiki/Tununak_Airport
NNK,small_airport,Naknek Airport,58.732898712158004,-157.02000427246,70.0,US-AK,Naknek,5NK,,https://en.wikipedia.org/wiki/Naknek_Airport
BCS,small_airport,Southern Seaplane Airport,29.866100311300002,-90.02220153809999,,US-LA,Belle Chasse,65LA,http://southernseaplane.com/cms/?page_id=460,http://en.wikipedia.org/wiki/Southern_Seaplane_Airport
BWL,small_airport,Earl Henry Airport,36.7958984375,-97.31700134280001,1054.0,US-OK,Blackwell,6OK6,,http://en.wikipedia.org/wiki/Earl_Henry_Airport
CWS,small_airport,Center Island Airport,48.4901008606,-122.83200073200001,115.0,US-WA,Center Island,78WA,,http://en.wikipedia.org/wiki/Center_Island_Airport
TEK,small_airport,Tatitlek Airport,60.871449,-146.690297,62.0,US-AK,Tatitlek,PAKA,,http://en.wikipedia.org/wiki/Tatitlek_Airport
DUF,small_airport,Pine Island Airport,36.2535018921,-75.7884979248,16.0,US-NC,Corolla,7NC2,,http://en.wikipedia.org/wiki/Pine_Island_Airport
SSW,small_airport,Stuart Island Airpark,48.672901153564,-123.17600250244,10.0,US-WA,Stuart Island,7WA5,,
FOB,small_airport,Fort Bragg Airport,39.4743003845,-123.79599762,71.0,US-CA,Fort Bragg,82CL,,
AXB,small_airport,Maxson Airfield,44.312002,-75.90034,340.0,US-NY,Alexandria Bay,89NY,http://www.maxsonairfield.com/,http://en.wikipedia.org/wiki/Maxson_Airfield
REE,small_airport,Reese Airpark,33.590301513671996,-102.03700256348,3338.0,US-TX,Lubbock,8XS8,http://reesetechnologycenter.com/index.php/facilities/airfield-pad-site-development,https://en.wikipedia.org/wiki/Reese_Air_Force_Base
WDN,small_airport,Waldronaire Airport,48.7117996216,-123.017997742,140.0,US-WA,East Sound,90WA,,
CHU,small_airport,Chuathbaluk Airport,61.579102,-159.216003,244.0,US-AK,Chuathbaluk,PACH,,https://en.wikipedia.org/wiki/Chuathbaluk_Airport
UGS,small_airport,Ugashik Airport,57.5279006958,-157.399002075,25.0,US-AK,Ugashik,9A8,,https://en.wikipedia.org/wiki/Ugashik_Airport
KLL,small_airport,Levelock Airport,59.1281013489,-156.85899353,39.0,US-AK,Levelock,9Z8,,http://en.wikipedia.org/wiki/Levelock_Airport
WTL,small_airport,Tuntutuliak Airport,60.335300445600005,-162.667007446,16.0,US-AK,Tuntutuliak,A61,,http://en.wikipedia.org/wiki/Tuntutuliak_Airport
TWA,small_airport,Twin Hills Airport,59.07559967040999,-160.27299499512,82.0,US-AK,Twin Hills,A63,,https://en.wikipedia.org/wiki/Twin_Hills_Airport
KCQ,small_airport,Chignik Lake Airport,56.25500106810001,-158.774993896,50.0,US-AK,Chignik Lake,A79,,http://en.wikipedia.org/wiki/Chignik_Lake_Airport
CEX,small_airport,Chena Hot Springs Airport,65.0518035889,-146.04699707,1195.0,US-AK,Chena Hot Springs,AK13,,
SOL,small_airport,Solomon State Field,64.5605,-164.4457,25.0,US-AK,Solomon,AK26,,
HED,small_airport,Herendeen Bay Airport,55.801399231000005,-160.899002075,20.0,US-AK,Herendeen Bay,AK33,,
TWE,small_airport,Taylor Airport,65.6792984009,-164.798995972,440.0,US-AK,Taylor,AK49,,
LNI,small_airport,Lonely Air Station,70.91069794,-153.2420044,17.0,US-AK,Lonely,PALN,,http://en.wikipedia.org/wiki/Lonely_Air_Station
CDL,small_airport,Candle 2 Airport,65.907699585,-161.92599487299998,15.0,US-AK,Candle,AK75,,
BSZ,small_airport,Bartletts Airport,58.2162017822,-157.352005005,50.0,US-AK,Egegik,AK96,,
BSW,small_airport,Boswell Bay Airport,60.4230995178,-146.145996094,230.0,US-AK,Boswell Bay,AK97,,http://en.wikipedia.org/wiki/Boswell_Bay_Airport
TGE,small_airport,Sharpe Field,32.4919013977,-85.77559661869999,253.0,US-AL,Tuskegee,AL73,,http://en.wikipedia.org/wiki/Sharpe_Field
AQY,small_airport,Girdwood Airport,60.966099,-149.12600700000002,150.0,US-AK,Girdwood,,,https://en.wikipedia.org/wiki/Girdwood_Airport
BKG,small_airport,Branson Airport,36.532082,-93.200544,1302.0,US-MO,Branson,KBBG,http://flybranson.com/,http://en.wikipedia.org/wiki/Branson_Airport
ILL,small_airport,Willmar Municipal -John L Rice Field,45.11769867,-95.13040161,1126.0,US-MN,Willmar,KBDH,http://www.willmarmn.gov/residents/travel-transportation/airport,http://en.wikipedia.org/wiki/Willmar_Municipal_Airport
BOK,small_airport,Brookings Airport,42.0746,-124.290001,459.0,US-OR,Brookings,KBOK,,http://en.wikipedia.org/wiki/Brookings_Airport
BYA,small_airport,Boundary Airport,64.0783004761,-141.113006592,2940.0,US-AK,Boundary,BYA,,
CHP,small_airport,Circle Hot Springs Airport,65.485496521,-144.61099243200002,956.0,US-AK,Circle Hot Springs,CHP,,http://en.wikipedia.org/wiki/Circle_Hot_Springs_Airport
CKD,small_airport,Crooked Creek Airport,61.867900848400005,-158.13499450700002,178.0,US-AK,Crooked Creek,CJX,,http://en.wikipedia.org/wiki/Crooked_Creek_Airport
CKR,small_airport,Crane Island Airstrip,48.5978,-122.9979,108.0,US-WA,Crane Island,,,
CKU,small_airport,Cordova Municipal Airport,60.5438995361,-145.727005005,12.0,US-AK,Cordova,CKU,,http://en.wikipedia.org/wiki/Cordova_Municipal_Airport
CKX,small_airport,Chicken Airport,64.0712966919,-141.95199585,1640.0,US-AK,Chicken,CKX,,
HLI,small_airport,Hollister Municipal Airport,36.8932991028,-121.41000366200001,230.0,US-CA,Hollister,KCVH,http://www.hollister.ca.gov/site/html/gov/office/airport.asp,http://en.wikipedia.org/wiki/Hollister_Municipal_Airport
CXC,small_airport,Chitina Airport,61.582901001,-144.427001953,556.0,US-AK,Chitina,CXC,,
CZK,small_airport,Cascade Locks State Airport,45.6768989563,-121.87899780299999,151.0,US-OR,Cascade Locks,KCZK,http://www.oregon.gov/Aviation/pages/warning.aspx#Cascade_Locks,http://en.wikipedia.org/wiki/Cascade_Locks_State_Airport
CZN,small_airport,Chisana Airport,62.071201324499995,-142.04800415,3318.0,US-AK,Chisana,CZN,,http://en.wikipedia.org/wiki/Chisana_Airport
CZO,small_airport,Chistochina Airport,62.5634994507,-144.66900634799998,1850.0,US-AK,Chistochina,CZO,,
DJN,small_airport,Delta Junction Airport,64.0503997803,-145.716995239,1150.0,US-AK,Delta Junction,D66,,http://en.wikipedia.org/wiki/Delta_Junction_Airport
DCK,small_airport,Dahl Creek Airport,66.9432983398,-156.904998779,260.0,US-AK,Dahl Creek,DCK,,
RGR,small_airport,Ranger Municipal Airport,32.452598571799996,-98.68280029299999,1470.0,US-TX,Ranger,F23,,
FLT,small_airport,Flat Airport,62.4525985718,-157.988998413,309.0,US-AK,Flat,FLT,,
FXM,small_airport,Flaxman Island Airstrip,70.1895,-146.0209,20.0,US-AK,Flaxman Island,,,
GAB,small_airport,Gabbs Airport,38.92409896850001,-117.958999634,4700.0,US-NV,Gabbs,KGAB,,http://en.wikipedia.org/wiki/Gabbs_Airport
GFD,small_airport,Pope Field,39.7902984619,-85.7360992432,895.0,US-IN,Greenfield,KGFD,,http://en.wikipedia.org/wiki/Pope_Field_(Indiana)
GNU,small_airport,Goodnews Airport,59.117401123,-161.57699585,15.0,US-AK,Goodnews,GNU,,http://en.wikipedia.org/wiki/Goodnews_Airport
GMT,small_airport,Granite Mountain Air Station,65.40209961,-161.28100590000003,1313.0,US-AK,Granite Mountain,PAGZ,,http://en.wikipedia.org/wiki/Granite_Mountain_Air_Station
GVE,small_airport,Gordonsville Municipal Airport,38.15599823,-78.16580200199999,454.0,US-VA,Gordonsville,KGVE,http://www.townofgordonsville.org/index.aspx?nid=125,
HAY,small_airport,Haycock Airport,65.20099639889999,-161.156997681,175.0,US-AK,Haycock,HAY,,http://en.wikipedia.org/wiki/Haycock_Airport
HPV,small_airport,Princeville Airport,22.2091999054,-159.445999146,344.0,US-HI,Hanalei,HI01,,http://en.wikipedia.org/wiki/Princeville_Airport
HKB,small_airport,Healy Lake Airport,63.9958,-144.6926,1180.0,US-AK,Healy Lake,,,http://en.wikipedia.org/wiki/Healy_Lake_Airport
HNE,small_airport,Tahneta Pass Airport,61.9014015198,-147.304000854,2960.0,US-AK,Tahneta Pass Lodge,PAHE,,
HOP,small_airport,Hoppe Airspray,42.257036,-92.835475,,US-IA,Beaman,HOPA,,
JLA,small_airport,Quartz Creek Airport,60.48270034789999,-149.718994141,450.0,US-AK,Cooper Landing,JLA,,
AMK,small_airport,Animas Air Park,37.2032012939,-107.869003296,6684.0,US-CO,Durango,,http://www.websmart66.net/cgi-bin/p/w66p-airportinfo.cgi?d=greggs-flying-service,http://en.wikipedia.org/wiki/Animas_Air_Park
BDX,small_airport,Broadus Airport,45.47249985,-105.4540024,3280.0,US-MT,Broadus,00F,,http://en.wikipedia.org/wiki/Broadus_Airport
EUE,small_airport,Eureka Airport,39.6041984558,-116.004997253,5954.0,US-NV,Eureka,05U,,http://en.wikipedia.org/wiki/Eureka_Airport_(Nevada)
KPT,small_airport,Jackpot Airport/Hayden Field,41.97600173949999,-114.657997131,5213.0,US-NV,Jackpot,06U,,http://en.wikipedia.org/wiki/Jackpot_Airport
RLA,small_airport,Rolla Downtown Airport,37.93569946289063,-91.8134994506836,987.0,US-MO,Rolla,K07,,
FID,small_airport,Elizabeth Field,41.25130081179999,-72.0316009521,9.0,US-NY,Fishers Island,0B8,https://www.dot.ny.gov/divisions/operating/opdm/aviation/repository/air_dir2/Elizabeth-revised.pdf,http://en.wikipedia.org/wiki/Elizabeth_Field
HUD,small_airport,Humboldt Municipal Airport,42.7360992432,-94.2452011108,1093.0,US-IA,Humboldt,0K7,http://www.iowadot.gov/aviation/airports/AirportIntermediate.aspx?FAACode=0K7,http://en.wikipedia.org/wiki/Humboldt_Municipal_Airport_(Iowa)
TWD,small_airport,Jefferson County International Airport,48.053798675500005,-122.81099700899999,108.0,US-WA,Port Townsend,K0S9,http://www.portofpt.com/airport.htm,http://en.wikipedia.org/wiki/Jefferson_County_International_Airport
HCC,small_airport,Columbia County Airport,42.2913017273,-73.7102966309,198.0,US-NY,Hudson,1B1,,http://en.wikipedia.org/wiki/Columbia_County_Airport
AHD,small_airport,Ardmore Downtown Executive Airport,34.1469993591,-97.1227035522,844.0,US-OK,Ardmore,,,http://en.wikipedia.org/wiki/Ardmore_Downtown_Executive_Airport
GCW,small_airport,Grand Canyon West Airport,35.990398407,-113.816001892,4825.0,US-AZ,Peach Springs,K1G4,,http://en.wikipedia.org/wiki/Grand_Canyon_West_Airport
CKE,small_airport,Lampson Field,38.990600585900005,-122.90100097700001,1379.0,US-CA,Lakeport,1O2,http://lakecountyairmen.mymcn.org/index.html,http://en.wikipedia.org/wiki/Lampson_Field
ROF,small_airport,Montague-Yreka Rohrer Field,41.7304000854,-122.54599762,2527.0,US-CA,Montague,K1O5,http://www.ci.montague.ca.us/rohrerfield.html,http://en.wikipedia.org/wiki/Montague_Airport_(California)
CNE,small_airport,Fremont County Airport,38.4280014038,-105.10600280799999,5439.0,US-CO,Cañon City,1V6,http://www.fremontco.com/airport/,
COP,small_airport,Cooperstown-Westville Airport,42.6291999817,-74.89099884030001,1260.0,US-NY,Cooperstown,K23,,http://en.wikipedia.org/wiki/Cooperstown-Westville_Airport
CIL,small_airport,Council Airport,64.89790344240001,-163.70300293,85.0,US-AK,Council,K29,,http://en.wikipedia.org/wiki/Council_Airport
IRB,small_airport,Iraan Municipal Airport,30.905700683600003,-101.89199829100001,2200.0,US-TX,Iraan,,,
GNF,small_airport,Gansner Field,39.943901061999995,-120.944999695,3415.0,US-CA,Quincy,K2O1,,http://en.wikipedia.org/wiki/Gansner_Field
CHZ,small_airport,Chiloquin State Airport,42.579440493,-121.87906265299999,4217.0,US-OR,Chiloquin,K2S7,,http://en.wikipedia.org/wiki/Chiloquin_State_Airport
LTW,small_airport,St. Mary's County Regional Airport,38.3153991699,-76.5501022339,142.0,US-MD,Leonardtown,2W6,,http://en.wikipedia.org/wiki/St._Mary's_County_Regional_Airport
AHF,small_airport,Arapahoe Municipal Airport,40.3395004272,-99.90650177,2270.0,US-NE,Arapahoe,,,http://en.wikipedia.org/wiki/Arapahoe_Municipal_Airport
PCT,small_airport,Princeton Airport,40.3992004395,-74.6588973999,128.0,US-NJ,Princeton/Rocky Hill,39N,http://www.princetonairport.com/recent-history/,http://en.wikipedia.org/wiki/Princeton_Airport_(New_Jersey)
CTO,small_airport,Calverton Executive Airpark,40.9151000977,-72.7919006348,75.0,US-NY,Calverton,3C8,,http://en.wikipedia.org/wiki/Calverton_Executive_Airpark
NRI,small_airport,Grand Lake Regional Airport,36.577598571777,-94.86190032959,792.0,US-OK,Afton,3O9,http://www.thelandingsgrandlake.com/airport.htm,https://en.wikipedia.org/wiki/Grand_Lake_Regional_Airport
GTP,small_airport,Grants Pass Airport,42.510101,-123.38799999999999,1126.0,US-OR,Grants Pass,KSXT,,http://en.wikipedia.org/wiki/Grants_Pass_Airport
NLE,small_airport,Jerry Tyler Memorial Airport,41.835899353027,-86.225196838379,750.0,US-MI,Niles,3TR,http://www.ci.niles.mi.us/deptsandservices/dpw/JerryTylerMemorialAirport.htm,https://en.wikipedia.org/wiki/Jerry_Tyler_Memorial_Airport
GCD,small_airport,Grand Coulee Dam Airport,47.922000885,-119.083000183,1588.0,US-WA,Electric City,3W7,http://www.wsdot.wa.gov/aviation/AllStateAirports/ElectricCity_GrandCouleeDam.htm,
VLE,small_airport,Valle Airport,35.65060043335,-112.14800262451,5999.0,US-AZ,Grand Canyon,40G,http://www.valleairport.com/,https://en.wikipedia.org/wiki/Valle_Airport
FPY,small_airport,Perry-Foley Airport,30.0692997,-83.58059692,44.0,US-FL,Perry,40J,http://taylorcountygov.com/airport/index.htm,http://en.wikipedia.org/wiki/Perry-Foley_Airport
NTJ,small_airport,Manti-Ephraim Airport,39.32910156,-111.6149979,5500.0,US-UT,Manti,41U,,
SBO,small_airport,Salina Gunnison Airport,39.0290985107,-111.83799743700001,5159.0,US-UT,Salina,44U,http://www.gunnisoncity.org/airport.htm,http://en.wikipedia.org/wiki/Salina-Gunnison_Airport
JVI,small_airport,Central Jersey Regional Airport,40.5243988037,-74.59839630130001,86.0,US-NJ,Manville,47N,http://www.centraljerseyairport.com/,http://en.wikipedia.org/wiki/Central_Jersey_Regional_Airport
UCE,small_airport,Eunice Airport,30.466299057007,-92.423797607422,42.0,US-LA,Eunice,4R7,,
GOL,small_airport,Gold Beach Municipal Airport,42.41339874,-124.42400359999999,20.0,US-OR,Gold Beach,K4S1,http://www.portofgoldbeach.com/Airport.htm,http://en.wikipedia.org/wiki/Gold_Beach_Municipal_Airport
KKT,small_airport,Kentland Municipal Airport,40.758701324499995,-87.42819976810001,698.0,US-IN,Kentland,50I,,http://en.wikipedia.org/wiki/Kentland_Municipal_Airport
PRW,small_airport,Prentice Airport,45.542999,-90.279297,1578.0,US-WI,Prentice,,http://vil.prentice.wi.gov/departments/airport/,https://en.wikipedia.org/wiki/Prentice_Airport
EGP,small_airport,Maverick County Memorial International Airport,28.85720062,-100.512001,887.0,US-TX,Eagle Pass,5T9,,http://en.wikipedia.org/wiki/Maverick_County_Memorial_International_Airport
BLD,small_airport,Boulder City Municipal Airport,35.9474983215,-114.861000061,2201.0,US-NV,Boulder City,KBVU,,http://en.wikipedia.org/wiki/Boulder_City_Municipal_Airport
MFH,small_airport,Mesquite Airport,36.83499908,-114.0550003,1978.0,US-NV,Mesquite,67L,http://www.cityofmesquite.com/457/Airport-Mesquite-Metro-Airport,http://en.wikipedia.org/wiki/Mesquite_Airport
ECA,small_airport,Iosco County Airport,44.312801,-83.422302,606.0,US-MI,East Tawas,,http://www.us23heritageroute.org/location.asp?ait=av&aid=839,
FMU,small_airport,Florence Municipal Airport,43.98279953,-124.111000061,51.0,US-OR,Florence,,http://www.ci.florence.or.us/airport,http://en.wikipedia.org/wiki/Florence_Municipal_Airport
OTS,small_airport,Anacortes Airport,48.498999999999995,-122.662003,241.0,US-WA,Anacortes,,,http://en.wikipedia.org/wiki/Anacortes_Airport
ROL,small_airport,Roosevelt Municipal Airport,40.278301,-110.05100300000001,5172.0,US-UT,Roosevelt,,http://www.rooseveltcity.com/164/Airport,
WPO,small_airport,North Fork Valley Airport,38.831699371300004,-107.64600372299999,5798.0,US-CO,Paonia,K7V2,,
ATE,small_airport,Antlers Municipal Airport,34.1926002502,-95.6499023438,575.0,US-OK,Antlers,80F,,http://en.wikipedia.org/wiki/Antlers_Municipal_Airport
QWG,small_airport,Wilgrove Air Park,35.2137985229,-80.67009735110001,799.0,US-NC,Charlotte,K8A6,http://www.wilgroveairport.net/,http://en.wikipedia.org/wiki/Wilgrove_Air_Park
ASQ,small_airport,Austin Airport,39.4679985046,-117.194999695,5730.0,US-NV,Austin,KTMT,,http://en.wikipedia.org/wiki/Austin_Airport
AAF,small_airport,Apalachicola Regional Airport,29.72750092,-85.02749634,20.0,US-FL,Apalachicola,KAAF,,http://en.wikipedia.org/wiki/Apalachicola_Municipal_Airport
ACB,small_airport,Antrim County Airport,44.988602,-85.198402,623.0,US-MI,Bellaire,KACB,,https://en.wikipedia.org/wiki/Antrim_County_Airport
ADG,small_airport,Lenawee County Airport,41.8676986694,-84.07730102539998,798.0,US-MI,Adrian,KADG,,http://en.wikipedia.org/wiki/Lenawee_County_Airport
ADT,small_airport,Ada Regional Airport,34.804297999999996,-96.67130300000001,1016.0,US-OK,Ada,KADH,,http://en.wikipedia.org/wiki/Ada_Municipal_Airport
ADM,small_airport,Ardmore Municipal Airport,34.30301,-97.01963420000001,777.0,US-OK,Ardmore,KADM,,http://en.wikipedia.org/wiki/Ardmore_Municipal_Airport
ADS,small_airport,Addison Airport,32.9686012268,-96.8364028931,644.0,US-TX,Dallas,KADS,,http://en.wikipedia.org/wiki/Addison_Airport
AEL,small_airport,Albert Lea Municipal Airport,43.68149948,-93.36720276,1260.0,US-MN,Albert Lea,KAEL,,http://en.wikipedia.org/wiki/Albert_Lea_Municipal_Airport
AFF,small_airport,USAF Academy Airfield,38.96969986,-104.81300350000001,6572.0,US-CO,Colorado Springs,KAFF,,
WSG,small_airport,Washington County Airport,40.1365013123,-80.29019927979999,1184.0,US-PA,Washington,KAFJ,,http://en.wikipedia.org/wiki/Washington_County_Airport_(Pennsylvania)
AFN,small_airport,Jaffrey Airport Silver Ranch Airport,42.80509948730001,-72.0029983521,1040.0,US-NH,Jaffrey,KAFN,http://silverranchairpark.com/,http://en.wikipedia.org/wiki/Jaffrey_Airport_%E2%80%93_Silver_Ranch_Airpark
AFO,small_airport,Afton Municipal Airport,42.711200714099995,-110.94200134299999,6221.0,US-WY,Afton,KAFO,http://www.aftonairpark.com/,http://en.wikipedia.org/wiki/Afton_Municipal_Airport
AGO,small_airport,Magnolia Municipal Airport,33.22800064,-93.21700287,319.0,US-AR,Magnolia,KAGO,,http://en.wikipedia.org/wiki/Magnolia_Municipal_Airport
AHC,small_airport,Amedee Army Air Field,40.26620102,-120.15299990000001,4012.0,US-CA,Herlong,KAHC,,http://en.wikipedia.org/wiki/Amedee_Army_Airfield
AHH,small_airport,Amery Municipal Airport,45.281101226800004,-92.37539672850001,1088.0,US-WI,Amery,KAHH,,http://en.wikipedia.org/wiki/Amery_Municipal_Airport
AIA,small_airport,Alliance Municipal Airport,42.0531997681,-102.804000854,3931.0,US-NE,Alliance,KAIA,,http://en.wikipedia.org/wiki/Alliance_Municipal_Airport
AID,small_airport,Anderson Municipal Darlington Field,40.10860061649999,-85.6129989624,919.0,US-IN,Anderson,KAID,,http://en.wikipedia.org/wiki/Anderson_Municipal_Airport
AIK,small_airport,Aiken Municipal Airport,33.6493988037,-81.68499755859999,528.0,US-SC,Aiken,KAIK,,http://en.wikipedia.org/wiki/Aiken_Municipal_Airport
AIO,small_airport,Atlantic Municipal Airport,41.40729904,-95.04689789,1165.0,US-IA,Atlantic,KAIO,,http://en.wikipedia.org/wiki/Atlantic_Municipal_Airport
AIV,small_airport,George Downer Airport,33.106499,-88.1978,150.0,US-AL,Aliceville,KAIV,,https://en.wikipedia.org/wiki/George_Downer_Airport
AIZ,small_airport,Lee C Fine Memorial Airport,38.0960006714,-92.54949951170002,869.0,US-MO,Kaiser Lake Ozark,KAIZ,,http://en.wikipedia.org/wiki/Lee_C._Fine_Memorial_Airport
AKO,small_airport,Colorado Plains Regional Airport,40.1755981445,-103.22200012200001,4714.0,US-CO,Akron,KAKO,http://www.co.washington.co.us/airport.htm,http://en.wikipedia.org/wiki/Colorado_Plains_Regional_Airport
ALX,small_airport,Thomas C Russell Field,32.914699554399995,-85.96299743649999,686.0,US-AL,Alexander City,KALX,,http://en.wikipedia.org/wiki/Thomas_C._Russell_Field
AMN,small_airport,Gratiot Community Airport,43.322101593,-84.68800354,754.0,US-MI,Alma,KAMN,http://www.ci.alma.mi.us/1/307/airport.asp,http://en.wikipedia.org/wiki/Gratiot_Community_Airport
AMW,small_airport,Ames Municipal Airport,41.992001,-93.621803,956.0,US-IA,Ames,KAMW,,https://en.wikipedia.org/wiki/Ames_Municipal_Airport
SLT,small_airport,Harriet Alexander Field,38.538299560546996,-106.04900360107,7523.0,US-CO,Salida,KANK,http://cityofsalida.com/departments/harriet-alexander-field-airport/,http://en.wikipedia.org/wiki/Harriet_Alexander_Field
ANP,small_airport,Lee Airport,38.942902000000004,-76.568398,34.0,US-MD,Annapolis,KANP,,https://en.wikipedia.org/wiki/Lee_Airport
ANQ,small_airport,Tri State Steuben County Airport,41.639702,-85.083504,995.0,US-IN,Angola,KANQ,,https://en.wikipedia.org/wiki/Tri-State_Steuben_County_Airport
ANW,small_airport,Ainsworth Municipal Airport,42.579201,-99.99299599999999,2589.0,US-NE,Ainsworth,KANW,,https://en.wikipedia.org/wiki/Ainsworth_Regional_Airport
ANY,small_airport,Anthony Municipal Airport,37.158501,-98.07959699999999,1340.0,US-KS,Anthony,KANY,,https://en.wikipedia.org/wiki/Anthony_Municipal_Airport
AOH,small_airport,Lima Allen County Airport,40.706902,-84.026703,975.0,US-OH,Lima,KAOH,,https://en.wikipedia.org/wiki/Lima_Allen_County_Airport
APC,small_airport,Napa County Airport,38.2132,-122.280998,35.0,US-CA,Napa,KAPC,http://www.napacountyairport.org/,https://en.wikipedia.org/wiki/Napa_County_Airport
APH,small_airport,A P Hill AAF (Fort A P Hill) Airport,38.068902,-77.318298,220.0,US-VA,Fort A. P. Hill,KAPH,,http://en.wikipedia.org/wiki/A.P._Hill_Army_Airfield
APT,small_airport,Marion County Brown Field,35.060699,-85.585297,641.0,US-TN,Jasper,KAPT,,https://en.wikipedia.org/wiki/Marion_County_Airport_(Tennessee)
APV,small_airport,Apple Valley Airport,34.575298309299995,-117.18599700899999,3062.0,US-CA,Apple Valley,KAPV,,http://en.wikipedia.org/wiki/Apple_Valley_Airport_(California)
ARB,small_airport,Ann Arbor Municipal Airport,42.2229995728,-83.74559783939999,839.0,US-MI,Ann Arbor,KARB,,http://en.wikipedia.org/wiki/Ann_Arbor_Municipal_Airport
ARG,small_airport,Walnut Ridge Regional Airport,36.124666999999995,-90.925111,279.0,US-AR,Walnut Ridge,KARG,http://walnutridgeairport.com/,https://en.wikipedia.org/wiki/Walnut_Ridge_Regional_Airport
WHT,small_airport,Wharton Regional Airport,29.254299163800006,-96.15440368649999,100.0,US-TX,Wharton,KARM,,http://en.wikipedia.org/wiki/Wharton_Regional_Airport
AUZ,small_airport,Aurora Municipal Airport,41.771900177,-88.47570037839998,712.0,US-IL,Chicago/Aurora,KARR,,http://en.wikipedia.org/wiki/Aurora_Municipal_Airport_(Illinois)
ARV,small_airport,Lakeland-Noble F. Lee Memorial field,45.92789841,-89.73090363,1629.0,US-WI,Minocqua-Woodruff,KARV,,http://en.wikipedia.org/wiki/Lakeland_Airport
BFT,small_airport,Beaufort County Airport,32.4122009277,-80.6343994141,10.0,US-SC,Beaufort,KARW,,http://en.wikipedia.org/wiki/Beaufort_County_Airport
SPZ,small_airport,Springdale Municipal Airport,36.176399231,-94.11930084229999,1353.0,US-AR,Springdale,KASG,,http://en.wikipedia.org/wiki/Springdale_Municipal_Airport
ASH,small_airport,Boire Field,42.781700134299996,-71.51480102539998,199.0,US-NH,Nashua,KASH,,http://en.wikipedia.org/wiki/Nashua_Municipal_Airport
ASL,small_airport,Harrison County Airport,32.5205001831,-94.30780029299999,357.0,US-TX,Marshall,KASL,,http://en.wikipedia.org/wiki/Harrison_County_Airport_(Texas)
ASN,small_airport,Talladega Municipal Airport,33.569900512699995,-86.05090332030001,529.0,US-AL,Talladega,KASN,,http://en.wikipedia.org/wiki/Talladega_Municipal_Airport
ASX,small_airport,John F Kennedy Memorial Airport,46.54850006,-90.91899872,827.0,US-WI,Ashland,KASX,,http://en.wikipedia.org/wiki/John_F._Kennedy_Memorial_Airport
ASY,small_airport,Ashley Municipal Airport,46.0238990784,-99.3526000977,2032.0,US-ND,Ashley,KASY,,http://en.wikipedia.org/wiki/Ashley_Municipal_Airport
ATS,small_airport,Artesia Municipal Airport,32.8525009155,-104.46800231899999,3541.0,US-NM,Artesia,KATS,,http://en.wikipedia.org/wiki/Artesia_Municipal_Airport
ATW,small_airport,Appleton International Airport,44.258098602299995,-88.51909637450001,918.0,US-WI,Appleton,KATW,http://atwairport.com/,http://en.wikipedia.org/wiki/Outagamie_County_Regional_Airport
AUM,small_airport,Austin Municipal Airport,43.66500092,-92.93340302,1234.0,US-MN,Austin,KAUM,,http://en.wikipedia.org/wiki/Austin_Municipal_Airport
AUN,small_airport,Auburn Municipal Airport,38.95479965,-121.0820007,1539.0,US-CA,Auburn,KAUN,,http://en.wikipedia.org/wiki/Auburn_Municipal_Airport
AUO,small_airport,Auburn Opelika Robert G. Pitts Airport,32.61510086,-85.43399811,777.0,US-AL,Auburn,KAUO,,http://en.wikipedia.org/wiki/Auburn-Opelika_Robert_G._Pitts_Airport
AVO,small_airport,Avon Park Executive Airport,27.59119987,-81.52780151,160.0,US-FL,Avon Park,KAVO,,http://en.wikipedia.org/wiki/Avon_Park_Executive_Airport
AVW,small_airport,Marana Regional Airport,32.4095993042,-111.21800231899999,2031.0,US-AZ,Tucson,KAVQ,,http://en.wikipedia.org/wiki/Marana_Regional_Airport
AVX,small_airport,Catalina Airport,33.4049,-118.416,1602.0,US-CA,Avalon,KAVX,http://www.catalinaconservancy.org/index.php?s=visit&p=pilot_information,http://en.wikipedia.org/wiki/Catalina_Airport
AWM,small_airport,West Memphis Municipal Airport,35.135101318400004,-90.2343978882,212.0,US-AR,West Memphis,KAWM,,http://en.wikipedia.org/wiki/West_Memphis_Municipal_Airport
AXG,small_airport,Algona Municipal Airport,43.0778999329,-94.27200317379999,1219.0,US-IA,Algona,KAXA,,http://en.wikipedia.org/wiki/Algona_Municipal_Airport
AXS,small_airport,Altus Quartz Mountain Regional Airport,34.697952,-99.3385,1433.0,US-OK,Altus,KAXS,,https://en.wikipedia.org/wiki/Altus/Quartz_Mountain_Regional_Airport
AXV,small_airport,Neil Armstrong Airport,40.49340057,-84.29889679,913.0,US-OH,Wapakoneta,KAXV,,http://en.wikipedia.org/wiki/Neil_Armstrong_Airport
AXX,small_airport,Angel Fire Airport,36.422000885,-105.290000916,8380.0,US-NM,Angel Fire,KAXX,,
AYS,small_airport,Waycross Ware County Airport,31.249099731399998,-82.39550018310001,142.0,US-GA,Waycross,KAYS,,http://en.wikipedia.org/wiki/Waycross-Ware_County_Airport
TUH,small_airport,Arnold Air Force Base,35.39260101,-86.08580017,1067.0,US-TN,Tullahoma,KAYX,http://www.arnold.af.mil/,https://en.wikipedia.org/wiki/Arnold_Air_Force_Base
BAM,small_airport,Battle Mountain Airport,40.598999023400005,-116.874000549,4532.0,US-NV,Battle Mountain,KBAM,http://www.battlemountainairport.com/default.htm,http://en.wikipedia.org/wiki/Battle_Mountain_Airport
BBB,small_airport,Benson Municipal Airport,45.331901550299996,-95.6505966187,1039.0,US-MN,Benson,KBBB,,http://www.iata.org/ps/publications/pages/code-search.aspx
BTN,small_airport,Marlboro County Jetport H.E. Avent Field,34.62170029,-79.73439789,147.0,US-SC,Bennettsville,KBBP,,http://en.wikipedia.org/wiki/Marlboro_County_Jetport
BBW,small_airport,Broken Bow Municipal Airport,41.4365005493,-99.64219665530001,2547.0,US-NE,Broken Bow,KBBW,,http://en.wikipedia.org/wiki/Broken_Bow_Municipal_Airport
BCB,small_airport,Virginia Tech Montgomery Executive Airport,37.207599639899996,-80.4077987671,2132.0,US-VA,Blacksburg,KBCB,http://www.vtbcb.com/index.php,http://en.wikipedia.org/wiki/Virginia_Tech_Montgomery_Executive_Airport
BCT,small_airport,Boca Raton Airport,26.3784999847,-80.1076965332,13.0,US-FL,Boca Raton,KBCT,,http://en.wikipedia.org/wiki/Boca_Raton_Airport
BDG,small_airport,Blanding Municipal Airport,37.58330154,-109.4830017,5868.0,US-UT,Blanding,KBDG,,http://en.wikipedia.org/wiki/Blanding_Municipal_Airport
WBU,small_airport,Boulder Municipal Airport,40.039398193400004,-105.225997925,5288.0,US-CO,Boulder,KBDU,http://www.bouldercolorado.gov/index.php?option=com_content&view=article&id=201&Itemid=740,http://en.wikipedia.org/wiki/Boulder_Municipal_Airport
BEC,small_airport,Beech Factory Airport,37.6944999695,-97.2149963379,1408.0,US-KS,Wichita,KBEC,,http://en.wikipedia.org/wiki/Beech_Factory_Airport
BEH,small_airport,Southwest Michigan Regional Airport,42.128601074200006,-86.4284973145,643.0,US-MI,Benton Harbor,KBEH,http://www.swmiairport.com/1201.html,http://en.wikipedia.org/wiki/Southwest_Michigan_Regional_Airport
BFR,small_airport,Virgil I Grissom Municipal Airport,38.84000015,-86.44539642,727.0,US-IN,Bedford,KBFR,,http://en.wikipedia.org/wiki/Virgil_I._Grissom_Municipal_Airport
BGD,small_airport,Hutchinson County Airport,35.70090103149999,-101.39399719200001,3055.0,US-TX,Borger,KBGD,http://www.hutchinsoncountyairport.com/,http://en.wikipedia.org/wiki/Hutchinson_County_Airport
BGE,small_airport,Decatur County Industrial Air Park,30.971500399999996,-84.63739777,141.0,US-GA,Bainbridge,KBGE,http://bainbridgega.com/chamber/airport.shtml,http://en.wikipedia.org/wiki/Decatur_County_Industrial_Air_Park
BID,small_airport,Block Island State Airport,41.1680984497,-71.577796936,108.0,US-RI,Block Island,KBID,http://www.blockislandri.net/blockislandairport.htm,http://en.wikipedia.org/wiki/Block_Island_State_Airport
BIE,small_airport,Beatrice Municipal Airport,40.3013000488,-96.75409698490002,1324.0,US-NE,Beatrice,KBIE,http://beatriceairport.com/,
BJJ,small_airport,Wayne County Airport,40.8748016357,-81.88829803470001,1136.0,US-OH,Wooster,KBJJ,http://www.woosterwaynecountyairport.com/,http://en.wikipedia.org/wiki/Wayne_County_Airport_(Ohio)
BKD,small_airport,Stephens County Airport,32.71900177,-98.8909988403,1284.0,US-TX,Breckenridge,KBKD,,
BKT,small_airport,Allen C Perkinson Blackstone Army Air Field,37.0741996765,-77.9574966431,439.0,US-VA,Blackstone,KBKT,,http://en.wikipedia.org/wiki/Blackstone_Army_Airfield
BKX,small_airport,Brookings Regional Airport,44.3047981262207,-96.81690216064452,1648.0,US-SD,Brookings,KBKX,,
BLM,small_airport,Monmouth Executive Airport,40.18690109,-74.12490082,153.0,US-NJ,Belmar/Farmingdale,KBLM,,http://en.wikipedia.org/wiki/Monmouth_Executive_Airport
BLU,small_airport,Blue Canyon Nyack Airport,39.2750015259,-120.709999084,5284.0,US-CA,Emigrant Gap,KBLU,,http://en.wikipedia.org/wiki/Blue_Canyon_%E2%80%93_Nyack_Airport
BMC,small_airport,Brigham City Airport,41.552398681599996,-112.06199646,4229.0,US-UT,Brigham City,KBMC,http://brighamcity.utah.gov/airport.htm,http://en.wikipedia.org/wiki/Brigham_City_Airport#References
BML,small_airport,Berlin Regional Airport,44.57540131,-71.17590332,1161.0,US-NH,Berlin,KBML,,http://en.wikipedia.org/wiki/Berlin_Municipal_Airport
BMT,small_airport,Beaumont Municipal Airport,30.070699691799998,-94.21579742430002,32.0,US-TX,Beaumont,KBMT,,http://en.wikipedia.org/wiki/Beaumont_Municipal_Airport
BNG,small_airport,Banning Municipal Airport,33.923099517800004,-116.850997925,2219.0,US-CA,Banning,KBNG,http://www.ci.banning.ca.us/index.aspx?NID=23,http://en.wikipedia.org/wiki/Banning_Municipal_Airport
BNL,small_airport,Barnwell Regional Airport,33.25780106,-81.38829803,246.0,US-SC,Barnwell,KBNL,http://www.barnwellregionalairport.com/Home_Page.php,http://en.wikipedia.org/wiki/Barnwell_Regional_Airport
BNW,small_airport,Boone Municipal Airport,42.0495986938,-93.8476028442,1160.0,US-IA,Boone,KBNW,,
BOW,small_airport,Bartow Municipal Airport,27.943399429299998,-81.78340148930002,125.0,US-FL,Bartow,KBOW,http://www.bartow-airport.com/,http://en.wikipedia.org/wiki/Bartow_Municipal_Airport
HCA,small_airport,Big Spring Mc Mahon-Wrinkle Airport,32.212601,-101.522003,2573.0,US-TX,Big Spring,KBPG,http://www.mybigspring.com/pages/airport,http://en.wikipedia.org/wiki/Big_Spring_McMahon-Wrinkle_Airport
BRY,small_airport,Samuels Field,37.8143005371,-85.49960327149999,669.0,US-KY,Bardstown,KBRY,http://www.cityofbardstown.org/dept-airport.html,http://en.wikipedia.org/wiki/Samuels_Field
BTF,small_airport,Skypark Airport,40.8694000244,-111.92700195299999,4234.0,US-UT,Bountiful,KBTF,,http://en.wikipedia.org/wiki/Skypark_Airport
TTO,small_airport,Britton Municipal Airport,45.815200805664,-97.74310302734399,1318.0,US-SD,Britton,KBTN,,https://en.wikipedia.org/wiki/Britton_Municipal_Airport
BTP,small_airport,Butler County-K W Scholter Field,40.77690125,-79.9496994,1248.0,US-PA,Butler,KBTP,http://butlercountyairport.org/,http://en.wikipedia.org/wiki/Butler_County_Airport
BTY,small_airport,Beatty Airport,36.8610992432,-116.78700256299999,3170.0,US-NV,Beatty,KBTY,,http://en.wikipedia.org/wiki/Beatty_Airport
BUB,small_airport,Cram Field,41.776699066199996,-99.14969635010002,2182.0,US-NE,Burwell,KBUB,,
BUM,small_airport,Butler Memorial Airport,38.2897987366,-94.34010314940001,892.0,US-MO,Butler,KBUM,,
BVO,small_airport,Bartlesville Municipal Airport,36.76250076,-96.01119995,711.0,US-OK,Bartlesville,KBVO,,
MVW,small_airport,Skagit Regional Airport,48.470901489300005,-122.42099762,144.0,US-WA,Burlington/Mount Vernon,KBVS,http://www.portofskagit.com/skagit-regional-airport/,http://en.wikipedia.org/wiki/Skagit_Regional_Airport
BVX,small_airport,Batesville Regional Airport,35.7262001,-91.64730072,465.0,US-AR,Batesville,KBVX,,
BWC,small_airport,Brawley Municipal Airport,32.99290085,-115.5169983,-128.0,US-CA,Brawley,KBWC,,http://en.wikipedia.org/wiki/Brawley_Municipal_Airport
BWD,small_airport,Brownwood Regional Airport,31.793600082399998,-98.9564971924,1387.0,US-TX,Brownwood,KBWD,,http://en.wikipedia.org/wiki/Brownwood_Regional_Airport
WAH,small_airport,Harry Stern Airport,46.2440986633,-96.6073989868,968.0,US-ND,Wahpeton,KBWP,,http://en.wikipedia.org/wiki/Harry_Stern_Airport
BWM,small_airport,Bowman Regional Airport,46.1655193,-103.30075,2965.0,US-ND,Bowman,KBWW,http://www.bowmannd.com/county/departments/airport-authority/,
BXA,small_airport,George R Carr Memorial Air Field,30.8136997223,-89.86499786379999,119.0,US-LA,Bogalusa,KBXA,,
BXK,small_airport,Buckeye Municipal Airport,33.42039871,-112.685997,1033.0,US-AZ,Buckeye,KBXK,,http://en.wikipedia.org/wiki/Buckeye_Municipal_Airport
BYG,small_airport,Johnson County Airport,44.3810997009,-106.72200012200001,4968.0,US-WY,Buffalo,KBYG,,
BBC,small_airport,Bay City Municipal Airport,28.9733009338,-95.8635025024,45.0,US-TX,Bay City,KBYY,,http://en.wikipedia.org/wiki/Bay_City_Municipal_Airport
XES,small_airport,Grand Geneva Resort Airport,42.614899,-88.38960300000001,835.0,US-WI,Lake Geneva,,,
PLY,small_airport,Plymouth Municipal Airport,41.365100860596,-86.300498962402,800.0,US-IN,Plymouth,C65,http://www.plymouthin.com/index.php/departments/airport/,https://en.wikipedia.org/wiki/Plymouth_Municipal_Airport_(Indiana)
CLG,small_airport,New Coalinga Municipal Airport,36.16310119628906,-120.29399871826172,622.0,US-CA,Coalinga,,,http://en.wikipedia.org/wiki/New_Coalinga_Municipal_Airport
CAD,small_airport,Wexford County Airport,44.275299072299994,-85.4188995361,1307.0,US-MI,Cadillac,KCAD,,
CIG,small_airport,Craig Moffat Airport,40.4952011108,-107.52200317399999,6193.0,US-CO,Craig,KCAG,http://www.colorado.gov/cs/Satellite/CNTY-Moffat/CBON/1251574649681,http://en.wikipedia.org/wiki/Craig-Moffat_Airport
CAO,small_airport,Clayton Municipal Airpark,36.446201324499995,-103.166999817,4965.0,US-NM,Clayton,KCAO,,http://en.wikipedia.org/wiki/Clayton_Municipal_Airpark
CBE,small_airport,Greater Cumberland Regional Airport,39.615398407,-78.76090240479999,775.0,US-MD,Cumberland,KCBE,,http://en.wikipedia.org/wiki/Greater_Cumberland_Regional_Airport
CBF,small_airport,Council Bluffs Municipal Airport,41.2592010498,-95.760597229,1253.0,US-IA,Council Bluffs,KCBF,,http://en.wikipedia.org/wiki/Council_Bluffs_Municipal_Airport
CBK,small_airport,Shalz Field,39.42750168,-101.04699709999998,3187.0,US-KS,Colby,KCBK,,http://en.wikipedia.org/wiki/Colby_Municipal_Airport
CCB,small_airport,Cable Airport,34.1115989685,-117.68800354,1444.0,US-CA,Upland,KCCB,,http://en.wikipedia.org/wiki/Cable_Airport
CCR,small_airport,Buchanan Field,37.9897003174,-122.056999207,26.0,US-CA,Concord,KCCR,,http://en.wikipedia.org/wiki/Buchanan_Field_Airport
LLX,small_airport,Caledonia County Airport,44.5690994263,-72.0179977417,1188.0,US-VT,Lyndonville,KCDA,,http://en.wikipedia.org/wiki/Caledonia_County_Airport
CDH,small_airport,Harrell Field,33.622798919699996,-92.7633972168,130.0,US-AR,Camden,KCDH,,http://en.wikipedia.org/wiki/Harrell_Field
CDN,small_airport,Woodward Field,34.2835998535,-80.56490325930001,302.0,US-SC,Camden,KCDN,,http://en.wikipedia.org/wiki/Woodward_Field_(airport)
CDW,small_airport,Essex County Airport,40.875198364300005,-74.2814025879,173.0,US-NJ,Caldwell,KCDW,http://flycdw.com/,http://en.wikipedia.org/wiki/Essex_County_Airport
CEA,small_airport,Cessna Aircraft Field,37.648601532,-97.2506027222,1378.0,US-KS,Wichita,KCEA,,http://en.wikipedia.org/wiki/Cessna_Aircraft_Field
CEU,small_airport,Oconee County Regional Airport,34.67190170000001,-82.8864975,892.0,US-SC,Clemson,KCEU,http://www.oconeesc.com/Departments/AJ/Airport.aspx,http://en.wikipedia.org/wiki/Oconee_County_Regional_Airport
CEV,small_airport,Mettel Field,39.6985015869,-85.129699707,867.0,US-IN,Connersville,KCEV,http://connersvillecommunity.com/City_of_Connersville/City_Departments/Airport_Mettel_Field,http://en.wikipedia.org/wiki/Mettel_Field
CEY,small_airport,Kyle Oakley Field,36.66460037,-88.37280273,577.0,US-KY,Murray,KCEY,http://www.murraykyleoakley.com/,http://en.wikipedia.org/wiki/Murray-Calloway_County_Airport
CEZ,small_airport,Cortez Municipal Airport,37.3030014038,-108.627998352,5918.0,US-CO,Cortez,KCEZ,http://www.cityofcortez.com/index.aspx?NID=113,https://en.wikipedia.org/wiki/Cortez_Municipal_Airport
CFD,small_airport,Coulter Field,30.715700149499998,-96.3313980103,367.0,US-TX,Bryan,KCFD,http://www.bryantx.gov/coulterairfield/,http://en.wikipedia.org/wiki/Coulter_Field
TZC,small_airport,Tuscola Area Airport,43.458801269531,-83.44550323486301,701.0,US-MI,Caro,KCFS,"http://www.michigan.gov/aero/0,4533,7-145-61367-277436--,00.html",http://en.wikipedia.org/wiki/Tuscola_Area_Airport
CFT,small_airport,Greenlee County Airport,32.95280075,-109.20999909999999,3798.0,US-AZ,Clifton/Morenci,KCFT,,http://en.wikipedia.org/wiki/Greenlee_County_Airport
CFV,small_airport,Coffeyville Municipal Airport,37.09400177,-95.5718994141,754.0,US-KS,Coffeyville,KCFV,http://www.coffeyville.com/index.aspx?nid=67,http://en.wikipedia.org/wiki/Coffeyville_Municipal_Airport
CGE,small_airport,Cambridge Dorchester Airport,38.53929901,-76.03040314,20.0,US-MD,Cambridge,KCGE,http://docogonet.com/index.php?page=airport_division,http://en.wikipedia.org/wiki/Cambridge%E2%80%93Dorchester_Airport
CGS,small_airport,College Park Airport,38.9805984497,-76.9223022461,48.0,US-MD,College Park,KCGS,http://www.collegeparkairport.aero/,http://en.wikipedia.org/wiki/College_Park_Airport
CGZ,small_airport,Casa Grande Municipal Airport,32.954899,-111.766998,1464.0,US-AZ,Casa Grande,KCGZ,http://www.casagrandeaz.gov/web/guest/airport,http://en.wikipedia.org/wiki/Casa_Grande_Municipal_Airport
CHK,small_airport,Chickasha Municipal Airport,35.09740067,-97.96769714,1152.0,US-OK,Chickasha,KCHK,http://www.chickasha.org/airport/,http://en.wikipedia.org/wiki/Chickasha_Municipal_Airport
CIC,small_airport,Chico Municipal Airport,39.79539871,-121.8580017,240.0,US-CA,Chico,KCIC,,http://en.wikipedia.org/wiki/Chico_Municipal_Airport
CIN,small_airport,Arthur N Neu Airport,42.0461997986,-94.7890014648,1204.0,US-IA,Carroll,KCIN,http://www.cityofcarroll.com/index.php/departments/airport,http://en.wikipedia.org/wiki/Arthur_N._Neu_Airport
CIR,small_airport,Cairo Regional Airport,37.0644989014,-89.2195968628,321.0,US-IL,Cairo,KCIR,,
CKA,small_airport,Kegelman AF Aux Field,36.7439002991,-98.1231002808,1202.0,US-OK,Cherokee,KCKA,,http://en.wikipedia.org/wiki/Kegelman_Air_Force_Auxiliary_Field
GRM,small_airport,Grand Marais Cook County Airport,47.838298797600004,-90.3828964233,1799.0,US-MN,Grand Marais,KCKC,http://www.boreal.org/airport/,http://en.wikipedia.org/wiki/Grand_Marais/Cook_County_Airport
CKM,small_airport,Fletcher Field,34.299701690700005,-90.51229858399999,173.0,US-MS,Clarksdale,KCKM,,http://en.wikipedia.org/wiki/Fletcher_Field
CKN,small_airport,Crookston Municipal Kirkwood Field,47.8417015076,-96.62159729,899.0,US-MN,Crookston,KCKN,,http://en.wikipedia.org/wiki/Crookston_Municipal_Airport
CKV,small_airport,Clarksville–Montgomery County Regional Airport,36.621898651100004,-87.41500091549999,550.0,US-TN,Clarksville,KCKV,http://www.clarksvilleregional.com/,http://en.wikipedia.org/wiki/Clarksville%E2%80%93Montgomery_County_Regional_Airport
KCL,small_airport,Chignik Lagoon Airport,56.31119919,-158.5359955,25.0,US-AK,Chignik Flats,KCL,,http://en.wikipedia.org/wiki/Chignik_Lagoon_Airport
CLI,small_airport,Clintonville Municipal Airport,44.6138000488,-88.731300354,822.0,US-WI,Clintonville,KCLI,http://www.clintonvillewi.org/Airport.htm,http://en.wikipedia.org/wiki/Clintonville_Municipal_Airport
CLK,small_airport,Clinton Regional Airport,35.53829956,-98.93270111,1616.0,US-OK,Clinton,KCLK,,
CLR,small_airport,Cliff Hatfield Memorial Airport,33.131500244099996,-115.52100372299999,-182.0,US-CA,Calipatria,KCLR,,http://en.wikipedia.org/wiki/Cliff_Hatfield_Memorial_Airport
CLS,small_airport,Chehalis Centralia Airport,46.6769981384,-122.98300170899999,176.0,US-WA,Chehalis,KCLS,http://www.flycls.com/,
CLW,small_airport,Clearwater Air Park,27.9766998291,-82.7586975098,71.0,US-FL,Clearwater,KCLW,http://www.clearwaterairpark.net/,http://en.wikipedia.org/wiki/Clearwater_Air_Park
CMY,small_airport,Sparta Fort Mc Coy Airport,43.958302,-90.7379,837.0,US-WI,Sparta,KCMY,,https://en.wikipedia.org/wiki/Sparta/Fort_McCoy_Airport
CNH,small_airport,Claremont Municipal Airport,43.3703994751,-72.36869812009998,545.0,US-NH,Claremont,KCNH,http://www.claremontnh.com/residents/claremont-municipal-airport.aspx,http://en.wikipedia.org/wiki/Claremont_Municipal_Airport
CNK,small_airport,Blosser Municipal Airport,39.5493011475,-97.6522979736,1486.0,US-KS,Concordia,KCNK,,http://en.wikipedia.org/wiki/Blosser_Municipal_Airport
CNO,small_airport,Chino Airport,33.97470093,-117.637001,650.0,US-CA,Chino,KCNO,http://cms.sbcounty.gov/airports/Airports/Chino.aspx,http://en.wikipedia.org/wiki/Chino_Airport
CNW,small_airport,TSTC Waco Airport,31.6378002167,-97.07409667969999,470.0,US-TX,Waco,KCNW,http://www.waco.tstc.edu/airport,http://en.wikipedia.org/wiki/TSTC_Waco_Airport
CNY,small_airport,Canyonlands Field,38.75500107,-109.7549973,4557.0,US-UT,Moab,KCNY,,http://en.wikipedia.org/wiki/Canyonlands_Field
COI,small_airport,Merritt Island Airport,28.3416004181,-80.6855010986,6.0,US-FL,Merritt Island,KCOI,,http://en.wikipedia.org/wiki/Merritt_Island_Airport
COM,small_airport,Coleman Municipal Airport,31.8411006927,-99.4036026001,1697.0,US-TX,Coleman,KCOM,http://www.cityofcolemantx.us/airport.html,http://en.wikipedia.org/wiki/Coleman_Municipal_Airport
COT,small_airport,Cotulla-La Salle County Airport,28.45669937,-99.22029877,474.0,US-TX,Cotulla,KCOT,http://www.cotullaairport.com/,http://en.wikipedia.org/wiki/Cotulla%E2%80%93La_Salle_County_Airport
CPM,small_airport,Compton Woodley Airport,33.8899993896,-118.244003296,97.0,US-CA,Compton,KCPM,,http://en.wikipedia.org/wiki/Compton/Woodley_Airport
CPS,small_airport,St Louis Downtown Airport,38.570701599100005,-90.1561965942,413.0,US-IL,Cahokia/St Louis,KCPS,,http://en.wikipedia.org/wiki/St._Louis_Downtown_Airport
HCW,small_airport,Cheraw Municipal Airport/Lynch Bellinger Field,34.71289825,-79.95700073,239.0,US-SC,Cheraw,KCQW,,http://en.wikipedia.org/wiki/Cheraw_Municipal_Airport
KCR,small_airport,Colorado Creek Airport,63.5676994324,-155.988998413,860.0,US-AK,Colorado Creek,KCR,,
CRO,small_airport,Corcoran Airport,36.102502,-119.595001,197.0,US-CA,Corcoran,,,http://en.wikipedia.org/wiki/Corcoran_Airport
CRS,small_airport,C David Campbell Field Corsicana Municipal Airport,32.028099060100004,-96.4005966187,449.0,US-TX,Corsicana,KCRS,http://www.cityofcorsicana.com/Index.aspx?NID=577,http://en.wikipedia.org/wiki/C._David_Campbell_Field
CRT,small_airport,Z M Jack Stell Field,33.1782989502,-91.88020324709998,184.0,US-AR,Crossett,KCRT,,http://en.wikipedia.org/wiki/Z._M._Jack_Stell_Field
CRX,small_airport,Roscoe Turner Airport,34.9150009155,-88.60350036620001,425.0,US-MS,Corinth,KCRX,http://www.corinth-alcornairport.com,http://en.wikipedia.org/wiki/Roscoe_Turner_Airport
CSM,small_airport,Clinton Sherman Airport,35.3398017883,-99.2005004883,1922.0,US-OK,Clinton,KCSM,,http://en.wikipedia.org/wiki/Clinton-Sherman_Industrial_Airpark
CSQ,small_airport,Creston Municipal Airport,41.0214004517,-94.36329650879999,1300.0,US-IA,Creston,KCSQ,http://www.crestoniowa.gov/crestonmunicipalairport.htm,http://en.wikipedia.org/wiki/Creston_Municipal_Airport
CTY,small_airport,Cross City Airport,29.6354999542,-83.10479736330002,42.0,US-FL,Cross City,KCTY,,http://en.wikipedia.org/wiki/Cross_City_Airport
CTZ,small_airport,Sampson County Airport,34.9756011963,-78.36460113529999,148.0,US-NC,Clinton,KCTZ,,http://en.wikipedia.org/wiki/Sampson_County_Airport
CUH,small_airport,Cushing Municipal Airport,35.9499015808,-96.7731018066,916.0,US-OK,Cushing,KCUH,,http://en.wikipedia.org/wiki/Cushing_Municipal_Airport
CKK,small_airport,Sharp County Regional Airport,36.26490021,-91.56259918,716.0,US-AR,Ash Flat,KCVK,http://www.cherokeevillage.org/airport.htm,https://en.wikipedia.org/wiki/Sharp_County_Regional_Airport
CVN,small_airport,Clovis Municipal Airport,34.4250984192,-103.07900238,4216.0,US-NM,Clovis,KCVN,,
KIP,small_airport,Kickapoo Downtown Airport,33.85779953,-98.49040222,1003.0,US-TX,Wichita Falls,KCWC,http://www.wichitafallstx.gov/index.aspx?nid=704,http://en.wikipedia.org/wiki/Kickapoo_Downtown_Airport
CWF,small_airport,Chennault International Airport,30.2105998993,-93.14320373540001,17.0,US-LA,Lake Charles,KCWF,http://www.chennault.org/,http://en.wikipedia.org/wiki/Chennault_International_Airport
CWI,small_airport,Clinton Municipal Airport,41.8311004639,-90.3291015625,708.0,US-IA,Clinton,KCWI,,http://en.wikipedia.org/wiki/Clinton_Municipal_Airport_(Iowa)
CXL,small_airport,Calexico International Airport,32.6694984436,-115.51300048799999,4.0,US-CA,Calexico,KCXL,http://calexico.ca.gov/index.php?option=com_content&task=blogcategory&id=77&Itemid=90,http://en.wikipedia.org/wiki/Calexico_International_Airport
CSN,small_airport,Carson Airport,39.192199707,-119.73400116,4697.0,US-NV,Carson City,KCXP,http://flycarsoncity.com/,http://en.wikipedia.org/wiki/Carson_Airport
HAR,small_airport,Capital City Airport,40.2170982361,-76.85150146480001,347.0,US-PA,Harrisburg,KCXY,http://www.flycxy.com/,http://en.wikipedia.org/wiki/Capital_City_Airport_(Pennsylvania)
CZT,small_airport,Dimmit County Airport,28.5221996307,-99.823600769,599.0,US-TX,Carrizo Springs,KCZT,,
VEX,small_airport,Tioga Municipal Airport,48.38050079,-102.8980026,2271.0,US-ND,Tioga,D60,http://www.tiogand.net/index.asp?SEC=D996B72D-EE0E-4AA1-929E-1F5F0C5C46CE&Type=B_BASIC,
DBN,small_airport,W H 'Bud' Barron Airport,32.56439972,-82.98529816,309.0,US-GA,Dublin,KDBN,,http://en.wikipedia.org/wiki/W._H._'Bud'_Barron_Airport
DCU,small_airport,Pryor Field Regional Airport,34.6526985168,-86.94539642330002,592.0,US-AL,Decatur,KDCU,,http://en.wikipedia.org/wiki/Pryor_Field_Regional_Airport
DEH,small_airport,Decorah Municipal Airport,43.27550125,-91.73940277,1158.0,US-IA,Decorah,KDEH,,http://en.wikipedia.org/wiki/Decorah_Municipal_Airport
DFI,small_airport,Defiance Memorial Airport,41.3375015259,-84.4288024902,707.0,US-OH,Defiance,KDFI,http://www.defiance-county.com/airport/index.html,http://en.wikipedia.org/wiki/Defiance_Memorial_Airport
DGL,small_airport,Douglas Municipal Airport,31.3425998688,-109.505996704,4173.0,US-AZ,Douglas,KDGL,,http://en.wikipedia.org/wiki/Douglas_Municipal_Airport_(Arizona)
DGW,small_airport,Converse County Airport,42.79719925,-105.38600159999999,4933.0,US-WY,Douglas,KDGW,,http://en.wikipedia.org/wiki/Converse_County_Airport
DKK,small_airport,Chautauqua County-Dunkirk Airport,42.49330139,-79.27200317,693.0,US-NY,Dunkirk,KDKK,,http://en.wikipedia.org/wiki/Chautauqua_County/Dunkirk_Airport
DLL,small_airport,Dillon County Airport,34.4491004944,-79.368598938,133.0,US-SC,Dillon,KDLC,,http://en.wikipedia.org/wiki/Dillon_County_Airport
DLN,small_airport,Dillon Airport,45.2554016113,-112.553001404,5241.0,US-MT,Dillon,KDLN,,http://en.wikipedia.org/wiki/Dillon_Airport
DMO,small_airport,Sedalia Memorial Airport,38.70740127559999,-93.17590332030001,909.0,US-MO,Sedalia,KDMO,http://ci.sedalia.mo.us/content/198/224/default.aspx,http://en.wikipedia.org/wiki/Sedalia_Regional_Airport
DNN,small_airport,Dalton Municipal Airport,34.72290039,-84.87020111,709.0,US-GA,Dalton,KDNN,,http://en.wikipedia.org/wiki/Dalton_Municipal_Airport
DNS,small_airport,Denison Municipal Airport,41.986400599999996,-95.38069916,1274.0,US-IA,Denison,KDNS,http://www.denisonia.com/community/airport.asp,http://en.wikipedia.org/wiki/Denison_Municipal_Airport
DNV,small_airport,Vermilion Regional Airport,40.19919968,-87.59590149,697.0,US-IL,Danville,KDNV,http://vrairport.com/,http://en.wikipedia.org/wiki/Vermilion_Regional_Airport
DPG,small_airport,Michael AAF (Dugway Proving Ground) Airport,40.19940186,-112.9369965,4349.0,US-UT,Dugway Proving Ground,KDPG,,http://en.wikipedia.org/wiki/Michael_Army_Airfield
DRE,small_airport,Drummond Island Airport,46.0093002319,-83.74389648440001,668.0,US-MI,Drummond Island,KDRM,,http://en.wikipedia.org/wiki/Drummond_Island_Airport
DRO,small_airport,Durango La Plata County Airport,37.1515007019,-107.75399780299999,6685.0,US-CO,Durango,KDRO,http://www.durangogov.org/airport/index.cfm,http://en.wikipedia.org/wiki/Durango-La_Plata_County_Airport
DSV,small_airport,Dansville Municipal Airport,42.5708999634,-77.71309661869999,662.0,US-NY,Dansville,KDSV,http://dansville.lib.ny.us/govern/airport.html,http://en.wikipedia.org/wiki/Dansville_Municipal_Airport
DTA,small_airport,Delta Municipal Airport,39.3805999756,-112.508003235,4759.0,US-UT,Delta,KDTA,,http://en.wikipedia.org/wiki/Delta_Municipal_Airport
DTL,small_airport,Detroit Lakes Airport - Wething Field,46.82519913,-95.88569641,1397.0,US-MN,Detroit Lakes,KDTL,http://www.detroitlakesaviation.com/index.php?mod=homepage&Page=1,http://en.wikipedia.org/wiki/Detroit_Lakes_Airport
DTN,small_airport,Shreveport Downtown Airport,32.5401992798,-93.7450027466,179.0,US-LA,Shreveport,KDTN,http://www.shreveportla.gov/airport/dtnairport.htm,http://en.wikipedia.org/wiki/Shreveport_Downtown_Airport
DSI,small_airport,Destin Executive Airport,30.40010071,-86.47149658,23.0,US-FL,Destin,KDTS,http://www.flydts.com/,http://en.wikipedia.org/wiki/Destin-Fort_Walton_Beach_Airport
DUA,small_airport,Eaker Field,33.94229889,-96.39450073,699.0,US-OK,Durant,KDUA,,http://en.wikipedia.org/wiki/Durant_Regional_Airport_%E2%80%93_Eaker_Field
DUC,small_airport,Halliburton Field,34.47090149,-97.95989990000001,1114.0,US-OK,Duncan,KDUC,,http://en.wikipedia.org/wiki/Halliburton_Field_(airport)
DVL,small_airport,Devils Lake Regional Airport,48.11420059,-98.90879822,1456.0,US-ND,Devils Lake,KDVL,http://www.devilslakeairport.com/,http://en.wikipedia.org/wiki/Devils_Lake_Regional_Airport
DVN,small_airport,Davenport Municipal Airport,41.61029816,-90.58830261,751.0,US-IA,Davenport,KDVN,http://www.cityofdavenportiowa.com/department/?fDD=47-0,http://en.wikipedia.org/wiki/Davenport_Municipal_Airport_(Iowa)
NOT,small_airport,Marin County Airport - Gnoss Field,38.143600463867,-122.55599975586,2.0,US-CA,Novato,KDVO,http://www.marincounty.org/depts/pw/divisions/airport,http://en.wikipedia.org/wiki/Marin_County_Airport
NSL,small_airport,Slayton Municipal Airport,43.986801147461,-95.78260040283199,1623.0,US-MN,Slayton,KDVP,http://www.slayton.govoffice.com/index.asp?SEC=5E59296F-B088-43BB-80E9-EC7A9653571B&Type=B_BASIC,
DVT,small_airport,Phoenix Deer Valley Airport,33.688301086399996,-112.083000183,1478.0,US-AZ,Phoenix,KDVT,http://deervalleyairport.com/,http://en.wikipedia.org/wiki/Phoenix_Deer_Valley_Airport
DWH,small_airport,David Wayne Hooks Memorial Airport,30.0618000031,-95.5528030396,152.0,US-TX,Houston,KDWH,http://www.hooksairport.com/,http://en.wikipedia.org/wiki/David_Wayne_Hooks_Memorial_Airport
DXR,small_airport,Danbury Municipal Airport,41.3714981079,-73.48220062259999,458.0,US-CT,Danbury,KDXR,,http://en.wikipedia.org/wiki/Danbury_Municipal_Airport
DYL,small_airport,Doylestown Airport,40.3330001831,-75.1222991943,394.0,US-PA,Doylestown,KDYL,http://www.doylestownairport.com/,http://en.wikipedia.org/wiki/Doylestown_Airport
MIF,small_airport,Roy Hurd Memorial Airport,31.582500457764002,-102.90899658203001,2615.0,US-TX,Monahans,E01,http://www.cityofmonahans.org/index.asp?SEC=63860F5B-0F7B-4986-B494-851041B4C76D&Type=B_BASIC,
CCG,small_airport,Crane County Airport,31.415100097699998,-102.362998962,2552.0,US-TX,Crane,E13,,
ESO,small_airport,Ohkay Owingeh Airport,36.0299987793,-106.04599762,5790.0,US-NM,Espanola,E14,,http://en.wikipedia.org/wiki/Ohkay_Owingeh_Airport
WTR,small_airport,Whiteriver Airport,33.8125,-109.98699950000001,5153.0,US-AZ,Whiteriver,E24,,https://en.wikipedia.org/wiki/Whiteriver_Airport
ALE,small_airport,Alpine Casparis Municipal Airport,30.3841991425,-103.683998108,4515.0,US-TX,Alpine,,http://www.ci.alpine.tx.us/airport.shtml,http://en.wikipedia.org/wiki/Alpine-Casparis_Municipal_Airport
BGT,small_airport,Bagdad Airport,34.5959014893,-113.169998169,4183.0,US-AZ,Bagdad,E51,,http://en.wikipedia.org/wiki/Bagdad_Airport
EAN,small_airport,Phifer Airfield,42.0555,-104.929001,4776.0,US-WY,Wheatland,KEAN,,
EAR,small_airport,Kearney Regional Airport,40.72700119,-99.00679779,2131.0,US-NE,Kearney,KEAR,,http://en.wikipedia.org/wiki/Kearney_Municipal_Airport
KEB,small_airport,Nanwalek Airport,59.352100372299994,-151.925003052,27.0,US-AK,Nanwalek,KEB,,http://en.wikipedia.org/wiki/English_Bay_Airport
EBS,small_airport,Webster City Municipal Airport,42.43659973,-93.86889648,1122.0,US-IA,Webster City,KEBS,,
ECS,small_airport,Mondell Field,43.885399,-104.318001,4174.0,US-WY,Newcastle,KECS,,
EDE,small_airport,Northeastern Regional Airport,36.027698516799994,-76.56710052490001,20.0,US-NC,Edenton,KEDE,,http://en.wikipedia.org/wiki/Northeastern_Regional_Airport
ETS,small_airport,Enterprise Municipal Airport,31.29969978,-85.89990234,361.0,US-AL,Enterprise,KEDN,,http://en.wikipedia.org/wiki/Enterprise_Municipal_Airport_(Alabama)
EFK,small_airport,Newport State Airport,44.888801574700004,-72.2292022705,930.0,US-VT,Newport,KEFK,,http://en.wikipedia.org/wiki/Newport_State_Airport_(Vermont)
EFW,small_airport,Jefferson Municipal Airport,42.0102005,-94.34259796,1044.0,US-IA,Jefferson,KEFW,http://cityofjeffersoniowa.org/depts-airport.php,
EGV,small_airport,Eagle River Union Airport,45.9323005676,-89.26830291750002,1642.0,US-WI,Eagle River,KEGV,http://www.erairport.com/,http://en.wikipedia.org/wiki/Eagle_River_Union_Airport
KEK,small_airport,Ekwok Airport,59.3568000793457,-157.4709930419922,135.0,US-AK,Ekwok,KEK,,
EKI,small_airport,Elkhart Municipal Airport,41.7193984985,-86.00319671630001,778.0,US-IN,Elkhart,KEKM,http://www.elkhartindiana.org/department/index.php?structureid=2,http://en.wikipedia.org/wiki/Elkhart_Municipal_Airport
EKX,small_airport,Addington Field,37.686000824000004,-85.9250030518,775.0,US-KY,Elizabethtown,KEKX,http://www.ekxairport.com/,http://en.wikipedia.org/wiki/Addington_Field
ELA,small_airport,Eagle Lake Airport,29.600599288900003,-96.3218994141,184.0,US-TX,Eagle Lake,KELA,,
ELK,small_airport,Elk City Regional Business Airport,35.43080139,-99.39430237,2013.0,US-OK,Elk City,KELK,http://www.elkcityairport.com/default.htm,http://en.wikipedia.org/wiki/Elk_City_Regional_Business_Airport
ELN,small_airport,Bowers Field,47.03300095,-120.53099820000001,1764.0,US-WA,Ellensburg,KELN,http://www.wsdot.wa.gov/aviation/AllStateAirports/Ellensburg_BowersField.htm,http://en.wikipedia.org/wiki/Bowers_Airport
ELZ,small_airport,"Wellsville Municipal Arpt,Tarantine Field",42.10950089,-77.98999786,2124.0,US-NY,Wellsville,KELZ,,http://en.wikipedia.org/wiki/Wellsville_Municipal_Airport
EMM,small_airport,Kemmerer Municipal Airport,41.82410049439999,-110.556999207,7285.0,US-WY,Kemmerer,KEMM,,http://en.wikipedia.org/wiki/Kemmerer_Municipal_Airport
EMP,small_airport,Emporia Municipal Airport,38.3320999146,-96.1912002563,1208.0,US-KS,Emporia,KEMP,http://visitors.emporia-kansas.gov/index.php/emporia-municipal-airport,http://en.wikipedia.org/wiki/Emporia_Municipal_Airport
EMT,small_airport,El Monte Airport,34.086101532,-118.03500366200001,296.0,US-CA,El Monte,KEMT,http://www.americanairports.com/Locations/EMTElMonteAirportCA.aspx,http://en.wikipedia.org/wiki/El_Monte_Airport
ENL,small_airport,Centralia Municipal Airport,38.515098571799996,-89.0911026001,534.0,US-IL,Centralia,KENL,,
EOK,small_airport,Keokuk Municipal Airport,40.4598999023,-91.4284973145,671.0,US-IA,Keokuk,KEOK,http://www.cityofkeokuk.org/airport.html,http://en.wikipedia.org/wiki/Keokuk_Municipal_Airport
EPH,small_airport,Ephrata Municipal Airport,47.30759811,-119.51599879999999,1276.0,US-WA,Ephrata,KEPH,http://www.portofephrata.com/index.htmlA,http://en.wikipedia.org/wiki/Ephrata_Municipal_Airport
EDK,small_airport,Captain Jack Thomas El Dorado Airport,37.7741012573,-96.8175964355,1378.0,US-KS,El Dorado,KEQA,http://www.eldoks.com/Airport%20Cover.html,http://en.wikipedia.org/wiki/Captain_Jack_Thomas/El_Dorado_Airport
ERR,small_airport,Errol Airport,44.792499542200005,-71.1641998291,1245.0,US-NH,Errol,KERR,http://www.nh.gov/dot/org/aerorailtransit/aeronautics/sasp/airports/errol.htm,
ERV,small_airport,Kerrville Municipal Louis Schreiner Field,29.9766998291,-99.08570098879999,1617.0,US-TX,Kerrville,KERV,http://www.co.kerr.tx.us/airport/,http://en.wikipedia.org/wiki/Kerrville_Municipal_Airport
ESC,small_airport,Delta County Airport,45.7226982117,-87.0936965942,609.0,US-MI,Escanaba,KESC,,http://en.wikipedia.org/wiki/Delta_County_Airport
ESN,small_airport,Easton Newnam Field,38.8041992188,-76.06900024410002,72.0,US-MD,Easton,KESN,http://eastonairport.com/,http://en.wikipedia.org/wiki/Easton_Airport_(Maryland)
EST,small_airport,Estherville Municipal Airport,43.40739822,-94.74639893,1319.0,US-IA,Estherville,KEST,,
ESW,small_airport,Easton State Airport,47.2541999817,-121.18599700899999,2226.0,US-WA,Easton,KESW,http://www.wsdot.wa.gov/Public/Templates/Standard/DefaultTemplate.aspx?NRMODE=Published&NRNODEGUID=%7B3B856445-96DD-44E1-ABCE-2F,http://en.wikipedia.org/wiki/Easton_State_Airport
ETB,small_airport,West Bend Municipal Airport,43.4221992493,-88.1278991699,887.0,US-WI,West Bend,KETB,http://www.ci.west-bend.wi.us/Airport/,http://en.wikipedia.org/wiki/West_Bend_Municipal_Airport
ETN,small_airport,Eastland Municipal Airport,32.4135017395,-98.8097991943,1464.0,US-TX,Eastland,KETN,,
EUF,small_airport,Weedon Field,31.951299667399997,-85.1288986206,285.0,US-AL,Eufaula,KEUF,,http://en.wikipedia.org/wiki/Weedon_Field
EVM,small_airport,Eveleth Virginia Municipal Airport,47.42509842,-92.49849701,1379.0,US-MN,Eveleth,KEVM,,
EWK,small_airport,Newton City-County Airport,38.0582008362,-97.2744979858,1533.0,US-KS,Newton,KEWK,http://www.newtonkansas.com/index.aspx?page=40,http://en.wikipedia.org/wiki/Newton_City/County_Airport
WIB,small_airport,Wilbarger County Airport,34.2257003784,-99.28379821780001,1265.0,US-TX,Vernon,F05,http://www.co.wilbarger.tx.us/Airport2.htm,http://en.wikipedia.org/wiki/Wilbarger_County_Airport
RBK,small_airport,French Valley Airport,33.5741996765,-117.127998352,1350.0,US-CA,Murrieta/Temecula,F70,http://www.rcfva.com/,http://en.wikipedia.org/wiki/French_Valley_Airport
FAM,small_airport,Farmington Regional Airport,37.76110077,-90.4285965,946.0,US-MO,Farmington,KFAM,http://farmington-mo.gov/airport.cfm,
FBL,small_airport,Faribault Municipal Airport,44.3246994019,-93.310798645,1060.0,US-MN,Faribault,KFBL,http://www.faribault.org/departments/publicworks/airport,
FBR,small_airport,Fort Bridger Airport,41.3918991089,-110.40699768100001,7034.0,US-WY,Fort Bridger,KFBR,,
FBY,small_airport,Fairbury Municipal Airport,40.182998657199995,-97.16929626459999,1479.0,US-NE,Fairbury,KFBY,http://www.fairbury.com/pages/fairbury_airport.html,
FCH,small_airport,Fresno Chandler Executive Airport,36.73239899,-119.8199997,279.0,US-CA,Fresno,KFCH,http://www.flyfresno.com/airport-guide/Chandler_Executive,http://en.wikipedia.org/wiki/Fresno_Chandler_Executive_Airport
FCM,small_airport,Flying Cloud Airport,44.827201843299996,-93.4570999146,906.0,US-MN,Minneapolis,KFCM,http://www.metroairports.org/General-Aviation/Airports/Flying-Cloud.aspx,http://en.wikipedia.org/wiki/Flying_Cloud_Airport
FCY,small_airport,Forrest City Municipal Airport,34.942001342800005,-90.7750015259,249.0,US-AR,Forrest City,KFCY,http://www.fly.arkansas.gov/Airports/ForrestCity/FORREST_CITY-2.pdf,http://en.wikipedia.org/wiki/Forrest_City_Municipal_Airport
FDK,small_airport,Frederick Municipal Airport,39.4175987244,-77.3742980957,303.0,US-MD,Frederick,KFDK,https://www.cityoffrederick.com/index.aspx?NID=152,http://en.wikipedia.org/wiki/Frederick_Municipal_Airport_(Maryland)
FDR,small_airport,Frederick Regional Airport,34.35200119,-98.98390198,1258.0,US-OK,Frederick,KFDR,,http://en.wikipedia.org/wiki/Frederick_Regional_Airport
FEP,small_airport,Albertus Airport,42.246200561500004,-89.58200073239998,859.0,US-IL,Freeport,KFEP,http://www.ci.freeport.il.us/business/albertus.htm,http://de.wikipedia.org/wiki/Albertus_Airport
FET,small_airport,Fremont Municipal Airport,41.44910049,-96.52020264,1204.0,US-NE,Fremont,KFET,http://www.fremontne.gov/index.aspx?nid=398,http://en.wikipedia.org/wiki/Fremont_Municipal_Airport_(Nebraska)
FFA,small_airport,First Flight Airport,36.0181999207,-75.67130279540002,13.0,US-NC,Kill Devil Hills,KFFA,,http://en.wikipedia.org/wiki/First_Flight_Airport
FFL,small_airport,Fairfield Municipal Airport,41.0532989502,-91.97889709469999,799.0,US-IA,Fairfield,KFFL,http://cityoffairfieldiowa.com/index.aspx?nid=65,http://en.wikipedia.org/wiki/Fairfield_Municipal_Airport_(Iowa)
FFM,small_airport,Fergus Falls Municipal Airport - Einar Mickelson Field,46.28440094,-96.15670013,1183.0,US-MN,Fergus Falls,KFFM,http://www.ci.fergus-falls.mn.us/index.asp?Type=B_BASIC&SEC=%7B6362A7EF-126F-4694-9568-23D51B3A6337%7D,http://en.wikipedia.org/wiki/Fergus_Falls_Municipal_Airport
FFT,small_airport,Capital City Airport,38.18249893,-84.90470123,806.0,US-KY,Frankfort,KFFT,http://cca.ky.gov/Pages/default.aspx,http://en.wikipedia.org/wiki/Capital_City_Airport_(Kentucky)
MSC,small_airport,Falcon Field,33.4608001709,-111.72799682600001,1394.0,US-AZ,Mesa,KFFZ,http://www.falconfieldairport.com/,http://en.wikipedia.org/wiki/Falcon_Field_(Arizona)
FRD,small_airport,Friday Harbor Airport,48.5219993591,-123.024002075,113.0,US-WA,Friday Harbor,KFHR,http://www.portfridayharbor.org/?page_id=49,http://en.wikipedia.org/wiki/Friday_Harbor_Airport
FKN,small_airport,Franklin Municipal-John Beverly Rose Airport,36.6981010437,-76.90380096439999,41.0,US-VA,Franklin,KFKN,http://www.franklinva.com/index.php?option=com_content&view=article&id=30&Itemid=168,http://en.wikipedia.org/wiki/Franklin_Municipal%E2%80%93John_Beverly_Rose_Airport
FLD,small_airport,Fond du Lac County Airport,43.771198272700005,-88.48840332030001,808.0,US-WI,Fond du Lac,KFLD,http://www.fdlco.wi.gov/departments/departments-a-e/airport,http://en.wikipedia.org/wiki/Fond_du_Lac_County_Airport
FLP,small_airport,Marion County Regional Airport,36.29090118,-92.59030151,719.0,US-AR,Flippin,KFLP,http://www.marioncountyairport.com/default.htm,http://en.wikipedia.org/wiki/Marion_County_Regional_Airport
FLV,small_airport,Sherman Army Air Field,39.3683013916,-94.9147033691,772.0,US-KS,Fort Leavenworth,KFLV,http://www.lvks.org/department/division.php?structureid=141,http://en.wikipedia.org/wiki/Sherman_Army_Airfield
FLX,small_airport,Fallon Municipal Airport,39.4990997314,-118.749000549,3963.0,US-NV,Fallon,KFLX,,http://en.wikipedia.org/wiki/Fallon_Municipal_Airport
FMH,small_airport,Cape Cod Coast Guard Air Station,41.6584014893,-70.5214004517,131.0,US-MA,Falmouth,KFMH,http://www.uscg.mil/d1/airstacapecod/,http://en.wikipedia.org/wiki/Coast_Guard_Air_Station_Cape_Cod
FNL,small_airport,Fort Collins Loveland Municipal Airport,40.4518013,-105.01100158700001,5016.0,US-CO,Fort Collins/Loveland,KFNL,http://fortloveair.com,http://en.wikipedia.org/wiki/Fort_Collins-Loveland_Municipal_Airport
FOK,small_airport,Francis S Gabreski Airport,40.8437004089,-72.6317977905,67.0,US-NY,Westhampton Beach,KFOK,http://www.suffolkcountyny.gov/Departments/EconomicDevelopmentandPlanning/FrancisSGabreskiAirport.aspx,http://en.wikipedia.org/wiki/Francis_S._Gabreski_Airport
FIL,small_airport,Fillmore Municipal Airport,38.95830154,-112.362999,4985.0,US-UT,Fillmore,KFOM,,http://en.wikipedia.org/wiki/Fillmore_Municipal_Airport
FRH,small_airport,French Lick Municipal Airport,38.5061988831,-86.63690185550001,792.0,US-IN,French Lick,KFRH,,http://en.wikipedia.org/wiki/French_Lick_Municipal_Airport
FRM,small_airport,Fairmont Municipal Airport,43.643901825,-94.4156036377,1162.0,US-MN,Fairmont,KFRM,,http://en.wikipedia.org/wiki/Fairmont_Municipal_Airport_(Minnesota)
FRR,small_airport,Front Royal Warren County Airport,38.9174995422,-78.25350189210002,709.0,US-VA,Front Royal,KFRR,,http://en.wikipedia.org/wiki/Front_Royal%E2%80%93Warren_County_Airport
FSK,small_airport,Fort Scott Municipal Airport,37.7984008789,-94.7694015503,918.0,US-KS,Fort Scott,KFSK,http://www.fscity.org/index.php?option=com_content&view=article&id=98&Itemid=195,http://en.wikipedia.org/wiki/Fort_Scott_Municipal_Airport
FSU,small_airport,Fort Sumner Municipal Airport,34.4833984375,-104.217002869,4165.0,US-NM,Fort Sumner,KFSU,,http://en.wikipedia.org/wiki/Fort_Sumner_Municipal_Airport
FMS,small_airport,Fort Madison Municipal Airport,40.6593017578,-91.32679748540001,724.0,US-IA,Fort Madison,KFSW,,
FUL,small_airport,Fullerton Municipal Airport,33.8720016479,-117.980003357,96.0,US-CA,Fullerton,KFUL,http://www.cityoffullerton.com/depts/airport/,http://en.wikipedia.org/wiki/Fullerton_Municipal_Airport
WFK,small_airport,Northern Aroostook Regional Airport,47.2854995728,-68.31279754639999,988.0,US-ME,Frenchville,KFVE,,http://en.wikipedia.org/wiki/Northern_Aroostook_Regional_Airport
FXY,small_airport,Forest City Municipal Airport,43.23469925,-93.62409973,1229.0,US-IA,Forest City,KFXY,http://www.cityofforestcity.com/departments/airport.asp,http://en.wikipedia.org/wiki/Forest_City_Municipal_Airport
FYM,small_airport,Fayetteville Municipal Airport,35.059700012200004,-86.56400299069999,984.0,US-TN,Fayetteville,KFYM,http://www.fayettevillemunicipalairport.com/,http://en.wikipedia.org/wiki/Fayetteville_Municipal_Airport_(Tennessee)
GAD,small_airport,Northeast Alabama Regional Airport,33.972599,-86.088996,569.0,US-AL,Gadsden,KGAD,http://www.nealair.com/,https://en.wikipedia.org/wiki/Northeast_Alabama_Regional_Airport
GAG,small_airport,Gage Airport,36.295501709,-99.7763977051,2223.0,US-OK,Gage,KGAG,,
GAI,small_airport,Montgomery County Airpark,39.168300628699996,-77.1660003662,539.0,US-MD,Gaithersburg,KGAI,http://www.montgomerycountyairpark.com/,http://en.wikipedia.org/wiki/Montgomery_County_Airpark
GBD,small_airport,Great Bend Municipal Airport,38.3442993164,-98.85919952389999,1887.0,US-KS,Great Bend,KGBD,,
GBG,small_airport,Galesburg Municipal Airport,40.9379997253,-90.43109893799999,764.0,US-IL,Galesburg,KGBG,http://www.ci.galesburg.il.us/services/airport/,http://en.wikipedia.org/wiki/Galesburg_Municipal_Airport
GBR,small_airport,Walter J. Koladza Airport,42.18420029,-73.40319824,739.0,US-MA,Great Barrington,KGBR,http://greatbarringtonairport.com/,http://en.wikipedia.org/wiki/Walter_J._Koladza_Airport
JDA,small_airport,Grant Co Regional/Ogilvie Field,44.40420151,-118.96299740000002,3703.0,US-OR,John Day,KGCD,,http://en.wikipedia.org/wiki/Grant_County_Regional_Airport
GCY,small_airport,Greeneville-Greene County Municipal Airport,36.19300079,-82.81510162,1608.0,US-TN,Greeneville,KGCY,http://www.greenevilleaviation.com/,http://en.wikipedia.org/wiki/Greeneville-Greene_County_Municipal_Airport
GDM,small_airport,Gardner Municipal Airport,42.5499992371,-72.0160980225,955.0,US-MA,Gardner,KGDM,,http://en.wikipedia.org/wiki/Gardner_Municipal_Airport_(Massachusetts)
GDW,small_airport,Gladwin Zettel Memorial Airport,43.9706001282,-84.47499847410002,776.0,US-MI,Gladwin,KGDW,http://www.gladwin.org/airport/airport.htm,http://en.wikipedia.org/wiki/Gladwin_Zettel_Memorial_Airport
GED,small_airport,Sussex County Airport,38.68920135,-75.35890198,53.0,US-DE,Georgetown,KGED,https://www.sussexcountyde.gov/about/airport/,http://en.wikipedia.org/wiki/Sussex_County_Airport
GEY,small_airport,South Big Horn County Airport,44.51679993,-108.08300020000001,3939.0,US-WY,Greybull,KGEY,http://www.bighorncountywy.gov/res-airports.htm,
GGE,small_airport,Georgetown County Airport,33.311698913600004,-79.3196029663,39.0,US-SC,Georgetown,KGGE,http://www.georgetowncountyairport.com/,http://en.wikipedia.org/wiki/Georgetown_County_Airport
GHM,small_airport,Centerville Municipal Airport,35.8373985291,-87.44539642330002,768.0,US-TN,Centerville,KGHM,,http://en.wikipedia.org/wiki/Centerville_Municipal_Airport_(Tennessee)
GIF,small_airport,Winter Haven Municipal Airport - Gilbert Field,28.06290054,-81.75330353,145.0,US-FL,Winter Haven,KGIF,http://kgif.mywinterhaven.com/,http://en.wikipedia.org/wiki/Winter_Haven's_Gilbert_Airport
MEJ,small_airport,Port Meadville Airport,41.62649918,-80.21469879,1399.0,US-PA,Meadville,KGKJ,"http://www.crawfordcountypa.net/portal/page?_dad=portal&_pageid=393,916281&_schema=PORTAL",http://en.wikipedia.org/wiki/Port_Meadville_Airport
GKT,small_airport,Gatlinburg-Pigeon Forge Airport,35.85779953,-83.52870178219999,1014.0,US-TN,Sevierville,KGKT,,http://en.wikipedia.org/wiki/Gatlinburg-Pigeon_Forge_Airport
GLE,small_airport,Gainesville Municipal Airport,33.651401519800004,-97.1969985962,845.0,US-TX,Gainesville,KGLE,http://www.gainesville.tx.us/index.aspx?nid=99,http://en.wikipedia.org/wiki/Gainesville_Municipal_Airport
GLR,small_airport,Gaylord Regional Airport,45.0135002136,-84.7035980225,1328.0,US-MI,Gaylord,KGLR,http://www.gaylordregional.com/default.htm,http://en.wikipedia.org/wiki/Gaylord_Regional_Airport
GLW,small_airport,Glasgow Municipal Airport,37.03179932,-85.95369720000001,716.0,US-KY,Glasgow,KGLW,http://www.glasgowaviation.com/,http://en.wikipedia.org/wiki/Glasgow_Municipal_Airport
GNG,small_airport,Gooding Municipal Airport,42.91719818,-114.7649994,3732.0,US-ID,Gooding,KGNG,http://www.goodingidaho.org/departments/840-2/,
GNT,small_airport,Grants-Milan Municipal Airport,35.167301178,-107.902000427,6537.0,US-NM,Grants,KGNT,,
GOK,small_airport,Guthrie-Edmond Regional Airport,35.84980011,-97.41560364,1069.0,US-OK,Guthrie,KGOK,http://www.guthrieedmondregionalairport.com/,http://en.wikipedia.org/wiki/Guthrie%E2%80%93Edmond_Regional_Airport
GPZ,small_airport,Grand Rapids Itasca Co-Gordon Newstrom field,47.21110153,-93.50980377,1355.0,US-MN,Grand Rapids,KGPZ,http://grandrapids.govoffice.com/vertical/Sites/%7B938C328A-AD1C-45AA-A862-764C60A37DEF%7D/uploads/%7B7E8C4920-D1DC-4696-9A43-FF,http://en.wikipedia.org/wiki/Grand_Rapids_%E2%80%93_Itasca_County_Airport
GQQ,small_airport,Galion Municipal Airport,40.7533988953,-82.7238006592,1224.0,US-OH,Galion,KGQQ,http://www.ci.galion.oh.us/airport/airport.html,http://en.wikipedia.org/wiki/Galion_Municipal_Airport
GRD,small_airport,Greenwood County Airport,34.2486991882,-82.15910339359999,631.0,US-SC,Greenwood,KGRD,,
GRE,small_airport,Greenville Airport,38.836200714099995,-89.37840271,541.0,US-IL,Greenville,KGRE,,http://en.wikipedia.org/wiki/Greenville_Airport
GRN,small_airport,Gordon Municipal Airport,42.805999755900004,-102.17500305200001,3562.0,US-NE,Gordon,KGRN,,
GSH,small_airport,Goshen Municipal Airport,41.5264015198,-85.79290008539998,827.0,US-IN,Goshen,KGSH,http://www.goshenindiana.org/content/goshen-municipal-airport,http://en.wikipedia.org/wiki/Goshen_Municipal_Airport
GTG,small_airport,Grantsburg Municipal Airport,45.7980995178,-92.6643981934,927.0,US-WI,Grantsburg,KGTG,http://www.grantsburgwi.com/airport.html,http://en.wikipedia.org/wiki/Grantsburg_Municipal_Airport
GUC,small_airport,Gunnison Crested Butte Regional Airport,38.53390121,-106.9329987,7680.0,US-CO,Gunnison,KGUC,,http://en.wikipedia.org/wiki/Gunnison-Crested_Butte_Regional_Airport
GVL,small_airport,Lee Gilmer Memorial Airport,34.27259827,-83.8302002,1276.0,US-GA,Gainesville,KGVL,https://www.gainesville.org/lee-gilmer-memorial-airport,http://en.wikipedia.org/wiki/Lee_Gilmer_Memorial_Airport
GVT,small_airport,Majors Airport,33.0677986145,-96.0652999878,535.0,US-TX,Greenville,KGVT,,http://en.wikipedia.org/wiki/Majors_Airport
GWS,small_airport,Glenwood Springs Municipal Airport,39.5083007812,-107.31099700899999,5916.0,US-CO,Glenwood Springs,KGWS,http://www.glenwoodspringsairport.com/,
KGX,small_airport,Grayling Airport,62.895187,-160.06628899999998,99.0,US-AK,Grayling,PAGX,,https://en.wikipedia.org/wiki/Grayling_Airport
GXY,small_airport,Greeley–Weld County Airport,40.4374008179,-104.633003235,4697.0,US-CO,Greeley,KGXY,http://www.gxy.net/,http://en.wikipedia.org/wiki/Greeley-Weld_County_Airport
GDC,small_airport,Donaldson Center Airport,34.7583007812,-82.3764038086,955.0,US-SC,Greenville,KGYH,,http://en.wikipedia.org/wiki/Donaldson_Center_Airport
PNX,small_airport,North Texas Regional Airport/Perrin Field,33.714099884,-96.6736984253,749.0,US-TX,Sherman/Denison,KGYI,http://www.northtexasregionalairport.com/,https://en.wikipedia.org/wiki/North_Texas_Regional_Airport
GYR,small_airport,Phoenix Goodyear Airport,33.4225006104,-112.375999451,968.0,US-AZ,Goodyear,KGYR,http://goodyearairport.com/,http://en.wikipedia.org/wiki/Phoenix_Goodyear_Airport
KGZ,small_airport,Glacier Creek Airport,61.4551010132,-142.38099670399998,2380.0,US-AK,Glacier Creek,KGZ,,
HAB,small_airport,Marion County Rankin Fite Airport,34.11759949,-87.99819946,436.0,US-AL,Hamilton,KHAB,,http://en.wikipedia.org/wiki/Marion_County_%E2%80%93_Rankin_Fite_Airport
HAF,small_airport,Half Moon Bay Airport,37.5134010315,-122.500999451,66.0,US-CA,Half Moon Bay,KHAF,,http://en.wikipedia.org/wiki/Half_Moon_Bay_Airport
HAI,small_airport,Three Rivers Municipal Dr Haines Airport,41.9598007202,-85.59339904790002,824.0,US-MI,Three Rivers,KHAI,,
HAO,small_airport,Butler Co Regional Airport - Hogan Field,39.3638000488,-84.5220031738,633.0,US-OH,Hamilton,KHAO,http://bcra.butlercountyohio.org/,http://en.wikipedia.org/wiki/Butler_County_Regional_Airport
HDE,small_airport,Brewster Field,40.452099,-99.336502,2313.0,US-NE,Holdrege,KHDE,,
HDN,small_airport,Yampa Valley Airport,40.48120117,-107.21800230000001,6606.0,US-CO,Hayden,KHDN,,http://en.wikipedia.org/wiki/Yampa_Valley_Airport
HEE,small_airport,Thompson-Robbins Airport,34.576571,-90.67616,242.0,US-AR,Helena/West Helena,KHEE,http://www.fly.arkansas.gov/Airports/Helena/HELENA%20_%20WEST%20HELENA.pdf,https://en.wikipedia.org/wiki/Thompson%E2%80%93Robbins_Airport
MNZ,small_airport,Manassas Regional Airport/Harry P. Davis Field,38.72140121,-77.51540375,192.0,US-VA,Manassas,KHEF,http://www.manassascity.org/Index.aspx?NID=131,http://en.wikipedia.org/wiki/Manassas_Regional_Airport
HEZ,small_airport,Hardy-Anders Field / Natchez-Adams County Airport,31.613738,-91.297313,272.0,US-MS,Natchez,KHEZ,https://www.adamscountyms.net/natchez-adams-county-airport,https://en.wikipedia.org/wiki/Natchez%E2%80%93Adams_County_Airport
HFF,small_airport,Mackall Army Air Field,35.036288,-79.497755,376.0,US-NC,Camp Mackall,KHFF,,https://en.wikipedia.org/wiki/Camp_Mackall
HUJ,small_airport,Stan Stamper Municipal Airport,34.03480148,-95.54190063,572.0,US-OK,Hugo,KHHW,,http://en.wikipedia.org/wiki/Stan_Stamper_Municipal_Airport
HIE,small_airport,Mount Washington Regional Airport,44.367637,-71.54450200000001,1074.0,US-NH,Whitefield,KHIE,http://www.mountwashingtonairport.com/,https://en.wikipedia.org/wiki/Mount_Washington_Regional_Airport
HII,small_airport,Lake Havasu City Airport,34.571098,-114.358002,783.0,US-AZ,Lake Havasu City,KHII,,http://en.wikipedia.org/wiki/Lake_Havasu_City_Airport
HKA,small_airport,Blytheville Municipal Airport,35.940399169900004,-89.83080291750002,255.0,US-AR,Blytheville,KHKA,,http://en.wikipedia.org/wiki/Blytheville_Municipal_Airport
HKS,small_airport,Hawkins Field,32.33449936,-90.22219849,341.0,US-MS,Jackson,KHKS,http://jmaa.com/hks/,http://en.wikipedia.org/wiki/Hawkins_Field_(airport)
HLB,small_airport,Hillenbrand Industries Airport,39.3445014954,-85.25830078119998,973.0,US-IN,Batesville,KHLB,,
HLC,small_airport,Hill City Municipal Airport,39.37879944,-99.83149719,2238.0,US-KS,Hill City,KHLC,,http://en.wikipedia.org/wiki/Hill_City_Municipal_Airport
HLM,small_airport,Park Township Airport,42.7958984375,-86.16200256350001,603.0,US-MI,Holland,KHLM,http://park-township-airport.com/,http://en.wikipedia.org/wiki/Park_Township_Airport
HMT,small_airport,Hemet Ryan Airport,33.7340011597,-117.023002625,1512.0,US-CA,Hemet,KHMT,http://www.rchmtra.com/,http://en.wikipedia.org/wiki/Hemet-Ryan_Airport
HNB,small_airport,Huntingburg Airport,38.2490005493,-86.95369720459999,529.0,US-IN,Huntingburg,KHNB,http://huntingburgairport.com/,http://en.wikipedia.org/wiki/Huntingburg_Airport
HSH,small_airport,Henderson Executive Airport,35.9728012085,-115.134002686,2492.0,US-NV,Las Vegas,KHND,http://www.hnd.aero/,http://en.wikipedia.org/wiki/Henderson_Executive_Airport
HPT,small_airport,Hampton Municipal Airport,42.7237014771,-93.22630310059999,1176.0,US-IA,Hampton,KHPT,,
HPY,small_airport,Baytown Airport,29.7861003876,-94.9526977539,34.0,US-TX,Baytown,KHPY,http://www.baytownairport.com/,http://en.wikipedia.org/wiki/Baytown_Airport
HES,small_airport,Hermiston Municipal Airport,45.828223,-119.259024,644.0,US-OR,Hermiston,KHRI,,https://en.wikipedia.org/wiki/Hermiston_Municipal_Airport
HSB,small_airport,Harrisburg-Raleigh Airport,37.81129837,-88.5503006,398.0,US-IL,Harrisburg,KHSB,,
HNC,small_airport,Billy Mitchell Airport,35.232799530029,-75.617797851562,17.0,US-NC,Hatteras,KHSE,http://www.outerbanks.com/billy-mitchel-airport.html,http://en.wikipedia.org/wiki/Billy_Mitchell_Airport
THP,small_airport,Hot Springs County Airport,43.713602,-108.38968700000001,4895.0,US-WY,Thermopolis,KHSG,,
HSI,small_airport,Hastings Municipal Airport,40.6053009033,-98.4279022217,1961.0,US-NE,Hastings,KHSI,http://www.cityofhastings.org/airport/,http://en.wikipedia.org/wiki/Hastings_Municipal_Airport
HSP,small_airport,Ingalls Field,37.95140076,-79.83390045,3793.0,US-VA,Hot Springs,KHSP,,
HTH,small_airport,Hawthorne Industrial Airport,38.544399,-118.634002,4215.0,US-NV,Hawthorne,KHTH,,http://en.wikipedia.org/wiki/Hawthorne_Municipal_Airport_(Nevada)
HTL,small_airport,Roscommon County - Blodgett Memorial Airport,44.359798,-84.671095,1150.0,US-MI,Houghton Lake,KHTL,,http://en.wikipedia.org/wiki/Roscommon_County_Airport
HTO,small_airport,East Hampton Airport,40.95959854,-72.25180054,55.0,US-NY,East Hampton,KHTO,http://www.town.east-hampton.ny.us/htmlpages/Airport/AirportHome.htm,http://en.wikipedia.org/wiki/East_Hampton_Airport
HTW,small_airport,Lawrence County Airpark,38.4193,-82.49430100000001,568.0,US-OH,Chesapeake/Huntington Wva,KHTW,,http://en.wikipedia.org/wiki/Lawrence_County_Airpark
HUM,small_airport,Houma Terrebonne Airport,29.566499710100004,-90.66040039059999,10.0,US-LA,Houma,KHUM,http://www.houma-airport.com/,http://en.wikipedia.org/wiki/Houma%E2%80%93Terrebonne_Airport
HVE,small_airport,Hanksville Airport,38.4179992676,-110.70400238,4444.0,US-UT,Hanksville,KHVE,,
HVS,small_airport,Hartsville Regional Airport,34.403099060100004,-80.11920166019999,364.0,US-SC,Hartsville,KHVS,http://hartsvillesc.gov/visitors/hartsville-airport/,http://en.wikipedia.org/wiki/Hartsville_Regional_Airport
HWD,small_airport,Hayward Executive Airport,37.659198761,-122.122001648,52.0,US-CA,Hayward,KHWD,http://www.hayward-ca.gov/CITY-GOVERNMENT/DEPARTMENTS/PUBLIC-WORKS-ET/HEA/,http://en.wikipedia.org/wiki/Hayward_Executive_Airport
HWO,small_airport,North Perry Airport,26.0011997223,-80.24069976810001,8.0,US-FL,Hollywood,KHWO,http://www.broward.org/airport/northperryairport/Pages/Default.aspx,http://en.wikipedia.org/wiki/North_Perry_Airport
WSH,small_airport,Brookhaven Airport,40.821899414099995,-72.86940002440001,81.0,US-NY,Shirley,KHWV,,http://en.wikipedia.org/wiki/Brookhaven_Airport
HHH,small_airport,Hilton Head Airport,32.2243995667,-80.6975021362,19.0,US-SC,Hilton Head Island,KHXD,,
HZL,small_airport,Hazleton Municipal Airport,40.9868011475,-75.99490356449999,1603.0,US-PA,Hazleton,KHZL,http://hazletonfbo.com/default.htm,http://en.wikipedia.org/wiki/Hazleton_Municipal_Airport
JFN,small_airport,Northeast Ohio Regional Airport,41.7779998779,-80.6955032349,924.0,US-OH,Ashtabula,KHZY,http://www.neohioregionalairport.com/,http://en.wikipedia.org/wiki/Ashtabula_County_Airport
ICL,small_airport,Schenck Field,40.72180176,-95.02639771,996.0,US-IA,Clarinda,KICL,,
IDI,small_airport,Indiana County/Jimmy Stewart Fld/ Airport,40.63219833,-79.10549927,1405.0,US-PA,Indiana,KIDI,http://www.jimmystewartairport.com/,http://en.wikipedia.org/wiki/Indiana_County-Jimmy_Stewart_Airport
IDP,small_airport,Independence Municipal Airport,37.1584014893,-95.7783966064,825.0,US-KS,Independence,KIDP,,http://en.wikipedia.org/wiki/Independence_Municipal_Airport_(Kansas)
XPR,small_airport,Pine Ridge Airport,43.0224990845,-102.51100158700001,3333.0,US-SD,Pine Ridge,KIEN,,https://en.wikipedia.org/wiki/Pine_Ridge_Airport
IFA,small_airport,Iowa Falls Municipal Airport,42.4707984924,-93.2699966431,1137.0,US-IA,Iowa Falls,KIFA,http://www.cityofiowafalls.com/airport.asp,
IFP,small_airport,Laughlin Bullhead International Airport,35.15739822,-114.5599976,701.0,US-AZ,Bullhead City,KIFP,,http://en.wikipedia.org/wiki/Laughlin/Bullhead_International_Airport
IGM,small_airport,Kingman Airport,35.259498596191406,-113.93800354003906,3449.0,US-AZ,Kingman,KIGM,,http://en.wikipedia.org/wiki/Kingman_Airport_(Arizona)
ILE,small_airport,Skylark Field,31.0858001709,-97.6865005493,848.0,US-TX,Killeen,KILE,http://www.skylarkfield.net/,http://en.wikipedia.org/wiki/Skylark_Field
IML,small_airport,Imperial Municipal Airport,40.50930023,-101.6210022,3275.0,US-NE,Imperial,KIML,,
IMM,small_airport,Immokalee Regional Airport,26.43320084,-81.40100098,37.0,US-FL,Immokalee,KIMM,http://www.colliergov.net/index.aspx?page=59,http://en.wikipedia.org/wiki/Immokalee_Regional_Airport
MDN,small_airport,Madison Municipal Airport,38.75889969,-85.46549988,819.0,US-IN,Madison,KIMS,http://www.madisonmunicipalairport.com/,http://en.wikipedia.org/wiki/Madison_Municipal_Airport_(Indiana)
IMT,small_airport,Ford Airport,45.8184013367,-88.11450195309999,1182.0,US-MI,Iron Mountain / Kingsford,KIMT,http://www.fordairport.org/,http://en.wikipedia.org/wiki/Ford_Airport_(Iron_Mountain)
INS,small_airport,Creech Air Force Base,36.5872001648,-115.672996521,3133.0,US-NV,Indian Springs,KINS,http://www.creech.af.mil/,http://en.wikipedia.org/wiki/Creech_Air_Force_Base
IOW,small_airport,Iowa City Municipal Airport,41.639198303200004,-91.5465011597,668.0,US-IA,Iowa City,KIOW,http://www.icgov.org/?id=1501,http://en.wikipedia.org/wiki/Iowa_City_Municipal_Airport
IRS,small_airport,Kirsch Municipal Airport,41.81330109,-85.43900299,924.0,US-MI,Sturgis,KIRS,http://www.sturgismi.gov/airport/,
ISQ,small_airport,Schoolcraft County Airport,45.97460175,-86.17179871,684.0,US-MI,Manistique,KISQ,,
ISW,small_airport,Alexander Field South Wood County Airport,44.360298156700004,-89.83899688720001,1021.0,US-WI,Wisconsin Rapids,KISW,http://www.wirapids.org/department/?fDD=27-0,http://en.wikipedia.org/wiki/South_Wood_County_Airport
IWD,small_airport,Gogebic Iron County Airport,46.52750015260001,-90.13140106200001,1230.0,US-MI,Ironwood,KIWD,,http://en.wikipedia.org/wiki/Gogebic-Iron_County_Airport
ISS,small_airport,Wiscasset Airport,43.9613990784,-69.712600708,70.0,US-ME,Wiscasset,KIWI,http://www.wiscasset.org/departments/airport/,http://en.wikipedia.org/wiki/Wiscasset_Airport
IWS,small_airport,West Houston Airport,29.8181991577,-95.6725997925,111.0,US-TX,Houston,KIWS,http://www.westhoustonairport.com/,http://en.wikipedia.org/wiki/West_Houston_Airport
JCI,small_airport,New Century Aircenter Airport,38.830898284899995,-94.890296936,1087.0,US-KS,Olathe,KIXD,,http://en.wikipedia.org/wiki/New_Century_AirCenter
IYK,small_airport,Inyokern Airport,35.65879822,-117.83000179999999,2457.0,US-CA,Inyokern,KIYK,,http://en.wikipedia.org/wiki/Inyokern_Airport
SQA,small_airport,Santa Ynez Airport,34.60680008,-120.07599640000001,674.0,US-CA,Santa Ynez,KIZA,http://www.santaynezairport.com/info.html,http://en.wikipedia.org/wiki/Santa_Ynez_Airport
FRY,small_airport,Eastern Slopes Regional Airport,43.9911003113,-70.94789886470001,454.0,US-ME,Fryeburg,KIZG,,http://en.wikipedia.org/wiki/Eastern_Slopes_Regional_Airport
JAS,small_airport,Jasper County Airport-Bell Field,30.88570023,-94.03489685,213.0,US-TX,Jasper,KJAS,,
JDN,small_airport,Jordan Airport,47.3288002014,-106.95300293,2662.0,US-MT,Jordan,KJDN,,http://en.wikipedia.org/wiki/Jordan_Airport
JEF,small_airport,Jefferson City Memorial Airport,38.591201782199995,-92.1560974121,549.0,US-MO,Jefferson City,KJEF,https://www.jeffcitymo.org/publicworks/airport/airport.html,http://en.wikipedia.org/wiki/Jefferson_City_Memorial_Airport
GUF,small_airport,Jack Edwards Airport,30.29050064,-87.67179871,17.0,US-AL,Gulf Shores,KJKA,http://www.jka.us.com/,http://en.wikipedia.org/wiki/Jack_Edwards_Airport
JOT,small_airport,Joliet Regional Airport,41.51779938,-88.17549896,582.0,US-IL,Joliet,KJOT,http://www.jolietpark.org/index.php/facilities/joliet-regional-airport,http://en.wikipedia.org/wiki/Joliet_Regional_Airport
USA,small_airport,Concord Regional Airport,35.387798,-80.709099,705.0,US-NC,Concord,KJQF,http://www.concordnc.gov/Departments/Concord-Regional-Airport,http://en.wikipedia.org/wiki/Concord_Regional_Airport
JKV,small_airport,Cherokee County Airport,31.8693008423,-95.2173995972,677.0,US-TX,Jacksonville,KJSO,,http://en.wikipedia.org/wiki/Cherokee_County_Airport_(Texas)
JVL,small_airport,Southern Wisconsin Regional Airport,42.620300293,-89.0416030884,808.0,US-WI,Janesville,KJVL,http://www.jvlairport.com/,http://en.wikipedia.org/wiki/Southern_Wisconsin_Regional_Airport
KIC,small_airport,Mesa Del Rey Airport,36.2280006409,-121.122001648,370.0,US-CA,King City,KKIC,http://www.kingcity.com/index.php?option=com_content&task=view&id=39&Itemid=112,http://en.wikipedia.org/wiki/Mesa_Del_Rey_Airport
KKU,small_airport,Ekuk Airport,58.8111991882,-158.559005737,30.0,US-AK,Ekuk,KKU,,
DTH,small_airport,Furnace Creek Airport,36.463799,-116.880997,-210.0,US-CA,Death Valley National Park,,,http://en.wikipedia.org/wiki/Furnace_Creek_Airport
BXS,small_airport,Borrego Valley Airport,33.2589988708,-116.320999146,520.0,US-CA,Borrego Springs,L08,http://www.borregospringschamber.com/airport.html,http://en.wikipedia.org/wiki/Borrego_Valley_Airport
RBF,small_airport,Big Bear City Airport,34.2638015747,-116.85600280799999,6752.0,US-CA,Big Bear,L35,http://www.bigbearcityairport.com/,http://en.wikipedia.org/wiki/Big_Bear_City_Airport
TRH,small_airport,Trona Airport,35.8125,-117.327003479,1716.0,US-CA,Trona,L72,http://www.trona-ca.com/trona-airport/,http://en.wikipedia.org/wiki/Trona_Airport
LAA,small_airport,Lamar Municipal Airport,38.069698333699996,-102.68800354,3706.0,US-CO,Lamar,KLAA,http://www.ci.lamar.co.us/index.asp?Type=B_BASIC&SEC={C91FC3CC-5A83-4F9C-9AF7-A96F374C2EE5}&DE=,http://en.wikipedia.org/wiki/Lamar_Municipal_Airport
LAM,small_airport,Los Alamos Airport,35.8797988892,-106.26899719200001,7171.0,US-NM,Los Alamos,KLAM,,http://en.wikipedia.org/wiki/Los_Alamos_County_Airport
LCI,small_airport,Laconia Municipal Airport,43.572700500500005,-71.4188995361,545.0,US-NH,Laconia,KLCI,http://www.laconiaairport.com/laa/,http://en.wikipedia.org/wiki/Laconia_Municipal_Airport
LCQ,small_airport,Lake City Gateway Airport,30.181999206500002,-82.57689666750002,201.0,US-FL,Lake City,KLCQ,http://www.lcfla.com/index.php/departments/gateway-airport-klcq,http://en.wikipedia.org/wiki/Lake_City_Gateway_Airport
LDJ,small_airport,Linden Airport,40.617401123,-74.2445983887,23.0,US-NJ,Linden,KLDJ,http://www.lindenairportnj.com/,http://en.wikipedia.org/wiki/Linden_Airport
LDM,small_airport,Mason County Airport,43.96250153,-86.40789795,646.0,US-MI,Ludington,KLDM,,http://en.wikipedia.org/wiki/Mason_County_Airport_(Michigan)
LEM,small_airport,Lemmon Municipal Airport,45.9187011719,-102.10600280799999,2571.0,US-SD,Lemmon,KLEM,http://www.lemmonsd.com/ray-kolb-field-airport.php,
LEW,small_airport,Auburn Lewiston Municipal Airport,44.048500061000006,-70.2835006714,288.0,US-ME,Auburn/Lewiston,KLEW,http://www.flytome.com/,http://en.wikipedia.org/wiki/Auburn/Lewiston_Municipal_Airport
LGC,small_airport,Lagrange Callaway Airport,33.0088996887,-85.0726013184,693.0,US-GA,Lagrange,KLGC,http://lagrangeairport.com/,http://en.wikipedia.org/wiki/LaGrange_Callaway_Airport
LGD,small_airport,La Grande/Union County Airport,45.29019927979999,-118.00700378399999,2717.0,US-OR,La Grande,KLGD,http://union-county.org/public-works/airport/,http://en.wikipedia.org/wiki/La_Grande/Union_County_Airport
LGF,small_airport,Laguna Army Airfield,32.86000061,-114.39700320000001,433.0,US-AZ,Yuma Proving Ground(Yuma),KLGF,http://www.yuma.army.mil/,http://en.wikipedia.org/wiki/Laguna_Army_Airfield
LHV,small_airport,William T. Piper Memorial Airport,41.13560104,-77.42230225,556.0,US-PA,Lock Haven,KLHV,http://www.piperairport.com/default.htm,http://en.wikipedia.org/wiki/William_T._Piper_Memorial_Airport
LIY,small_airport,Wright AAF (Fort Stewart)/Midcoast Regional Airport,31.889098999999998,-81.562303,45.0,US-GA,Fort Stewart(Hinesville),KLHW,,http://en.wikipedia.org/wiki/Wright_Army_Airfield
LFN,small_airport,Triangle North Executive Airport,36.0233,-78.330299,369.0,US-NC,Louisburg,KLHZ,http://www.franklincountync.us/services/airport,https://en.wikipedia.org/wiki/Triangle_North_Executive_Airport
LIC,small_airport,Limon Municipal Airport,39.274799346900004,-103.666000366,5374.0,US-CO,Limon,KLIC,,
LKP,small_airport,Lake Placid Airport,44.264499664300004,-73.96189880370002,1747.0,US-NY,Lake Placid,KLKP,,http://en.wikipedia.org/wiki/Lake_Placid_Airport
LOW,small_airport,Louisa County Airport/Freeman Field,38.00979996,-77.9701004,493.0,US-VA,Louisa,KLKU,http://www.yeslouisa.com/business-in-louisa/transportation-infrastructure/,http://en.wikipedia.org/wiki/Louisa_County_Airport
LKV,small_airport,Lake County Airport,42.1610984802,-120.399002075,4733.0,US-OR,Lakeview,KLKV,http://www.lakecountyor.org/government/airport/index.php,http://en.wikipedia.org/wiki/Lake_County_Airport_(Oregon)
CHL,small_airport,Challis Airport,44.522999,-114.218002,5072.0,US-ID,Challis,KLLJ,http://itd.idaho.gov/aero/Facility%20Directory/launchAirportData.asp?value=LLJ,http://en.wikipedia.org/wiki/Challis_Airport
LMS,small_airport,Louisville Winston County Airport,33.1461982727,-89.0625,575.0,US-MS,Louisville,KLMS,,
LNA,small_airport,Palm Beach County Park Airport,26.59300041,-80.08509827,14.0,US-FL,West Palm Beach,KLNA,,http://en.wikipedia.org/wiki/Palm_Beach_County_Park_Airport
LNN,small_airport,Willoughby Lost Nation Municipal Airport,41.6839981079,-81.3897018433,626.0,US-OH,Willoughby,KLNN,,http://en.wikipedia.org/wiki/Willoughby_Lost_Nation_Municipal_Airport
LNP,small_airport,Lonesome Pine Airport,36.9874992371,-82.5299987793,2684.0,US-VA,Wise,KLNP,,http://en.wikipedia.org/wiki/Lonesome_Pine_Airport
LNR,small_airport,Tri-County Regional Airport,43.2117004395,-90.18160247799999,717.0,US-WI,Lone Rock,KLNR,,
BBX,small_airport,Wings Field,40.1375007629,-75.26509857180001,302.0,US-PA,Philadelphia,KLOM,,http://en.wikipedia.org/wiki/Wings_Field
LOT,small_airport,Lewis University Airport,41.6072998,-88.09619904,679.0,US-IL,Chicago/Romeoville,KLOT,http://www.flylot.com/,http://en.wikipedia.org/wiki/Lewis_University_Airport
LPC,small_airport,Lompoc Airport,34.665599823,-120.46800231899999,88.0,US-CA,Lompoc,KLPC,http://www.cityoflompoc.com/transit/airport/,http://en.wikipedia.org/wiki/Lompoc_Airport
LQK,small_airport,Pickens County Airport,34.8100013733,-82.70290374759999,1013.0,US-SC,Pickens,KLQK,http://www.co.pickens.sc.us/Pickens%20County%20Airport/default.aspx,http://en.wikipedia.org/wiki/Pickens_County_Airport_(South_Carolina)
LRJ,small_airport,Le Mars Municipal Airport,42.77799988,-96.1937027,1197.0,US-IA,Le Mars,KLRJ,http://www.lemarsiowa.com/citygov/airport.htm,http://en.wikipedia.org/wiki/Le_Mars_Municipal_Airport
LSB,small_airport,Lordsburg Municipal Airport,32.3334999084,-108.69200134299999,4289.0,US-NM,Lordsburg,KLSB,,
LSK,small_airport,Lusk Municipal Airport,42.753799438499996,-104.404998779,4964.0,US-WY,Lusk,KLSK,http://www.townoflusk.org/index.asp?SEC=8DC74273-DA87-42DE-9B52-6431163B38FE&Type=B_BASIC,
LSN,small_airport,Los Banos Municipal Airport,37.06290054,-120.8690033,121.0,US-CA,Los Banos,KLSN,,http://en.wikipedia.org/wiki/Los_Banos_Municipal_Airport
LUL,small_airport,Hesler Noble Field,31.6725997925,-89.172203064,238.0,US-MS,Laurel,KLUL,,http://en.wikipedia.org/wiki/Hesler-Noble_Field
LVK,small_airport,Livermore Municipal Airport,37.6934013367,-121.819999695,400.0,US-CA,Livermore,KLVK,http://www.cityoflivermore.net/citygov/pw/public_works_divisions/airport/default.asp,http://en.wikipedia.org/wiki/Livermore_Municipal_Airport
LVL,small_airport,Lawrenceville Brunswick Municipal Airport,36.7728004456,-77.79429626459998,329.0,US-VA,Lawrenceville,KLVL,,
LWC,small_airport,Lawrence Municipal Airport,39.01119995,-95.21659851,833.0,US-KS,Lawrence,KLWC,http://www.lawrenceks.org/airport,http://en.wikipedia.org/wiki/Lawrence_Municipal_Airport_(Kansas)
LWL,small_airport,Wells Municipal Airport/Harriet Field,41.117099761999995,-114.92199707,5772.0,US-NV,Wells,KLWL,http://www.cityofwellsnv.com/airport.shtml,http://en.wikipedia.org/wiki/Wells_Municipal_Airport_(Nevada)
LWV,small_airport,Lawrenceville Vincennes International Airport,38.7643013,-87.6054992676,430.0,US-IL,Lawrenceville,KLWV,http://www.midamericanaircenter.com/,http://en.wikipedia.org/wiki/Lawrenceville%E2%80%93Vincennes_International_Airport
LXN,small_airport,Jim Kelly Field,40.7910003662,-99.7772979736,2413.0,US-NE,Lexington,KLXN,http://www.cityoflex.com/index.aspx?page=46,http://en.wikipedia.org/wiki/Jim_Kelly_Field
LXV,small_airport,Lake County Airport,39.22029876710001,-106.31700134299999,9927.0,US-CO,Leadville,KLXV,http://www.lxvairport.com/home.html,http://en.wikipedia.org/wiki/Lake_County_Airport_(Colorado)
LYO,small_airport,Lyons-Rice County Municipal Airport,38.34280014,-98.22689819,1691.0,US-KS,Lyons,KLYO,http://www.lyonsks.org/index.aspx?nid=915,
LZU,small_airport,Gwinnett County Briscoe Field,33.97809982,-83.96240234,1061.0,US-GA,Lawrenceville,KLZU,http://www.lzuairport.com/,http://en.wikipedia.org/wiki/Gwinnett_County_Airport
PCU,small_airport,Poplarville Pearl River County Airport,30.785999298095998,-89.504501342773,320.0,US-MS,Poplarville,M13,,
MLK,small_airport,Malta Airport,48.366901397700005,-107.918998718,2254.0,US-MT,Malta,M75,,http://en.wikipedia.org/wiki/Malta_Airport_(Montana)
MAC,small_airport,Macon Downtown Airport,32.82210159,-83.56199646,437.0,US-GA,Macon,KMAC,,http://en.wikipedia.org/wiki/Macon_Downtown_Airport
MAE,small_airport,Madera Municipal Airport,36.9886016846,-120.11199951200001,255.0,US-CA,Madera,KMAE,,http://en.wikipedia.org/wiki/Madera_Municipal_Airport
MAN,small_airport,(Duplicate),43.581333,-116.52305600000001,2537.0,US-ID,Nampa,KMAN,http://www.cityofnampa.us/index.aspx?NID=116,https://en.wikipedia.org/wiki/Nampa_Municipal_Airport
MAW,small_airport,Malden Regional Airport,36.60060120000001,-89.99220276,294.0,US-MO,Malden,KMAW,http://www.maldenmo.com/airport_intro.html,http://en.wikipedia.org/wiki/Malden_Regional_Airport
MBL,small_airport,Manistee Co Blacker Airport,44.2723999,-86.24690247,621.0,US-MI,Manistee,KMBL,,http://en.wikipedia.org/wiki/Manistee_County-Blacker_Airport
DXE,small_airport,Bruce Campbell Field,32.438702,-90.103104,326.0,US-MS,Madison,KMBO,http://www.madisonthecity.com/airport,https://en.wikipedia.org/wiki/Bruce_Campbell_Field
MBY,small_airport,Omar N Bradley Airport,39.4639015198,-92.42700195309999,867.0,US-MO,Moberly,KMBY,http://www.moberlymo.org/Government/airport.html,
MCD,small_airport,Mackinac Island Airport,45.86489868,-84.63729858,739.0,US-MI,Mackinac Island,KMCD,,http://en.wikipedia.org/wiki/Mackinac_Island_Airport
MDD,small_airport,Midland Airpark,32.036499023400005,-102.100997925,2803.0,US-TX,Midland,KMDD,,http://en.wikipedia.org/wiki/Midland_Airpark
XMD,small_airport,Madison Municipal Airport,44.01599884,-97.08589935,1718.0,US-SD,Madison,KMDS,,http://en.wikipedia.org/wiki/Madison_Municipal_Airport_(South_Dakota)
MDF,small_airport,Taylor County Airport,45.10100174,-90.30329895,1478.0,US-WI,Medford,KMDZ,http://www.co.taylor.wi.us/departments/a-e/airport/,http://en.wikipedia.org/wiki/Taylor_County_Airport_(Wisconsin)
MEV,small_airport,Minden-Tahoe Airport,39.00030136,-119.7509995,4722.0,US-NV,Minden,KMEV,http://mindentahoeairport.com/,http://en.wikipedia.org/wiki/Minden%E2%80%93Tahoe_Airport
MFI,small_airport,Marshfield Municipal Airport,44.6369018555,-90.1893005371,1277.0,US-WI,Marshfield,KMFI,,"http://en.wikipedia.org/wiki/Marshfield,_Wisconsin"
MFV,small_airport,Accomack County Airport,37.646900177,-75.761100769,47.0,US-VA,Melfa,KMFV,http://www.co.accomack.va.us/departments/airport,http://en.wikipedia.org/wiki/Accomack_County_Airport
MGC,small_airport,Michigan City Municipal Airport,41.703300476100004,-86.8211975098,655.0,US-IN,Michigan City,KMGC,http://www.emichigancity.com/cityhall/departments/airport/index.htm,http://en.wikipedia.org/wiki/Michigan_City_Municipal_Airport
MGJ,small_airport,Orange County Airport,41.50999832,-74.26460266,364.0,US-NY,Montgomery,KMGJ,http://www.orangecountygov.com/content/124/1354/default.aspx,http://en.wikipedia.org/wiki/Orange_County_Airport_(New_York)
MGR,small_airport,Moultrie Municipal Airport,31.084899902300002,-83.8032989502,294.0,US-GA,Moultrie,KMGR,http://www.moultriega.com/?page_id=38,http://en.wikipedia.org/wiki/Moultrie_Municipal_Airport
MGY,small_airport,Dayton-Wright Brothers Airport,39.5890007019,-84.224899292,957.0,US-OH,Dayton,KMGY,http://www.flydayton.com/?page=wright-brothers-airport-2,http://en.wikipedia.org/wiki/Dayton%E2%80%93Wright_Brothers_Airport
MHE,small_airport,Mitchell Municipal Airport,43.7747993469,-98.0385971069,1304.0,US-SD,Mitchell,KMHE,http://www.cityofmitchell.org/index.asp?SEC=0E5EB6F8-1E38-48AD-8D27-2CDD01C4E949&Type=B_BASIC,http://en.wikipedia.org/wiki/Mitchell_Municipal_Airport
MHL,small_airport,Marshall Memorial Municipal Airport,39.0957984924,-93.2029037476,779.0,US-MO,Marshall,KMHL,http://www.marshall-mo.com/cm_airport.html,http://en.wikipedia.org/wiki/Marshall_Memorial_Municipal_Airport
MHV,small_airport,Mojave Airport,35.05939865,-118.15200039999999,2801.0,US-CA,Mojave,KMHV,,http://en.wikipedia.org/wiki/Mojave_Air_and_Space_Port
MJX,small_airport,Ocean County Airport,39.92750168,-74.29239655,82.0,US-NJ,Toms River,KMJX,http://www.planning.co.ocean.nj.us/rjmiller/index.htm,http://en.wikipedia.org/wiki/Robert_J._Miller_Air_Park
MKG,small_airport,Muskegon County Airport,43.16949844,-86.23819733,629.0,US-MI,Muskegon,KMKG,,http://en.wikipedia.org/wiki/Muskegon_County_Airport
MRK,small_airport,Marco Island Airport,25.9950008392,-81.6725006104,5.0,US-FL,Marco Island,KMKY,http://www.colliergov.net/index.aspx?page=21,http://en.wikipedia.org/wiki/Marco_Island_Airport
MMH,small_airport,Mammoth Yosemite Airport,37.62409973,-118.83799740000002,7135.0,US-CA,Mammoth Lakes,KMMH,,
MMI,small_airport,McMinn County Airport,35.39730072,-84.56259918,875.0,US-TN,Athens,KMMI,http://www.mcminncountytn.gov/airport/airport.html,http://en.wikipedia.org/wiki/McMinn_County_Airport
MML,small_airport,Southwest Minnesota Regional Airport - Marshall/Ryan Field,44.45050049,-95.82189941,1183.0,US-MN,Marshall,KMML,http://marshallmn.com/main/index.php/public-works/airport,http://en.wikipedia.org/wiki/Southwest_Minnesota_Regional_Airport
MMS,small_airport,Selfs Airport,34.231498718299996,-90.2895965576,162.0,US-MS,Marks,KMMS,,
MNN,small_airport,Marion Municipal Airport,40.6161994934,-83.06349945070002,993.0,US-OH,Marion,KMNN,http://www.marionairport.com/,http://en.wikipedia.org/wiki/Marion_Municipal_Airport_(Ohio)
RMY,small_airport,Mariposa Yosemite Airport,37.510898590100005,-120.040000916,2254.0,US-CA,Mariposa,KMPI,,http://en.wikipedia.org/wiki/Mariposa-Yosemite_Airport
MPZ,small_airport,Mount Pleasant Municipal Airport,40.94660187,-91.51110077,730.0,US-IA,Mount Pleasant,KMPZ,https://www.cityofmountpleasantiowa.org/citysite/citydepartments/publicworks_airport.aspx,http://en.wikipedia.org/wiki/Mount_Pleasant_Municipal_Airport_(Iowa)
MQB,small_airport,Macomb Municipal Airport,40.520099639899996,-90.6523971558,707.0,US-IL,Macomb,KMQB,http://www.macombairport.com/,http://en.wikipedia.org/wiki/Macomb_Municipal_Airport
MEO,small_airport,Dare County Regional Airport,35.91899872,-75.69550323,13.0,US-NC,Manteo,KMQI,http://www.darenc.com/Airport/,http://en.wikipedia.org/wiki/Dare_County_Regional_Airport
CTH,small_airport,Chester County G O Carlson Airport,39.97900009,-75.86550140000001,660.0,US-PA,Coatesville,KMQS,http://www.chestercountyairport.com/,http://en.wikipedia.org/wiki/Chester_County_G._O._Carlson_Airport
MRC,small_airport,Maury County Airport,35.5541000366,-87.17890167239997,681.0,US-TN,Columbia/Mount Pleasant,KMRC,http://www.maurywebpages.com/airport.htm,http://en.wikipedia.org/wiki/Maury_County_Airport
MRF,small_airport,Marfa Municipal Airport,30.371098999999997,-104.017997,4849.0,US-TX,Marfa,KMRF,,https://en.wikipedia.org/wiki/Marfa_Municipal_Airport
MVC,small_airport,Monroe County Airport,31.4580001831,-87.3509979248,419.0,US-AL,Monroeville,KMVC,,http://en.wikipedia.org/wiki/Monroe_County_Airport_(Alabama)
MVL,small_airport,Morrisville Stowe State Airport,44.53459930419999,-72.6139984131,732.0,US-VT,Morrisville,KMVL,,http://en.wikipedia.org/wiki/Morrisville-Stowe_State_Airport
MVY,small_airport,Martha's Vineyard Airport,41.393100738499996,-70.6143035889,67.0,US-MA,Martha's Vineyard,KMVY,,http://en.wikipedia.org/wiki/Martha's_Vineyard_Airport
MWA,small_airport,Williamson County Regional Airport,37.75500107,-89.01110077,472.0,US-IL,Marion,KMWA,,http://en.wikipedia.org/wiki/Williamson_County_Regional_Airport
MWL,small_airport,Mineral Wells Airport,32.7816009521,-98.0602035522,974.0,US-TX,Mineral Wells,KMWL,http://www.mineralwellsairport.com/,http://en.wikipedia.org/wiki/Mineral_Wells_Airport
MYF,small_airport,Montgomery Field,32.815700531,-117.13999939,427.0,US-CA,San Diego,KMYF,http://www.sandiego.gov/airports/montgomery/index.shtml,http://en.wikipedia.org/wiki/Montgomery_Field
MZJ,small_airport,Pinal Airpark,32.5106010437,-111.32800293,1893.0,US-AZ,Marana,KMZJ,,http://en.wikipedia.org/wiki/Pinal_Airpark
MZZ,small_airport,Marion Municipal Airport,40.489898681599996,-85.6797027588,859.0,US-IN,Marion,KMZZ,http://kmzzairport.com/,http://en.wikipedia.org/wiki/Marion_Municipal_Airport_(Indiana)
CTX,small_airport,Cortland County Chase Field,42.59260178,-76.21489716,1198.0,US-NY,Cortland,KN03,,https://en.wikipedia.org/wiki/Cortland_County_Airport
SXY,small_airport,Sidney Municipal Airport,42.302600860596,-75.41600036621101,1027.0,US-NY,Sidney,N23,,https://en.wikipedia.org/wiki/Sidney_Municipal_Airport_(New_York)
ESP,small_airport,Stroudsburg Pocono Airport,41.035800933800004,-75.1605987549,480.0,US-PA,East Stroudsburg,KN53,,http://en.wikipedia.org/wiki/Stroudsburg-Pocono_Airport
NHX,small_airport,Naval Outlying Field Barin,30.389099121100006,-87.63529968259998,54.0,US-AL,Foley,KNBJ,,http://en.wikipedia.org/wiki/Naval_Outlying_Field_Barin
DGN,small_airport,Dahlgren Naval Surface Warfare Center Airport,38.33250046,-77.03720093,18.0,US-VA,Dahlgren,KNDY,,http://en.wikipedia.org/wiki/Naval_Surface_Warfare_Center_Dahlgren_Division
NEN,small_airport,Whitehouse Naval Outlying Field,30.353900909424,-81.87190246582,99.0,US-FL,Jacksonville,KNEN,,
NRS,small_airport,Naval Outlying Field Imperial Beach (Ream Field),32.56669998,-117.11699679999998,24.0,US-CA,Imperial Beach,KNRS,https://www.basedirectory.com/nolf-imperial-beach-directory,https://en.wikipedia.org/wiki/Main_Page
NVN,small_airport,Nervino Airport,39.8185005188,-120.35299682600001,4900.0,US-CA,Beckwourth,KO02,,http://en.wikipedia.org/wiki/Nervino_Airport
COA,small_airport,Columbia Airport,38.0303993225,-120.415000916,2118.0,US-CA,Columbia,O22,http://www.tuolumnecounty.ca.gov/index.aspx?NID=372,http://en.wikipedia.org/wiki/Columbia_Airport_(California)
ODC,small_airport,Oakdale Airport,37.75630188,-120.8000031,237.0,US-CA,Oakdale,O27,http://www.oakdalegov.com/#!oakdale-municipal-airport/c1tnd,http://en.wikipedia.org/wiki/Oakdale_Airport
EYR,small_airport,Yerington Municipal Airport,39.0041007996,-119.157997131,4378.0,US-NV,Yerington,O43,http://www.yerington.net/index.aspx?nid=86,http://en.wikipedia.org/wiki/Yerington_Municipal_Airport
OAR,small_airport,Marina Municipal Airport,36.68190002,-121.762001,137.0,US-CA,Marina,KOAR,,http://en.wikipedia.org/wiki/Marina_Municipal_Airport
OBE,small_airport,Okeechobee County Airport,27.2628002167,-80.8498001099,34.0,US-FL,Okeechobee,KOBE,,http://en.wikipedia.org/wiki/Okeechobee_County_Airport
OCF,small_airport,Ocala International Airport - Jim Taylor Field,29.17259979,-82.22419739,90.0,US-FL,Ocala,KOCF,http://www.ocalafl.org/airport/,https://en.wikipedia.org/wiki/Ocala_International_Airport
OCH,small_airport,A L Mangham Jr. Regional Airport,31.57799911,-94.70950317,355.0,US-TX,Nacogdoches,KOCH,http://www.ci.nacogdoches.tx.us/index.aspx?nid=634,
OCW,small_airport,Warren Field,35.570499420166,-77.049797058105,38.0,US-NC,Washington,KOCW,http://www.washingtonnc.gov/airport,
OEA,small_airport,O'Neal Airport,38.6913986206,-87.5522003174,414.0,US-IN,Vincennes,KOEA,,https://en.wikipedia.org/wiki/O%27Neal_Airport
OEO,small_airport,L O Simenstad Municipal Airport,45.310001373290994,-92.69190216064501,903.0,US-WI,Osceola,KOEO,http://www.vil.osceola.wi.us/index.asp?Type=B_BASIC&SEC={9098926A-C937-4069-95AA-D331D2F38500},https://en.wikipedia.org/wiki/L.O._Simenstad_Municipal_Airport
OGA,small_airport,Searle Field,41.11949921,-101.76999659999998,3279.0,US-NE,Ogallala,KOGA,http://www.ogallala-ne.gov/city_services/airport/index.php,
OGS,small_airport,Ogdensburg International Airport,44.681900024399994,-75.46549987790002,297.0,US-NY,Ogdensburg,KOGS,,
OIC,small_airport,Lt Warren Eaton Airport,42.566600799561,-75.524101257324,1025.0,US-NY,Norwich,KOIC,http://www.co.chenango.ny.us/airport/,https://en.wikipedia.org/wiki/Lt._Warren_Eaton_Airport
OJC,small_airport,Johnson County Executive Airport,38.84759903,-94.73760223,1096.0,US-KS,Olathe,KOJC,http://www.jocogov.org/dept/airport-commission/executive-airport,http://en.wikipedia.org/wiki/Johnson_County_Executive_Airport
OCN,small_airport,Oceanside Municipal Airport,33.217300415039,-117.35399627686,28.0,US-CA,Oceanside,KOKB,http://www.oceansidemunicipalairport.com/,http://en.wikipedia.org/wiki/Oceanside_Municipal_Airport
ODW,small_airport,AJ Eisenberg Airport,48.251499176,-122.67400360100001,193.0,US-WA,Oak Harbor,KOKH,,http://en.wikipedia.org/wiki/A.J._Eisenberg_Airport
OKK,small_airport,Kokomo Municipal Airport,40.528198242188,-86.05899810791,830.0,US-IN,Kokomo,KOKK,http://www.cityofkokomo.org/departments/airport/index.php,https://en.wikipedia.org/wiki/Kokomo_Municipal_Airport
OKM,small_airport,Okmulgee Regional Airport,35.668098449706996,-95.948699951172,720.0,US-OK,Okmulgee,KOKM,http://okmulgeeairport.org/,https://en.wikipedia.org/wiki/Okmulgee_Regional_Airport
OKS,small_airport,Garden County Airport,41.401000976562,-102.35500335693001,3394.0,US-NE,Oshkosh,KOKS,http://www.ci.oshkosh.ne.us/airport.asp,
WGO,small_airport,Winchester Regional Airport,39.14350128,-78.14440155,726.0,US-VA,Winchester,KOKV,http://websmart66.net/cgi-bin/p/w66p-home.cgi?d=winchester-aviation-services,http://en.wikipedia.org/wiki/Winchester_Regional_Airport
OLD,small_airport,"Dewitt Field,Old Town Municipal Airport",44.95280075,-68.67430115,126.0,US-ME,Old Town,KOLD,,
OLV,small_airport,Olive Branch Airport,34.9786987305,-89.78690338130001,402.0,US-MS,Olive Branch,KOLV,,http://en.wikipedia.org/wiki/Olive_Branch_Airport
OMK,small_airport,Omak Airport,48.4644012451,-119.517997742,1305.0,US-WA,Omak,KOMK,http://www.omakcity.com/airport.html,http://en.wikipedia.org/wiki/Omak_Airport
ONO,small_airport,Ontario Municipal Airport,44.020500183105,-117.01399993896001,2193.0,US-OR,Ontario,KONO,,https://en.wikipedia.org/wiki/Ontario_Municipal_Airport
ESD,small_airport,Orcas Island Airport,48.708198547399995,-122.91000366200001,31.0,US-WA,Eastsound,KORS,http://www.portoforcas.com/,http://en.wikipedia.org/wiki/Orcas_Island_Airport
OUN,small_airport,University of Oklahoma Westheimer Airport,35.2456,-97.472099,1182.0,US-OK,Norman,KOUN,http://www.ou.edu/airport.html,https://en.wikipedia.org/wiki/University_of_Oklahoma_Westheimer_Airport
OVE,small_airport,Oroville Municipal Airport,39.487800598145,-121.62200164795,192.0,US-CA,Oroville,KOVE,http://www.cityoforoville.org/index.aspx?page=210,https://en.wikipedia.org/wiki/Oroville_Municipal_Airport
OWA,small_airport,Owatonna Degner Regional Airport,44.12340164,-93.26059723,1145.0,US-MN,Owatonna,KOWA,http://ci.owatonna.mn.us/airport,
OWK,small_airport,Central Maine Airport of Norridgewock,44.71549988,-69.86650085,270.0,US-ME,Norridgewock,KOWK,http://www.townofnorridgewock.com/airport.html,https://en.wikipedia.org/wiki/Central_Maine_Airport_of_Norridgewock
OCE,small_airport,Ocean City Municipal Airport,38.310398101806996,-75.124000549316,11.0,US-MD,Ocean City,KOXB,http://oceancitymd.gov/oc/departments/public-works/airport/,http://en.wikipedia.org/wiki/Ocean_City_Municipal_Airport_(Maryland)
OXC,small_airport,Waterbury Oxford Airport,41.47859954834,-73.13520050048801,726.0,US-CT,Oxford,KOXC,http://www.ctairports.org/GeneralAviationAirports/WaterburyOxford/AbouttheAirport.aspx,https://en.wikipedia.org/wiki/Waterbury%E2%80%93Oxford_Airport
OXD,small_airport,Miami University Airport,39.50230026,-84.78440094,1041.0,US-OH,Oxford,KOXD,http://www.units.miamioh.edu/businessservices/Airport,https://en.wikipedia.org/wiki/Miami_University_Airport
STQ,small_airport,St Marys Municipal Airport,41.412498474121,-78.502601623535,1934.0,US-PA,St Marys,KOYM,http://stmarysmunicipalairport.com/,https://en.wikipedia.org/wiki/St._Marys_Municipal_Airport
OZA,small_airport,Ozona Municipal Airport,30.735300064087,-101.20300292969,2381.0,US-TX,Ozona,KOZA,http://www.ozona.com/articles/view/ozona-municipal-airport-52b1db2c-3ff8-4122-8b3f-1a349bf0d2c8,
BSQ,small_airport,Bisbee Municipal Airport,31.3640003204,-109.883003235,4780.0,US-AZ,Bisbee,P04,http://www.discoverbisbee.com/about_air.htm,http://en.wikipedia.org/wiki/Bisbee_Municipal_Airport
PXL,small_airport,Polacca Airport,35.7916984558,-110.422996521,5573.0,US-AZ,Polacca,P10,,http://en.wikipedia.org/wiki/Polacca_Airport
GLB,small_airport,San Carlos Apache Airport,33.353099823,-110.666999817,3261.0,US-AZ,Globe,P13,,http://en.wikipedia.org/wiki/San_Carlos_Apache_Airport
HBK,small_airport,Holbrook Municipal Airport,34.940700531,-110.13800048799999,5262.0,US-AZ,Holbrook,P14,,http://en.wikipedia.org/wiki/Holbrook_Municipal_Airport
CWX,small_airport,Cochise County Airport,32.24539948,-109.8949966,4187.0,US-AZ,Willcox,P33,,http://en.wikipedia.org/wiki/Cochise_County_Airport
PJB,small_airport,Payson Airport,34.256801605225,-111.33899688721,5157.0,US-AZ,Payson,KPAN,http://www.paysonaz.gov/Departments/Airport/AirportHome.html,http://en.wikipedia.org/wiki/Payson_Airport
PAO,small_airport,Palo Alto Airport of Santa Clara County,37.461101532,-122.114997864,4.0,US-CA,Palo Alto,KPAO,http://www.countyairports.org/pao.html,http://en.wikipedia.org/wiki/Palo_Alto_Airport_of_Santa_Clara_County
PVL,small_airport,Pike County-Hatcher Field,37.561798100000004,-82.56639862,1473.0,US-KY,Pikeville,KPBX,,https://en.wikipedia.org/wiki/Pike_County_Airport_(Kentucky)
PCD,small_airport,Prairie Du Chien Municipal Airport,43.019298553466996,-91.12370300293001,661.0,US-WI,Prairie Du Chien,KPDC,,https://en.wikipedia.org/wiki/Prairie_du_Chien_Municipal_Airport
PEQ,small_airport,Pecos Municipal Airport,31.382400512694996,-103.51100158691,2613.0,US-TX,Pecos,KPEQ,http://www.townofpecoscitytx.com/82/Municipal-Airport,https://en.wikipedia.org/wiki/Pecos_Municipal_Airport
PGD,small_airport,Charlotte County Airport,26.92020035,-81.99050140000001,26.0,US-FL,Punta Gorda,KPGD,http://www.flypgd.com/,https://en.wikipedia.org/wiki/Punta_Gorda_Airport_(Florida)
PGR,small_airport,Kirk Field,36.06290054,-90.50779724,290.0,US-AR,Paragould,KPGR,http://cityofparagould.com/index.php?pageID=11287_2,https://en.wikipedia.org/wiki/Kirk_Field
PHD,small_airport,Harry Clever Field,40.470901489258,-81.419700622559,894.0,US-OH,New Philadelphia,KPHD,,https://en.wikipedia.org/wiki/Harry_Clever_Field
ADR,small_airport,Robert F Swinnie Airport,33.451698303200004,-79.5261993408,26.0,US-SC,Andrews,KPHH,,http://en.wikipedia.org/wiki/Robert_F._Swinnie_Airport
PHK,small_airport,Palm Beach County Glades Airport,26.78499985,-80.69339752,16.0,US-FL,Pahokee,KPHK,http://www.pbia.org/about/general-aviation/glades-airport/,https://en.wikipedia.org/wiki/Palm_Beach_County_Glades_Airport
PHN,small_airport,St Clair County International Airport,42.91099929999999,-82.52890015,650.0,US-MI,Port Huron,KPHN,,https://en.wikipedia.org/wiki/St._Clair_County_International_Airport
PHP,small_airport,Philip Airport,44.048599243164,-101.59899902344,2207.0,US-SD,Philip,KPHP,http://www.philipsouthdakota.com/philip_airport_19.html,
PHT,small_airport,Henry County Airport,36.3381996155,-88.38289642330002,580.0,US-TN,Paris,KPHT,http://www.paristnairport.com/default.htm,http://en.wikipedia.org/wiki/Henry_County_Airport_(Tennessee)
PIM,small_airport,Harris County Airport,32.8406982422,-84.8824005127,902.0,US-GA,Pine Mountain,KPIM,http://harriscountyga.gov/departments/airport/,https://en.wikipedia.org/wiki/Harris_County_Airport
PKD,small_airport,Park Rapids Municipal Konshok Field,46.9006,-95.073095,1445.0,US-MN,Park Rapids,KPKD,http://ci.park-rapids.mn.us/i_want_to/airport/index.php,
PKF,small_airport,Park Falls Municipal Airport,45.955001831055,-90.42440032959,1500.0,US-WI,Park Falls,KPKF,http://www.cityofparkfalls.com/community-resources/municipal-airport/,https://en.wikipedia.org/wiki/Park_Falls_Municipal_Airport
PLK,small_airport,M. Graham Clark Downtown Airport,36.62590027,-93.22889709,940.0,US-MO,Branson / Hollister,KPLK,http://flyplk.com/,https://en.wikipedia.org/wiki/M._Graham_Clark_Downtown_Airport
PLR,small_airport,St Clair County Airport,33.558799743652,-86.24909973144501,485.0,US-AL,Pell City,KPLR,http://www.plrairport.com/,https://en.wikipedia.org/wiki/St._Clair_County_Airport
PMB,small_airport,Pembina Municipal Airport,48.94250106810001,-97.2407989502,795.0,US-ND,Pembina,KPMB,,http://en.wikipedia.org/wiki/Pembina_Municipal_Airport
PMH,small_airport,Greater Portsmouth Regional Airport,38.8404998779,-82.84729766850002,663.0,US-OH,Portsmouth,KPMH,http://www.sciotocountyohio.com/airports.html,http://en.wikipedia.org/wiki/Greater_Portsmouth_Regional_Airport
PPM,small_airport,Pompano Beach Airpark,26.247100830078,-80.11109924316399,19.0,US-FL,Pompano Beach,KPMP,http://pompanobeachfl.gov/index.php/pages/pw_airpark/airpark,http://en.wikipedia.org/wiki/Pompano_Beach_Airpark
PNN,small_airport,Princeton Municipal Airport,45.200698852539,-67.56439971923801,266.0,US-ME,Princeton,KPNN,,https://en.wikipedia.org/wiki/Princeton_Municipal_Airport_(Maine)
POC,small_airport,Brackett Field,34.091598510742,-117.78199768066001,1011.0,US-CA,La Verne,KPOC,http://dpw.lacounty.gov/avi/airports/BrackettField.aspx,https://en.wikipedia.org/wiki/Brackett_Field
POF,small_airport,Poplar Bluff Municipal Airport,36.773899078369006,-90.324897766113,331.0,US-MO,Poplar Bluff,KPOF,http://www.poplarbluff-mo.gov/index.asp?SEC=CFDD2948-56CF-42FC-92CA-6AAA7D0952AA&Type=B_BASIC,
POY,small_airport,Powell Municipal Airport,44.867198944091996,-108.79299926758002,5092.0,US-WY,Powell,KPOY,http://www.cityofpowell.com/assets/pages/city/airport.aspx,
PPA,small_airport,Perry Lefors Field,35.612998962402,-100.99600219726999,3245.0,US-TX,Pampa,KPPA,,
PPF,small_airport,Tri-City Airport,37.32989883,-95.5062027,900.0,US-KS,Parsons,KPPF,http://www.parsonsks.com/index.aspx?NID=249,https://en.wikipedia.org/wiki/Tri-City_Airport_(Kansas)
LPO,small_airport,La Porte Municipal Airport,41.5724983215,-86.73449707030001,812.0,US-IN,La Porte,KPPO,http://www.laportemuniairport.com/,http://en.wikipedia.org/wiki/La_Porte_Municipal_Airport_(Indiana)
PGL,small_airport,Trent Lott International Airport,30.462799072266,-88.529197692871,17.0,US-MS,Pascagoula,KPQL,http://www.co.jackson.ms.us/departments/airport.php,https://en.wikipedia.org/wiki/Trent_Lott_International_Airport
PRO,small_airport,Perry Municipal Airport,41.82799911,-94.15989685,1013.0,US-IA,Perry,KPRO,http://www.perryia.org/perry-municipal-airport.html,https://en.wikipedia.org/wiki/Perry_Municipal_Airport_(Iowa)
PSK,small_airport,New River Valley Airport,37.137298583984,-80.678497314453,2105.0,US-VA,Dublin,KPSK,http://www.nrvairport.com/,https://en.wikipedia.org/wiki/New_River_Valley_Airport
PSN,small_airport,Palestine Municipal Airport,31.779699325562,-95.706298828125,423.0,US-TX,Palestine,KPSN,,
PGO,small_airport,Stevens Field,37.28630066,-107.0559998,7664.0,US-CO,Pagosa Springs,KPSO,http://www.stevensfield.com/,http://en.wikipedia.org/wiki/Stevens_Field
PSX,small_airport,Palacios Municipal Airport,28.727500915527,-96.25099945068399,14.0,US-TX,Palacios,KPSX,http://cityofpalacios.org/airport/,https://en.wikipedia.org/wiki/Palacios_Municipal_Airport
PTB,small_airport,Dinwiddie County Airport,37.183799743652,-77.507400512695,193.0,US-VA,Petersburg,KPTB,http://www.ptbairport.com/,
PTN,small_airport,Harry P Williams Memorial Airport,29.709499359130998,-91.33899688720699,9.0,US-LA,Patterson,KPTN,,https://en.wikipedia.org/wiki/Harry_P._Williams_Memorial_Airport
PTT,small_airport,Pratt Regional Airport,37.70159912,-98.74690247,1953.0,US-KS,Pratt,KPTT,,https://en.wikipedia.org/wiki/Pratt_Regional_Airport
PTV,small_airport,Porterville Municipal Airport,36.029598236084,-119.06300354004,442.0,US-CA,Porterville,KPTV,http://www.ci.porterville.ca.us/depts/PortervilleAirport/,https://en.wikipedia.org/wiki/Porterville_Municipal_Airport
PUB,small_airport,Pueblo Memorial Airport,38.289100646972656,-104.49700164794922,4726.0,US-CO,Pueblo,KPUB,,http://en.wikipedia.org/wiki/Pueblo_Memorial_Airport
PUC,small_airport,Carbon County Regional/Buck Davis Field,39.61389923,-110.7509995,5957.0,US-UT,Price,KPUC,,
PVC,small_airport,Provincetown Municipal Airport,42.071899414099995,-70.2213973999,9.0,US-MA,Provincetown,KPVC,,http://en.wikipedia.org/wiki/Provincetown_Municipal_Airport
PVF,small_airport,Placerville Airport,38.724201202393,-120.75299835205,2585.0,US-CA,Placerville,KPVF,,https://en.wikipedia.org/wiki/Placerville_Airport
PVW,small_airport,Hale County Airport,34.168098449706996,-101.71700286865,3374.0,US-TX,Plainview,KPVW,,
PWA,small_airport,Wiley Post Airport,35.53419876,-97.64710236,1300.0,US-OK,Oklahoma City,KPWA,http://www.wileypostairport.com/Home.aspx,https://en.wikipedia.org/wiki/Wiley_Post_Airport
PWD,small_airport,Sher-Wood Airport,48.790298461914,-104.53399658203001,2250.0,US-MT,Plentywood,KPWD,http://www.co.sheridan.mt.us/index.php?airport,https://en.wikipedia.org/wiki/Sher-Wood_Airport
RAC,small_airport,John H Batten Airport,42.7606010437,-87.8152008057,674.0,US-WI,Racine,KRAC,http://www.battenairport.aero/,http://en.wikipedia.org/wiki/John_H._Batten_Airport
RBD,small_airport,Dallas Executive Airport,32.6809005737,-96.86820220950001,660.0,US-TX,Dallas,KRBD,http://www.dallasexecairport.com/,http://en.wikipedia.org/wiki/Dallas_Executive_Airport
RBG,small_airport,Roseburg Regional Airport,43.2388000488,-123.35600280799999,529.0,US-OR,Roseburg,KRBG,http://www.cityofroseburg.org/departments/airport/,http://en.wikipedia.org/wiki/Roseburg_Regional_Airport
RBW,small_airport,Lowcountry Regional Airport,32.921001434299995,-80.6406021118,101.0,US-SC,Walterboro,KRBW,http://lowcountryairport.com/,http://en.wikipedia.org/wiki/Lowcountry_Regional_Airport
RCK,small_airport,H H Coffield Regional Airport,30.631599426300003,-96.9897003174,474.0,US-TX,Rockdale,KRCK,http://www.rockdalecityhall.com/index.aspx?nid=127,
RCR,small_airport,Fulton County Airport,41.065601348899996,-86.18170166019999,790.0,US-IN,Rochester,KRCR,,http://en.wikipedia.org/wiki/Fulton_County_Airport_(Indiana)
RCT,small_airport,Nartron Field,43.9000015259,-85.5167007446,1055.0,US-MI,Reed City,KRCT,,http://en.wikipedia.org/wiki/Nartron_Field
REO,small_airport,Rome State Airport,42.5777015686,-117.885002136,4053.0,US-OR,Rome,KREO,http://www.oregon.gov/aviation/Pages/Rome.aspx,http://en.wikipedia.org/wiki/Rome_State_Airport
RHV,small_airport,Reid-Hillview Airport of Santa Clara County,37.332901000999996,-121.819000244,135.0,US-CA,San Jose,KRHV,http://www.countyairports.org/rhv.html,http://en.wikipedia.org/wiki/Reid-Hillview_Airport
RKD,small_airport,Knox County Regional Airport,44.06010056,-69.09919739,56.0,US-ME,Rockland,KRKD,,
RKP,small_airport,Aransas County Airport,28.086799621599997,-97.04460144040002,24.0,US-TX,Rockport,KRKP,http://aransascountyairport.com/,http://en.wikipedia.org/wiki/Aransas_County_Airport
RKW,small_airport,Rockwood Municipal Airport,35.9222984314,-84.6896972656,1664.0,US-TN,Rockwood,KRKW,http://www.rockwoodtn.org/airport.html,http://en.wikipedia.org/wiki/Rockwood_Municipal_Airport
RNC,small_airport,Warren County Memorial Airport,35.69869995,-85.84380341,1032.0,US-TN,Mc Minnville,KRNC,http://www.warrencountymemorialairport.com/default.htm,http://en.wikipedia.org/wiki/Warren_County_Memorial_Airport
RNT,small_airport,Renton Municipal Airport,47.4930992126,-122.21600341799999,32.0,US-WA,Renton,KRNT,https://rentonwa.gov/living/default.aspx?id=212,http://en.wikipedia.org/wiki/Renton_Municipal_Airport
ROG,small_airport,Rogers Municipal Airport-Carter Field,36.37229919,-94.10690308,1359.0,US-AR,Rogers,KROG,,http://en.wikipedia.org/wiki/Rogers_Municipal_Airport
ROX,small_airport,Roseau Municipal Rudy Billberg Field,48.85599899,-95.69699859999999,1060.0,US-MN,Roseau,KROX,http://www.city.roseau.mn.us/index.asp?Type=B_BASIC&SEC=%7BAE9D09FA-04AA-46A5-AD2E-2F95D91128A2%7D,
RIE,small_airport,hln,45.41899872,-91.77349854,1109.0,US-WI,Rice Lake,KRPD,http://www.ricelakeairport.com/,http://en.wikipedia.org/wiki/Rice_Lake_Regional_Airport
RPX,small_airport,Roundup Airport,46.475095,-108.54149699999999,3500.0,US-MT,Roundup,KRPX,,http://en.wikipedia.org/wiki/Roundup_Airport
WBR,small_airport,Roben Hood Airport,43.722599029499996,-85.50409698490002,990.0,US-MI,Big Rapids,KRQB,,http://en.wikipedia.org/wiki/Roben-Hood_Airport
RQO,small_airport,El Reno Regional Airport,35.47269821,-98.00579834,1420.0,US-OK,El Reno,KRQO,,
RRL,small_airport,Merrill Municipal Airport,45.1988983154,-89.7128982544,1318.0,US-WI,Merrill,KRRL,http://www.ci.merrill.wi.us/index.asp?SEC=4F5D638A-3ECD-45E8-8226-20D66738C412&Type=B_BASIC,http://en.wikipedia.org/wiki/Merrill_Municipal_Airport
RRT,small_airport,Warroad International Memorial Airport,48.94139862,-95.3483963,1076.0,US-MN,Warroad,KRRT,,http://en.wikipedia.org/wiki/Warroad_International_Memorial_Airport
RSN,small_airport,Ruston Regional Airport,32.514400482178004,-92.591697692871,311.0,US-LA,Ruston,KRSN,http://www.ruston.org/departments.aspx?p_PageAlias=regional-airport,http://en.wikipedia.org/wiki/Ruston_Regional_Airport
RTN,small_airport,Raton Municipal-Crews Field,36.74150085,-104.5019989,6352.0,US-NM,Raton,KRTN,,http://en.wikipedia.org/wiki/Raton_Municipal_Airport
SRW,small_airport,Mid-Carolina Regional Airport,35.645901,-80.520302,772.0,US-NC,Salisbury,KRUQ,https://www.rowancountync.gov/GOVERNMENT/Departments/Airport.aspx,http://en.wikipedia.org/wiki/Rowan_County_Airport
RED,small_airport,Mifflin County Airport,40.677398681599996,-77.6268005371,819.0,US-PA,Reedsville,KRVL,http://www.mifflincountyairport.com/,http://en.wikipedia.org/wiki/Mifflin_County_Airport
RXE,small_airport,Rexburg Madison County Airport,43.8339,-111.805002,4858.0,US-ID,Rexburg,KRXE,,
RNZ,small_airport,Jasper County Airport,40.9478988647,-87.18260192870001,698.0,US-IN,Rensselaer,KRZL,,http://en.wikipedia.org/wiki/Jasper_County_Airport_(Indiana)
AHM,small_airport,Ashland Municipal Sumner Parker Field,42.1902999878,-122.66100311299999,1885.0,US-OR,Ashland,KS03,,http://en.wikipedia.org/wiki/Ashland_Municipal_Airport
BDY,small_airport,Bandon State Airport,43.08649826,-124.40799709999999,122.0,US-OR,Bandon,S05,,http://en.wikipedia.org/wiki/Bandon_State_Airport
SUO,small_airport,Sunriver Airport,43.8763008118,-121.45300293,4164.0,US-OR,Sunriver,S21,http://www.sunriver-resort.com/resort/sunriver-airport,http://en.wikipedia.org/wiki/Sunriver_Airport
MDJ,small_airport,Madras Municipal Airport,44.67020035,-121.15499879999999,2437.0,US-OR,Madras,KS33,,http://en.wikipedia.org/wiki/Madras_Municipal_Airport
PRZ,small_airport,Prineville Airport,44.286998748779,-120.90399932861,3250.0,US-OR,Prineville,S39,http://www.prinevilleairport.com/,http://en.wikipedia.org/wiki/Prineville_Airport
IDH,small_airport,Idaho County Airport,45.9426,-116.123001,3314.0,US-ID,Grangeville,KGIC,http://idahocountyairport.com/,http://en.wikipedia.org/wiki/Idaho_County_Airport
VSK,small_airport,Vista Field,46.218601226800004,-119.209999084,534.0,US-WA,Kennewick,KS98,,http://en.wikipedia.org/wiki/Vista_Field
SAD,small_airport,Safford Regional Airport,32.85480118,-109.6350021,3179.0,US-AZ,Safford,KSAD,,http://en.wikipedia.org/wiki/Safford_Regional_Airport
SAR,small_airport,Sparta Community Hunter Field,38.1488990784,-89.69869995120001,538.0,US-IL,Sparta,KSAR,http://www.ksarairport.com/,
SBM,small_airport,Sheboygan County Memorial Airport,43.76959991,-87.85140228,755.0,US-WI,Sheboygan,KSBM,,http://en.wikipedia.org/wiki/Sheboygan_County_Memorial_Airport
SBS,small_airport,Steamboat Springs Bob Adams Field,40.5163002,-106.8659973,6882.0,US-CO,Steamboat Springs,KSBS,,http://en.wikipedia.org/wiki/Steamboat_Springs_Airport
SBX,small_airport,Shelby Airport,48.5406990051,-111.87100219700001,3443.0,US-MT,Shelby,KSBX,,http://en.wikipedia.org/wiki/Shelby_Airport
SCB,small_airport,Scribner State Airport,41.610298156738,-96.629898071289,1325.0,US-NE,Scribner,KSCB,http://www.aero.nebraska.gov/scribner.pdf,http://en.wikipedia.org/wiki/Scribner_State_Airport
SCF,small_airport,Scottsdale Airport,33.622898101806996,-111.91100311279,1510.0,US-AZ,Scottsdale,KSDL,http://www.scottsdaleaz.gov/airport/,http://en.wikipedia.org/wiki/Scottsdale_Airport
SEE,small_airport,Gillespie Field,32.826198577880994,-116.97200012206999,388.0,US-CA,San Diego/El Cajon,KSEE,http://GillespieField.com/,http://en.wikipedia.org/wiki/Gillespie_Field
SEF,small_airport,Sebring Regional Airport,27.45639992,-81.3423996,62.0,US-FL,Sebring,KSEF,http://www.sebring-airport.com/,http://en.wikipedia.org/wiki/Sebring_Regional_Airport
SEG,small_airport,Penn Valley Airport,40.820598602295,-76.863899230957,450.0,US-PA,Selinsgrove,KSEG,http://www.dot.state.pa.us/Internet/Bureaus/pdBOA.nsf/AviationHomepage?openframeset,http://en.wikipedia.org/wiki/Penn_Valley_Airport
SEM,small_airport,Craig Field,32.343898773193004,-86.98780059814501,166.0,US-AL,Selma,KSEM,http://www.craigcomplex.com/,http://en.wikipedia.org/wiki/Craig_Field_(airport)
SEP,small_airport,Stephenville Clark Regional Airport,32.215301513671996,-98.177696228027,1321.0,US-TX,Stephenville,KSEP,http://www.stephenvilletx.gov/city-services/airport/airport-stephenville-aviation/,
SER,small_airport,Freeman Municipal Airport,38.923599243164,-85.907402038574,583.0,US-IN,Seymour,KSER,http://seymourcity.com/departments/aviation/,http://en.wikipedia.org/wiki/Freeman_Municipal_Airport
SDX,small_airport,Sedona Airport,34.848598480225,-111.78800201416,4830.0,US-AZ,Sedona,KSEZ,http://sedonaairport.org/,http://en.wikipedia.org/wiki/Sedona_Airport
SFM,small_airport,Sanford Seacoast Regional Airport,43.393901824951,-70.708000183105,244.0,US-ME,Sanford,KSFM,http://www.sanfordmaine.org/index.asp?Type=B_BASIC&SEC={DEE316C2-D149-450A-922E-9B2B686815B4},http://en.wikipedia.org/wiki/Sanford_Regional_Airport
SFZ,small_airport,North Central State Airport,41.9207992554,-71.49140167239999,441.0,US-RI,Pawtucket,KSFZ,,http://en.wikipedia.org/wiki/North_Central_State_Airport
SGT,small_airport,Stuttgart Municipal Airport,34.599498748779,-91.574996948242,224.0,US-AR,Stuttgart,KSGT,http://www.stuttgartarkansas.org/work/stuttgart_municipal_airport.aspx,http://en.wikipedia.org/wiki/Stuttgart_Municipal_Airport
SHD,small_airport,Shenandoah Valley Regional Airport,38.2638015747,-78.8964004517,1201.0,US-VA,Staunton/Waynesboro/Harrisonburg,KSHD,,http://en.wikipedia.org/wiki/Shenandoah_Valley_Regional_Airport
SHN,small_airport,Sanderson Field,47.233600616455,-123.14800262451,273.0,US-WA,Shelton,KSHN,http://www.portofshelton.com/airport.html,http://en.wikipedia.org/wiki/Sanderson_Field
SIK,small_airport,Sikeston Memorial Municipal Airport,36.898899078369006,-89.561798095703,315.0,US-MO,Sikeston,KSIK,,http://en.wikipedia.org/wiki/Sikeston_Memorial_Municipal_Airport
SIV,small_airport,Sullivan County Airport,39.114700317383,-87.44830322265601,540.0,US-IN,Monticello,KSIV,http://www.co.sullivan.ny.us/Departments/SullivanCountyAirport/tabid/3203/default.aspx,http://en.wikipedia.org/wiki/Sullivan_County_International_Airport
SJN,small_airport,St Johns Industrial Air Park,34.51860046,-109.3789978,5737.0,US-AZ,St Johns,KSJN,,http://en.wikipedia.org/wiki/St._Johns_Industrial_Air_Park
TSM,small_airport,Taos Regional Airport,36.45819855,-105.67199709999998,7095.0,US-NM,Taos,KSKX,http://www.taosairport.org/,http://en.wikipedia.org/wiki/Taos_Regional_Airport
SLB,small_airport,Storm Lake Municipal Airport,42.5973014832,-95.2406997681,1488.0,US-IA,Storm Lake,KSLB,http://www.stormlake.org/index.aspx?NID=16,http://en.wikipedia.org/wiki/Storm_Lake_Municipal_Airport
SLG,small_airport,Smith Field,36.19189835,-94.48999786,1191.0,US-AR,Siloam Springs,KSLG,http://www.siloamsprings.com/departments/airport/,
SLO,small_airport,Salem Leckrone Airport,38.64289855957,-88.96420288085899,573.0,US-IL,Salem,KSLO,http://www.salem-leckronefield.com/,https://en.wikipedia.org/wiki/Salem%E2%80%93Leckrone_Airport
SLR,small_airport,Sulphur Springs Municipal Airport,33.159801483154,-95.62110137939501,489.0,US-TX,Sulphur Springs,KSLR,http://www.slr.aero/,https://en.wikipedia.org/wiki/Sulphur_Springs_Municipal_Airport
SMD,small_airport,Smith Field,41.14339828,-85.15280151,835.0,US-IN,Fort Wayne,KSMD,https://fwairport.com/smith-field/,http://en.wikipedia.org/wiki/Smith_Field_(Indiana)
SMO,small_airport,Santa Monica Municipal Airport,34.015800476100004,-118.45099639899999,177.0,US-CA,Santa Monica,KSMO,http://www.smgov.net/departments/airport/,http://en.wikipedia.org/wiki/Santa_Monica_Airport
SUM,small_airport,Sumter Airport,33.994998931885,-80.361297607422,182.0,US-SC,Sumter,KSMS,http://www.sumtersc.gov/airport.aspx,https://en.wikipedia.org/wiki/Sumter_Airport
SNK,small_airport,Winston Field,32.69340133667,-100.94999694824,2430.0,US-TX,Snyder,KSNK,,
SNL,small_airport,Shawnee Regional Airport,35.357898712158,-96.942802429199,1073.0,US-OK,Shawnee,KSNL,http://www.shawneeairport.com/,http://en.wikipedia.org/wiki/Shawnee_Regional_Airport
SOP,small_airport,Moore County Airport,35.23740005,-79.39119720000001,455.0,US-NC,Pinehurst/Southern Pines,KSOP,http://moorecountyairport.com/,http://en.wikipedia.org/wiki/Moore_County_Airport_(North_Carolina)
SOW,small_airport,Show Low Regional Airport,34.265499115,-110.005996704,6415.0,US-AZ,Show Low,KSOW,,http://en.wikipedia.org/wiki/Show_Low_Regional_Airport
SPA,small_airport,Spartanburg Downtown Memorial Airport,34.915699005127,-81.956497192383,801.0,US-SC,Spartanburg,KSPA,http://www.cityofspartanburg.org/airport,http://en.wikipedia.org/wiki/Spartanburg_Downtown_Memorial_Airport
SPF,small_airport,Black Hills Airport-Clyde Ice Field,44.48030090332,-103.78299713135,3931.0,US-SD,Spearfish,KSPF,http://www.lawrence.sd.us/airport.htm,http://en.wikipedia.org/wiki/Black_Hills_Airport
SPW,small_airport,Spencer Municipal Airport,43.165500640869,-95.202796936035,1339.0,US-IA,Spencer,KSPW,http://spenceriowacity.com/airport.php,http://en.wikipedia.org/wiki/Spencer_Municipal_Airport
SQI,small_airport,Whiteside County Airport-Joseph H Bittorf Field,41.74280167,-89.67630005,648.0,US-IL,Sterling/Rockfalls,KSQI,http://www.visitrockfalls.com/visitor-s-guide/airport/whiteside-county-airport.html,
SQL,small_airport,San Carlos Airport,37.511901855469,-122.25,5.0,US-CA,San Carlos,KSQL,http://publicworks.smcgov.org/san-carlos-airport,http://en.wikipedia.org/wiki/San_Carlos_Airport_(California)
STE,small_airport,Stevens Point Municipal Airport,44.5452003479,-89.53029632568399,1110.0,US-WI,Stevens Point,KSTE,http://www.stevenspoint.com/airport,https://en.wikipedia.org/wiki/Stevens_Point_Municipal_Airport
STK,small_airport,Sterling Municipal Airport,40.61529922,-103.26499940000001,4040.0,US-CO,Sterling,KSTK,https://www.codot.gov/programs/aeronautics/colorado-airport-system/general-aviation-airports/ga-airports-r-y/STK,
SUA,small_airport,Witham Field,27.18169975,-80.22109985,16.0,US-FL,Stuart,KSUA,"http://ap3server.martin.fl.us/portal/page?_pageid=413,234422&_dad=portal&_schema=PORTAL",https://en.wikipedia.org/wiki/Witham_Field
SUD,small_airport,Stroud Municipal Airport,35.789600372314,-96.65570068359399,900.0,US-OK,Stroud,KSUD,,https://en.wikipedia.org/wiki/Stroud_Municipal_Airport
SUE,small_airport,Door County Cherryland Airport,44.84370041,-87.42150116,725.0,US-WI,Sturgeon Bay,KSUE,http://map.co.door.wi.us/airport/,https://en.wikipedia.org/wiki/Door_County_Cherryland_Airport
SUW,small_airport,Richard I Bong Airport,46.689701080321996,-92.09470367431601,674.0,US-WI,Superior,KSUW,http://www.ci.superior.wi.us/index.aspx?NID=231,https://en.wikipedia.org/wiki/Richard_I._Bong_Airport
SVC,small_airport,Grant County Airport,32.63650131225586,-108.15599822998048,5446.0,US-NM,Silver City,KSVC,,http://en.wikipedia.org/wiki/Grant_County_Airport
SVE,small_airport,Susanville Municipal Airport,40.375701904296996,-120.57299804688,4149.0,US-CA,Susanville,KSVE,,http://en.wikipedia.org/wiki/Susanville_Municipal_Airport
SVH,small_airport,Statesville Regional Airport,35.765300750732,-80.953903198242,968.0,US-NC,Statesville,KSVH,http://www.statesvillenc.net/Resident/Airport/tabid/82/Default.aspx,
SWW,small_airport,Avenger Field,32.467399597168004,-100.46700286865,2380.0,US-TX,Sweetwater,KSWW,http://www.flyavenger.com/,https://en.wikipedia.org/wiki/Avenger_Field
SYI,small_airport,Bomar Field Shelbyville Municipal Airport,35.56010056,-86.44249725,801.0,US-TN,Shelbyville,KSYI,http://www.shelbyvilletnairport.org/,https://en.wikipedia.org/wiki/Shelbyville_Municipal_Airport_(Tennessee)
SYV,small_airport,Sylvester Airport,31.558500289917003,-83.89569854736301,403.0,US-GA,Sylvester,KSYV,,
TBC,small_airport,Tuba City Airport,36.0928001404,-111.383003235,4513.0,US-AZ,Tuba City,KT03,,http://en.wikipedia.org/wiki/Tuba_City_Airport
TAD,small_airport,Perry Stokes Airport,37.259399414099995,-104.34100341799999,5762.0,US-CO,Trinidad,KTAD,,http://en.wikipedia.org/wiki/Perry_Stokes_Airport
TBR,small_airport,Statesboro Bulloch County Airport,32.4827003479,-81.73690032959998,187.0,US-GA,Statesboro,KTBR,,http://en.wikipedia.org/wiki/Statesboro-Bulloch_County_Airport
TDO,small_airport,Ed Carlson Memorial Field South Lewis County Airport,46.477199554399995,-122.805999756,374.0,US-WA,Toledo,KTDO,,http://en.wikipedia.org/wiki/Ed_Carlson_Memorial_Field
TDW,small_airport,Tradewind Airport,35.1698989868,-101.82599639899999,3649.0,US-TX,Amarillo,KTDW,http://tradewindairport.com/index.html,http://en.wikipedia.org/wiki/Tradewind_Airport
TDZ,small_airport,Toledo Executive Airport,41.56489944,-83.4822998,623.0,US-OH,Toledo,KTDZ,,http://en.wikipedia.org/wiki/Metcalf_Field
TEX,small_airport,Telluride Regional Airport,37.9538002,-107.90799709999999,9070.0,US-CO,Telluride,KTEX,,
THA,small_airport,Tullahoma Regional Arpt/Wm Northern Field,35.38010025,-86.24639893,1083.0,US-TN,Tullahoma,KTHA,http://www.tullahomatn.gov/airport/,http://en.wikipedia.org/wiki/Tullahoma_Regional_Airport
THM,small_airport,Thompson Falls Airport,47.573501586914,-115.28099822998001,2467.0,US-MT,Thompson Falls,KTHM,,https://en.wikipedia.org/wiki/Thompson_Falls_Airport
THV,small_airport,York Airport,39.91699982,-76.8730011,495.0,US-PA,York,KTHV,,http://en.wikipedia.org/wiki/York_Airport_(Pennsylvania)
KNT,small_airport,Kennett Memorial Airport,36.2258987427,-90.0365982056,262.0,US-MO,Kennett,KTKX,http://www.ktkx.us/,http://en.wikipedia.org/wiki/Kennett_Memorial_Airport
TLR,small_airport,Mefford Field,36.15629959,-119.32599640000001,265.0,US-CA,Tulare,KTLR,http://www.ci.tulare.ca.us/local_government/departments/administrative_services/airport.htm,http://en.wikipedia.org/wiki/Mefford_Field
TMA,small_airport,Henry Tift Myers Airport,31.429000854499996,-83.4885025024,355.0,US-GA,Tifton,KTMA,,http://en.wikipedia.org/wiki/Henry_Tift_Myers_Airport
OTK,small_airport,Tillamook Airport,45.4182014465,-123.81400299100001,36.0,US-OR,Tillamook,KTMK,,http://en.wikipedia.org/wiki/Tillamook_Airport
TNP,small_airport,Twentynine Palms Airport,34.13159943,-115.9459991,1888.0,US-CA,Twentynine Palms,KTNP,http://cms.sbcounty.gov/airports/Airports/TwentyninePalms.aspx,http://en.wikipedia.org/wiki/Twentynine_Palms_Airport
TNT,small_airport,Dade Collier Training and Transition Airport,25.861799240112,-80.897003173828,13.0,US-FL,Miami,KTNT,http://www.miami-airport.com/dade_collier.asp,https://en.wikipedia.org/wiki/Dade-Collier_Training_and_Transition_Airport
TNU,small_airport,Newton Municipal Airport,41.67440032959,-93.021697998047,953.0,US-IA,Newton,KTNU,http://www.newtongov.org/index.aspx?nid=189,https://en.wikipedia.org/wiki/Newton_Municipal_Airport_(Iowa)
XSD,small_airport,Tonopah Test Range Airport,37.7988014221,-116.78099823,5549.0,US-NV,Tonopah,KTNX,,http://en.wikipedia.org/wiki/Tonopah_Test_Range_Airport
TOA,small_airport,Zamperini Field,33.803398132324,-118.33999633789,103.0,US-CA,Torrance,KTOA,http://www.torranceca.gov/487.htm,http://en.wikipedia.org/wiki/Zamperini_Field
TOC,small_airport,Toccoa Airport - R.G. Letourneau Field,34.59379959,-83.29579926,996.0,US-GA,Toccoa,KTOC,http://www.stephenscountyga.com/airport.cfm?lid=249,https://en.wikipedia.org/wiki/Toccoa_Airport
TOR,small_airport,Torrington Municipal Airport,42.0644989,-104.15299990000001,4207.0,US-WY,Torrington,KTOR,,http://en.wikipedia.org/wiki/Torrington_Municipal_Airport
TPF,small_airport,Peter O Knight Airport,27.915599822998,-82.44930267334,8.0,US-FL,Tampa,KTPF,http://www.tampaairport.com/peter-o-knight-airport,http://en.wikipedia.org/wiki/Peter_O._Knight_Airport
TRL,small_airport,Terrell Municipal Airport,32.709201812744006,-96.267402648926,474.0,US-TX,Terrell,KTRL,http://www.terrellairport.com/,http://en.wikipedia.org/wiki/Terrell_Municipal_Airport
TSP,small_airport,Tehachapi Municipal Airport,35.134998321533,-118.43900299071998,4001.0,US-CA,Tehachapi,KTSP,http://www.liveuptehachapi.com/index.aspx?nid=26,http://en.wikipedia.org/wiki/Tehachapi_Municipal_Airport
TVF,small_airport,Thief River Falls Regional Airport,48.06570053,-96.18499756,1119.0,US-MN,Thief River Falls,KTVF,,http://en.wikipedia.org/wiki/Thief_River_Falls_Regional_Airport
TVI,small_airport,Thomasville Regional Airport,30.901599884032997,-83.881301879883,264.0,US-GA,Thomasville,KTVI,http://www.thomasville.org/Content/Default/10/534/71/city-of-thomasville/departments/thomasville-regional-airport.html,https://en.wikipedia.org/wiki/Thomasville_Regional_Airport
TYZ,small_airport,Taylor Airport,34.45280075,-110.1149979,5823.0,US-AZ,Taylor,KTYL,,http://en.wikipedia.org/wiki/Taylor_Airport_(Arizona)
BFG,small_airport,Bullfrog Basin Airport,37.54579926,-110.71299740000002,4167.0,US-UT,Glen Canyon Natl Rec Area,U07,,http://en.wikipedia.org/wiki/Bullfrog_Basin_Airport
NPH,small_airport,Nephi Municipal Airport,39.73880005,-111.87200159999998,5022.0,US-UT,Nephi,U14,http://nephi.utah.gov/airport/,
RVR,small_airport,Green River Municipal Airport,38.9613990784,-110.226997375,4225.0,US-UT,Green River,KU34,,http://en.wikipedia.org/wiki/Green_River_Municipal_Airport
PNU,small_airport,Panguitch Municipal Airport,37.84519958,-112.3919983,6763.0,US-UT,Panguitch,U55,http://panguitch.com/business-directory/1300/panguitch-municipal-airport/,https://en.wikipedia.org/wiki/Panguitch_Municipal_Airport
ICS,small_airport,Cascade Airport,44.493801116899995,-116.01599884,4742.0,US-ID,Cascade,KU70,,
UBS,small_airport,Columbus Lowndes County Airport,33.4654006958,-88.3803024292,188.0,US-MS,Columbus,KUBS,,http://en.wikipedia.org/wiki/Columbus-Lowndes_County_Airport
UCY,small_airport,Everett-Stewart Regional Airport,36.38180161,-88.98539734,336.0,US-TN,Union City,KUCY,,https://en.wikipedia.org/wiki/Everett%E2%80%93Stewart_Regional_Airport
UDD,small_airport,Bermuda Dunes Airport,33.748401641846,-116.27500152588001,73.0,US-CA,Palm Springs,KUDD,,http://en.wikipedia.org/wiki/Bermuda_Dunes_Airport
UES,small_airport,Waukesha County Airport,43.041000366211,-88.237098693848,911.0,US-WI,Waukesha,KUES,https://www.waukeshacounty.gov/airport/,https://en.wikipedia.org/wiki/Waukesha_County_Airport
UGN,small_airport,Waukegan National Airport,42.422199249268,-87.86789703369101,727.0,US-IL,Chicago/Waukegan,KUGN,http://waukeganport.com/wkgn_airport/,https://en.wikipedia.org/wiki/Waukegan_National_Airport
UIL,small_airport,Quillayute Airport,47.936599731445,-124.56300354004,194.0,US-WA,Quillayute,KUIL,http://www.wsdot.wa.gov/aviation/AllStateAirports/Quillayute_Quillayute.htm,https://en.wikipedia.org/wiki/Quillayute_Airport
IKB,small_airport,Wilkes County Airport,36.2228012085,-81.09829711910002,1301.0,US-NC,North Wilkesboro,KUKF,http://wilkescounty.net/airport/,http://en.wikipedia.org/wiki/Wilkes_County_Airport
UKT,small_airport,Quakertown Airport,40.435199737549,-75.38189697265601,526.0,US-PA,Quakertown,KUKT,http://www.bcaanet.org/quakertown.html,http://en.wikipedia.org/wiki/Quakertown_Airport
ULM,small_airport,New Ulm Municipal Airport,44.319599151611,-94.502296447754,1011.0,US-MN,New Ulm,KULM,http://www.ci.new-ulm.mn.us/index.asp?Type=B_BASIC&SEC={840F6280-A727-429E-B482-086226133C0E},http://en.wikipedia.org/wiki/New_Ulm_Municipal_Airport
ATO,small_airport,Ohio University Snyder Field,39.2109985352,-82.23139953610001,766.0,US-OH,Athens/Albany,KUNI,,http://en.wikipedia.org/wiki/Gordon_K._Bush_Airport
UNU,small_airport,Dodge County Airport,43.42660141,-88.70320129,934.0,US-WI,Juneau,KUNU,http://www.co.dodge.wi.us/index.aspx?page=44,https://en.wikipedia.org/wiki/Dodge_County_Airport
UOS,small_airport,Franklin County Airport,35.205101013184,-85.898101806641,1953.0,US-TN,Sewanee,KUOS,,https://en.wikipedia.org/wiki/Franklin_County_Airport_(Tennessee)
UTM,small_airport,Tunica Municipal Airport,34.680999755859,-90.34670257568399,194.0,US-MS,Tunica,KUTA,http://tunicaairport.com/,https://en.wikipedia.org/wiki/Tunica_Municipal_Airport
NPT,small_airport,Newport State Airport,41.532398223899996,-71.28150177,172.0,US-RI,Newport,KUUU,,http://en.wikipedia.org/wiki/Newport_State_Airport_(Rhode_Island)
UVA,small_airport,Garner Field,29.2112998962,-99.74359893799999,942.0,US-TX,Uvalde,KUVA,http://uvaldeflightcenter.com/,http://en.wikipedia.org/wiki/Garner_Field
RKH,small_airport,Rock Hill - York County Airport,34.9878006,-81.05719757,666.0,US-SC,Rock Hill,KUZA,http://www.cityofrockhill.com/departments/airport/more/airport,http://en.wikipedia.org/wiki/Rock_Hill/York_County_Airport
LLY,small_airport,South Jersey Regional Airport,39.9429016113,-74.845703125,53.0,US-NJ,Mount Holly,KVAY,http://southjerseyairport.com/,http://en.wikipedia.org/wiki/South_Jersey_Regional_Airport
VCV,small_airport,Southern California Logistics Airport,34.597499847399995,-117.383003235,2885.0,US-CA,Victorville,KVCV,http://www.logisticsairport.com/page.aspx?pgid=3,http://en.wikipedia.org/wiki/Southern_California_Logistics_Airport
VDI,small_airport,Vidalia Regional Airport,32.192699432373,-82.371200561523,275.0,US-GA,Vidalia,KVDI,http://www.vidaliaga.com/airport.html,https://en.wikipedia.org/wiki/Vidalia_Regional_Airport
VHN,small_airport,Culberson County Airport,31.057800292969,-104.78399658203001,3957.0,US-TX,Van Horn,KVHN,,https://en.wikipedia.org/wiki/Culberson_County_Airport
VIH,small_airport,Rolla National Airport,38.1273994446,-91.7695007324,1148.0,US-MO,Rolla/Vichy,KVIH,http://www.rollacity.org/airport/airport.shtml,https://en.wikipedia.org/wiki/Rolla_National_Airport
VIS,small_airport,Visalia Municipal Airport,36.3186988831,-119.392997742,295.0,US-CA,Visalia,KVIS,,http://en.wikipedia.org/wiki/Visalia_Municipal_Airport
VJI,small_airport,Virginia Highlands Airport,36.687099456787,-82.033302307129,2087.0,US-VA,Abingdon,KVJI,http://www.vahighlandsairport.com/,https://en.wikipedia.org/wiki/Virginia_Highlands_Airport
VKS,small_airport,Vicksburg Municipal Airport,32.23929977417,-90.928398132324,106.0,US-MS,Vicksburg,KVKS,http://www.vicksburg.org/departments/airport,
VLA,small_airport,Vandalia Municipal Airport,38.991500854492,-89.16619873046899,537.0,US-IL,Vandalia,KVLA,,
VNC,small_airport,Venice Municipal Airport,27.071599960327,-82.440299987793,18.0,US-FL,Venice,KVNC,http://www.venicegov.com/Municipal_links/Airport/airport.asp,https://en.wikipedia.org/wiki/Venice_Municipal_Airport
VQQ,small_airport,Cecil Airport,30.2187004089,-81.876701355,81.0,US-FL,Jacksonville,KVQQ,http://www.jaxjetport.aero/index.php/cecil-airport/,http://en.wikipedia.org/wiki/Cecil_Field
VSF,small_airport,Hartness State (Springfield) Airport,43.34360123,-72.51730347,577.0,US-VT,Springfield,KVSF,,http://en.wikipedia.org/wiki/Hartness_State_Airport
VYS,small_airport,Illinois Valley Regional Airport-Walter A Duncan Field,41.351898,-89.153099,654.0,US-IL,Peru,KVYS,http://www.peru.il.us/airport,https://en.wikipedia.org/wiki/Illinois_Valley_Regional_Airport
GTY,small_airport,Gettysburg Regional Airport,39.84090042,-77.27420044,590.0,US-PA,Gettysburg,W05,http://flygra.com/,http://en.wikipedia.org/wiki/Gettysburg_Regional_Airport
SQV,small_airport,Sequim Valley Airport,48.098098754883004,-123.18699645996,144.0,US-WA,Sequim,W28,http://www.sequimvalleyairport.com/,http://en.wikipedia.org/wiki/Sequim_Valley_Airport
PGC,small_airport,Grant County Airport,38.9948997498,-79.1458969116,963.0,US-WV,Petersburg,W99,,https://en.wikipedia.org/wiki/Grant_County_Airport_(West_Virginia)
WAL,small_airport,Wallops Flight Facility Airport,37.9402008057,-75.46640014649999,40.0,US-VA,Wallops Island,KWAL,,http://en.wikipedia.org/wiki/Wallops_Flight_Facility
WAY,small_airport,Greene County Airport,39.90010071,-80.13310242,1069.0,US-PA,Waynesburg,KWAY,,http://en.wikipedia.org/wiki/Greene_County_Airport_(Pennsylvania)
WBW,small_airport,Wilkes Barre Wyoming Valley Airport,41.2971992493,-75.8511962891,545.0,US-PA,Wilkes-Barre,KWBW,,http://en.wikipedia.org/wiki/Wilkes-Barre_Wyoming_Valley_Airport
WDG,small_airport,Enid Woodring Regional Airport,36.3791999817,-97.7910995483,1167.0,US-OK,Enid,KWDG,http://www.enidairport.com/default.htm,http://en.wikipedia.org/wiki/Enid_Woodring_Regional_Airport
WDR,small_airport,Barrow County Airport,33.98289871,-83.66739655,943.0,US-GA,Winder,KWDR,http://www.wdrairport.com/,http://en.wikipedia.org/wiki/Barrow_County_Airport
WHP,small_airport,Whiteman Airport,34.2593002319,-118.413002014,1003.0,US-CA,Los Angeles,KWHP,,http://en.wikipedia.org/wiki/Whiteman_Airport
WLD,small_airport,Strother Field,37.168598175,-97.0375976562,1160.0,US-KS,Winfield/Arkansas City,KWLD,,http://en.wikipedia.org/wiki/Strother_Field
WLW,small_airport,Willows Glenn County Airport,39.51639938,-122.21800230000001,141.0,US-CA,Willows,KWLW,,http://en.wikipedia.org/wiki/Willows-Glenn_County_Airport
WSD,small_airport,Condron Army Air Field,32.34149933,-106.40299990000001,3934.0,US-NM,White Sands,KWSD,,
WST,small_airport,Westerly State Airport,41.3496017456,-71.80339813229999,81.0,US-RI,Westerly,KWST,,http://en.wikipedia.org/wiki/Westerly_State_Airport
WVI,small_airport,Watsonville Municipal Airport,36.9356994629,-121.790000916,163.0,US-CA,Watsonville,KWVI,,http://en.wikipedia.org/wiki/Watsonville_Municipal_Airport
WVL,small_airport,Waterville Robert Lafleur Airport,44.5331993103,-69.6754989624,333.0,US-ME,Waterville,KWVL,,http://en.wikipedia.org/wiki/Waterville_Robert_LaFleur_Airport
KYO,small_airport,Tampa North Aero Park Airport,28.2213001251,-82.37449646,68.0,US-FL,Tampa,X39,http://www.tampanorth.com/,
ZPH,small_airport,Zephyrhills Municipal Airport,28.2282009125,-82.15589904790002,90.0,US-FL,Zephyrhills,KZPH,,http://en.wikipedia.org/wiki/Zephyrhills_Municipal_Airport
DRU,small_airport,Drummond Airport,46.6208,-113.20500200000001,4245.0,US-MT,Drummond,KDRU,,
UWA,small_airport,Ware Airport,42.282001495361,-72.214797973633,483.0,US-MA,Ware,MA53,,https://en.wikipedia.org/wiki/Ware_Airport
MDR,small_airport,Medfra Airport,63.1060198183,-154.719429016,435.0,US-AK,Medfra,,,
LIZ,small_airport,Loring International Airport,46.9504013062,-67.88590240479999,746.0,US-ME,Limestone,ME16,,http://en.wikipedia.org/wiki/Loring_International_Airport
MHN,small_airport,Hooker County Airport,42.042155,-101.059113,3260.0,US-NE,Mullen,KHMN,,
MTX,small_airport,Metro Field,64.80680084229999,-147.761993408,432.0,US-AK,Fairbanks,MTF,,
MXC,small_airport,Monticello Airport,37.93243,-109.341225,6966.0,US-UT,Monticello,,,https://en.wikipedia.org/wiki/Monticello_Airport_(Utah)
MYK,small_airport,May Creek Airport,61.3357009888,-142.68699646,1650.0,US-AK,May Creek,MYK,,http://en.wikipedia.org/wiki/May_Creek_Airport
EPG,small_airport,Browns Airport,40.8675003052,-96.11000061040001,1183.0,US-NE,Weeping Water,NE69,,
HBB,small_airport,Industrial Airpark,32.7668,-103.209,3707.0,US-NM,Hobbs,NM83,,https://en.wikipedia.org/wiki/Hobbs_Army_Airfield
UCC,small_airport,Yucca Airstrip,36.94580078125,-116.03800201416,3919.0,US-NV,Mercury,NV11,,http://en.wikipedia.org/wiki/Yucca_Airstrip
NLN,small_airport,Kneeland Airport,40.719299316406,-123.92800140381,2737.0,US-CA,Eureka,O19,,http://en.wikipedia.org/wiki/Kneeland_Airport
BZF,small_airport,Benton Field,40.5749015808,-122.407997131,719.0,US-CA,Redding,O85,,http://en.wikipedia.org/wiki/Benton_Field
AKB,small_airport,Atka Airport,52.22029877,-174.2059937,57.0,US-AK,Atka,PAAK,,http://en.wikipedia.org/wiki/Atka_Airport
PML,small_airport,Port Moller Airport,56.0060005188,-160.561004639,20.0,US-AK,Cold Bay,PAAL,,http://en.wikipedia.org/wiki/Port_Moller_Airport................................................................................
BVU,small_airport,Beluga Airport,61.1721992493,-151.04400634799998,130.0,US-AK,Beluga,PABG,,http://en.wikipedia.org/wiki/Beluga_Airport
BMX,small_airport,Big Mountain Airport,59.361198425299996,-155.259002686,663.0,US-AK,Big Mountain,PABM,,http://en.wikipedia.org/wiki/Big_Mountain_Air_Force_Station
CEM,small_airport,Central Airport,65.57379913,-144.78300480000001,937.0,US-AK,Central,PACE,,http://en.wikipedia.org/wiki/Central_Airport
CIK,small_airport,Chalkyitsik Airport,66.6449966431,-143.74000549299998,544.0,US-AK,Chalkyitsik,PACI,,
CYF,small_airport,Chefornak Airport,60.1492004395,-164.285995483,40.0,US-AK,Chefornak,PACK,,http://en.wikipedia.org/wiki/Chefornak_Airport
IRC,small_airport,Circle City /New/ Airport,65.83049799999999,-144.076008,613.0,US-AK,Circle,PACR,,http://en.wikipedia.org/wiki/Circle_City_Airport
CXF,small_airport,Coldfoot Airport,67.25219726559999,-150.203994751,1042.0,US-AK,Coldfoot,PACX,,http://en.wikipedia.org/wiki/Coldfoot_Airport
CYT,small_airport,Yakataga Airport,60.0820007324,-142.492996216,12.0,US-AK,Yakataga,PACY,,http://en.wikipedia.org/wiki/Yakataga_Airport
RDB,small_airport,Red Dog Airport,68.03209686279999,-162.899002075,969.0,US-AK,Red Dog,PADG,,http://en.wikipedia.org/wiki/Red_Dog_Airport
KKH,small_airport,Kongiganak Airport,59.9608001709,-162.88099670399998,30.0,US-AK,Kongiganak,PADY,,http://en.wikipedia.org/wiki/Kongiganak_Airport
EEK,small_airport,Eek Airport,60.21367264,-162.0438843,12.0,US-AK,Eek,PAEE,,http://en.wikipedia.org/wiki/Eek_Airport
EAA,small_airport,Eagle Airport,64.77639771,-141.151001,908.0,US-AK,Eagle,PAEG,,http://en.wikipedia.org/wiki/Eagle_Airport
WWT,small_airport,Newtok Airport,60.939098358154,-164.64100646973,25.0,US-AK,Newtok,PAEW,,https://en.wikipedia.org/wiki/Newtok_Airport
FMC,small_airport,Five Mile Airport,65.9270019531,-149.839996338,510.0,US-AK,Five Mile,PAFV,,http://en.wikipedia.org/wiki/Five_Mile_Airport
FWL,small_airport,Farewell Airport,62.5065994263,-153.893997192,1535.0,US-AK,Farewell,PAFW,,
GBH,small_airport,Galbraith Lake Airport,68.47969818119999,-149.49000549299998,2663.0,US-AK,Galbraith Lake,PAGB,,http://en.wikipedia.org/wiki/Galbraith_Lake_Airport
SHG,small_airport,Shungnak Airport,66.88809967041,-157.16200256348,197.0,US-AK,Shungnak,PAGH,,http://en.wikipedia.org/wiki/Shungnak_Airport
GLV,small_airport,Golovin Airport,64.5504989624,-163.007003784,59.0,US-AK,Golovin,PAGL,,http://en.wikipedia.org/wiki/Golovin_Airport
BGQ,small_airport,Big Lake Airport,61.5360984802,-149.813995361,158.0,US-AK,Big Lake,PAGQ,,http://en.wikipedia.org/wiki/Big_Lake_Airport
NME,small_airport,Nightmute Airport,60.471000671386996,-164.70100402832,4.0,US-AK,Nightmute,PAGT,,https://en.wikipedia.org/wiki/Nightmute_Airport
SGY,small_airport,Skagway Airport,59.46009826660156,-135.31599426269528,44.0,US-AK,Skagway,PAGY,,http://en.wikipedia.org/wiki/Skagway_Airport
HUS,small_airport,Hughes Airport,66.04109955,-154.26300049999998,299.0,US-AK,Hughes,PAHU,,http://en.wikipedia.org/wiki/Hughes_Airport_(Alaska)
SHX,small_airport,Shageluk Airport,62.6922988892,-159.569000244,79.0,US-AK,Shageluk,PAHX,,
IGG,small_airport,Igiugig Airport,59.32400131225586,-155.90199279785156,90.0,US-AK,Igiugig,PAIG,,
MCL,small_airport,McKinley National Park Airport,63.7326011658,-148.910995483,1720.0,US-AK,McKinley Park,PAIN,,http://en.wikipedia.org/wiki/McKinley_National_Park_Airport
WAA,small_airport,Wales Airport,65.62259300000001,-168.095,22.0,US-AK,Wales,PAIW,,http://en.wikipedia.org/wiki/Wales_Airport_(Alaska)
KGK,small_airport,Koliganek Airport,59.726600647,-157.259002686,269.0,US-AK,Koliganek,PAJZ,,http://en.wikipedia.org/wiki/Koliganek_Airport
KDK,small_airport,Kodiak Municipal Airport,57.8059005737,-152.37399292,139.0,US-AK,Kodiak,PAKD,,http://en.wikipedia.org/wiki/Kodiak_Municipal_Airport
KFP,small_airport,False Pass Airport,54.8474006652832,-163.41000366210938,20.0,US-AK,False Pass,PAKF,,
AKK,small_airport,Akhiok Airport,56.9387016296,-154.182998657,44.0,US-AK,Akhiok,PAKH,,http://en.wikipedia.org/wiki/Akhiok_Airport
KPN,small_airport,Kipnuk Airport,59.9329986572,-164.031005859,11.0,US-AK,Kipnuk,PAKI,,http://en.wikipedia.org/wiki/Kipnuk_Airport
KKA,small_airport,Koyuk Alfred Adams Airport,64.9394989014,-161.154006958,154.0,US-AK,Koyuk,PAKK,,
LKK,small_airport,Kulik Lake Airport,58.9821014404,-155.121002197,717.0,US-AK,Kulik Lake,PAKL,,http://en.wikipedia.org/wiki/Kulik_Lake_Airport
IKO,small_airport,Nikolski Air Station,52.94160079956055,-168.8489990234375,77.0,US-AK,Nikolski,PAKO,,http://en.wikipedia.org/wiki/Nikolski_Air_Station
UUK,small_airport,Ugnu-Kuparuk Airport,70.33080291750001,-149.59800720200002,67.0,US-AK,Kuparuk,PAKU,,http://en.wikipedia.org/wiki/Ugnu-Kuparuk_Airport
KAL,small_airport,Kaltag Airport,64.31909943,-158.74099730000003,181.0,US-AK,Kaltag,PAKV,,
KYK,small_airport,Karluk Airport,57.5671005249,-154.449996948,137.0,US-AK,Karluk,PAKY,,http://en.wikipedia.org/wiki/Karluk_Airport
KLN,small_airport,Larsen Bay Airport,57.535099029499996,-153.977996826,87.0,US-AK,Larsen Bay,PALB,,http://en.wikipedia.org/wiki/Larsen_Bay_Airport
KLG,small_airport,Kalskag Airport,61.53630065917969,-160.34100341796875,55.0,US-AK,Kalskag,PALG,,http://en.wikipedia.org/wiki/Kalskag_Airport
DQH,small_airport,Alpine Airstrip,70.3442993164,-150.945007324,18.0,US-AK,Deadhorse,PALP,,http://en.wikipedia.org/wiki/Alpine_Airstrip
WCR,small_airport,Chandalar Lake Airport,67.5045013428,-148.483001709,1920.0,US-AK,Chandalar Lake,PALR,,http://en.wikipedia.org/wiki/Chandalar_Lake_Airport
KMO,small_airport,Manokotak Airport,58.9902000427,-159.050003052,100.0,US-AK,Manokotak,PAMB,,http://en.wikipedia.org/wiki/Manokotak_Airport
MDO,small_airport,Middleton Island Airport,59.4499015808,-146.307006836,100.0,US-AK,Middleton Island,PAMD,,http://en.wikipedia.org/wiki/Middleton_Island_Airport
SMK,small_airport,St Michael Airport,63.49010086,-162.1100006,98.0,US-AK,St Michael,PAMK,,http://en.wikipedia.org/wiki/St._Michael_Airport
MLY,small_airport,Manley Hot Springs Airport,64.99759674069999,-150.643997192,270.0,US-AK,Manley Hot Springs,PAML,,http://en.wikipedia.org/wiki/Manley_Hot_Springs_Airport
MOU,small_airport,Mountain Village Airport,62.09540176391602,-163.6820068359375,337.0,US-AK,Mountain Village,PAMO,,http://en.wikipedia.org/wiki/Mountain_Village_Airport
MXY,small_airport,Mc Carthy Airport,61.437099456800006,-142.904006958,1531.0,US-AK,Mccarthy,PAMX,,http://en.wikipedia.org/wiki/McCarthy_Airport
WNA,small_airport,Napakiak Airport,60.69029998779297,-161.97900390625,17.0,US-AK,Napakiak,PANA,,
NNL,small_airport,Nondalton Airport,59.980201721190994,-154.8390045166,314.0,US-AK,Nondalton,PANO,,https://en.wikipedia.org/wiki/Nondalton_Airport
KNW,small_airport,New Stuyahok Airport,59.4499015808,-157.32800293,364.0,US-AK,New Stuyahok,PANW,,
OBU,small_airport,Kobuk Airport,66.9123001099,-156.897003174,137.0,US-AK,Kobuk,PAOB,,
PCA,small_airport,Portage Creek Airport,58.9065,-157.714,137.0,US-AK,Portage Creek,PAOC,,http://en.wikipedia.org/wiki/Portage_Creek_Airport
HNH,small_airport,Hoonah Airport,58.0961,-135.410111,19.0,US-AK,Hoonah,PAOH,,http://en.wikipedia.org/wiki/Hoonah_Airport
OOK,small_airport,Toksook Bay Airport,60.54140091,-165.0870056,59.0,US-AK,Toksook Bay,PAOO,,
NLG,small_airport,Nelson Lagoon Airport,56.007499694824,-161.16000366211,14.0,US-AK,Nelson Lagoon,PAOU,,https://en.wikipedia.org/wiki/Nelson_Lagoon_Airport
KPV,small_airport,Perryville Airport,55.905998,-159.162993,29.0,US-AK,Perryville,PAPE,,http://en.wikipedia.org/wiki/Perryville_Airport
PKA,small_airport,Napaskiak Airport,60.70289993,-161.7779999,24.0,US-AK,Napaskiak,PAPK,,
PIP,small_airport,Pilot Point Airport,57.5803985596,-157.572006226,57.0,US-AK,Pilot Point,PAPN,,http://en.wikipedia.org/wiki/Pilot_Point_Airport
PHO,small_airport,Point Hope Airport,68.34880065917969,-166.7989959716797,12.0,US-AK,Point Hope,PAPO,,http://en.wikipedia.org/wiki/Point_Hope_Airport
PPC,small_airport,Prospect Creek Airport,66.814102172852,-150.64399719238,1095.0,US-AK,Prospect Creek,PAPR,,https://en.wikipedia.org/wiki/Prospect_Creek_Airport
KWN,small_airport,Quinhagak Airport,59.75510025,-161.84500119999998,42.0,US-AK,Quinhagak,PAQH,,http://en.wikipedia.org/wiki/Quinhagak_Airport
RSH,small_airport,Russian Mission Airport,61.7788848877,-161.319458008,51.0,US-AK,Russian Mission,PARS,,http://en.wikipedia.org/wiki/Russian_Mission_Airport
SLQ,small_airport,Sleetmute Airport,61.7005004883,-157.166000366,190.0,US-AK,Sleetmute,PASL,,https://en.wikipedia.org/wiki/Sleetmute_Airport
SOV,small_airport,Seldovia Airport,59.442401885986,-151.70399475098,29.0,US-AK,Seldovia,PASO,http://www.seldovia.com/transportation-to-and-around-seldovia/by-air/,http://en.wikipedia.org/wiki/Seldovia_Airport
SMU,small_airport,Sheep Mountain Airport,61.812000274700004,-147.507003784,2750.0,US-AK,Sheep Mountain,PASP,,
UMM,small_airport,Summit Airport,63.3315010071,-149.126998901,2409.0,US-AK,Summit,PAST,,http://en.wikipedia.org/wiki/Summit_Airport_(Alaska)
SKW,small_airport,Skwentna Airport,61.9653015137,-151.190994263,148.0,US-AK,Skwentna,PASW,,http://en.wikipedia.org/wiki/Skwentna_Airport
TAL,small_airport,Ralph M Calhoun Memorial Airport,65.1744003296,-152.10899353,236.0,US-AK,Tanana,PATA,,http://en.wikipedia.org/wiki/Ralph_M._Calhoun_Memorial_Airport
TNC,small_airport,Tin City Long Range Radar Station Airport,65.56310272,-167.9219971,271.0,US-AK,Tin City,PATC,,http://en.wikipedia.org/wiki/Tin_City_LRRS_Airport
TLA,small_airport,Teller Airport,65.2404022217,-166.339004517,294.0,US-AK,Teller,PATE,,http://en.wikipedia.org/wiki/Teller_Airport
AUK,small_airport,Alakanuk Airport,62.6800422668,-164.65992736799998,10.0,US-AK,Alakanuk,PAUK,,http://en.wikipedia.org/wiki/Alakanuk_Airport
UMT,small_airport,Umiat Airport,69.37110138,-152.1360016,267.0,US-AK,Umiat,PAUM,,
UNK,small_airport,Unalakleet Airport,63.88840103,-160.798996,27.0,US-AK,Unalakleet,PAUN,,
WOW,small_airport,Willow Airport,61.7541999817,-150.052001953,221.0,US-AK,Willow,PAUO,,http://en.wikipedia.org/wiki/Willow_Airport
VAK,small_airport,Chevak Airport,61.5409,-165.6005,75.0,US-AK,Chevak,PAVA,,http://en.wikipedia.org/wiki/Chevak_Airport
KVC,small_airport,King Cove Airport,55.11629867553711,-162.26600646972656,155.0,US-AK,King Cove,PAVC,,
VEE,small_airport,Venetie Airport,67.0086975098,-146.365997314,574.0,US-AK,Venetie,PAVE,,
WBQ,small_airport,Beaver Airport,66.36219787600001,-147.406997681,359.0,US-AK,Beaver,PAWB,,
WMO,small_airport,White Mountain Airport,64.689201355,-163.412994385,267.0,US-AK,White Mountain,PAWM,,http://en.wikipedia.org/wiki/White_Mountain_Airport
AKI,small_airport,Akiak Airport,60.9029006958,-161.231002808,30.0,US-AK,Akiak,PFAK,,http://en.wikipedia.org/wiki/Akiak_Airport
AET,small_airport,Allakaket Airport,66.5518035889,-152.621994019,441.0,US-AK,Allakaket,PFAL,,http://en.wikipedia.org/wiki/Allakaket_Airport
PFC,small_airport,Pacific City State Airport,45.19979858399999,-123.961997986,5.0,US-OR,Pacific City,KPFC,,
NCN,small_airport,Chenega Bay Airport,60.0773010254,-147.992004395,72.0,US-AK,Chenega,PFCB,,
CLP,small_airport,Clarks Point Airport,58.83369827,-158.529007,80.0,US-AK,Clarks Point,PFCL,,http://en.wikipedia.org/wiki/Clarks_Point_Airport
ELI,small_airport,Elim Airport,64.61470032,-162.2720032,162.0,US-AK,Elim,PFEL,,http://en.wikipedia.org/wiki/Elim_Airport
KUK,small_airport,Kasigluk Airport,60.87440109,-162.5240021,48.0,US-AK,Kasigluk,PFKA,,http://en.wikipedia.org/wiki/Kasigluk_Airport
KNK,small_airport,Kokhanok Airport,59.4332008362,-154.804000854,115.0,US-AK,Kokhanok,PFKK,,http://en.wikipedia.org/wiki/Kokhanok_Airport
KOT,small_airport,Kotlik Airport,63.030601501499994,-163.533004761,15.0,US-AK,Kotlik,PFKO,,
KTS,small_airport,Brevig Mission Airport,65.3312988281,-166.46600341799999,38.0,US-AK,Brevig Mission,PFKT,,http://en.wikipedia.org/wiki/Brevig_Mission_Airport
KYU,small_airport,Koyukuk Airport,64.8760986328,-157.727005005,149.0,US-AK,Koyukuk,PFKU,,
KWT,small_airport,Kwethluk Airport,60.790298461899994,-161.444000244,25.0,US-AK,Kwethluk,PFKW,,
ORV,small_airport,Robert (Bob) Curtis Memorial Airport,66.81790161,-161.01899719999997,55.0,US-AK,Noorvik,PFNO,,http://en.wikipedia.org/wiki/Robert_(Bob)_Curtis_Memorial_Airport
SKK,small_airport,Shaktoolik Airport,64.37110138,-161.223999,24.0,US-AK,Shaktoolik,PFSH,,
TKJ,small_airport,Tok Junction Airport,63.32949829,-142.9539948,1639.0,US-AK,Tok,PFTO,,http://en.wikipedia.org/wiki/Tok_Junction_Airport
WSN,small_airport,South Naknek Nr 2 Airport,58.7033996582,-157.007995605,162.0,US-AK,South Naknek,PFWS,,http://en.wikipedia.org/wiki/South_Naknek_Airport
PGM,small_airport,Port Graham Airport,59.348300933838,-151.83200073242,93.0,US-AK,Port Graham,PGM,,https://en.wikipedia.org/wiki/Port_Graham_Airport
LUP,small_airport,Kalaupapa Airport,21.21100044,-156.973999,24.0,US-HI,Kalaupapa,PHLU,,http://en.wikipedia.org/wiki/Kalaupapa_Airport
PAK,small_airport,Port Allen Airport,21.896900177,-159.602996826,24.0,US-HI,Hanapepe,PHPA,,http://en.wikipedia.org/wiki/Port_Allen_Airport
RDV,small_airport,Red Devil Airport,61.7881011963,-157.350006104,174.0,US-AK,Red Devil,RDV,,
LPS,small_airport,Lopez Island Airport,48.4838981628418,-122.93800354003906,209.0,US-WA,Lopez,S31,,http://en.wikipedia.org/wiki/Lopez_Island_Airport
SAS,small_airport,Salton Sea Airport,33.241401672399995,-115.952003479,-84.0,US-CA,Salton City,KSAS,,http://en.wikipedia.org/wiki/Salton_Sea_Airport
SRV,small_airport,Stony River 2 Airport,61.789699554399995,-156.589004517,230.0,US-AK,Stony River,SRV,,
SVS,small_airport,Stevens Village Airport,66.0172,-149.0545,305.0,US-AK,Stevens Village,SVS,,https://en.wikipedia.org/wiki/Stevens_Village_Airport
SXP,small_airport,Sheldon Point Airport,62.520599365234006,-164.84800720215,12.0,US-AK,Nunam Iqua,SXP,,https://en.wikipedia.org/wiki/Sheldon_Point_Airport
SYB,small_airport,Seal Bay Seaplane Base,58.3733,-152.2018,0.0,US-AK,Seal Bay,,,http://en.wikipedia.org/wiki/Seal_Bay_Seaplane_Base
SYN,small_airport,Stanton Airfield,44.475498199499995,-93.0162963867,920.0,US-MN,Stanton,KSYN,,
SZN,small_airport,Santa Cruz Island Airport,34.060600280799996,-119.915000916,50.0,US-CA,Santa Barbara,KSZN,,
SZP,small_airport,Santa Paula Airport,34.34719849,-119.060997,243.0,US-CA,Santa Paula,KSZP,,http://en.wikipedia.org/wiki/Santa_Paula_Airport
TCT,small_airport,Takotna Airport,62.99320600000001,-156.029026,825.0,US-AK,Takotna,PPCT,,https://en.wikipedia.org/wiki/Takotna_Airport
TLT,small_airport,Tuluksak Airport,61.096801757799994,-160.968994141,30.0,US-AK,Tuluksak,TLT,,
PTA,small_airport,Port Alsworth Airport,60.204299926800005,-154.319000244,280.0,US-AK,Port Alsworth,PALJ,,
TSG,small_airport,Tanacross Airport,63.3744010925,-143.335998535,1549.0,US-AK,Tanacross,TSG,,http://en.wikipedia.org/wiki/Tanacross_Airport
TYE,small_airport,Tyonek Airport,61.076698303223,-151.13800048828,110.0,US-AK,Tyonek,TYE,,https://en.wikipedia.org/wiki/Tyonek_Airport
DBS,small_airport,Dubois Municipal Airport,44.1665992737,-112.225997925,5123.0,US-ID,Dubois,U41,,
UGB,small_airport,Ugashik Bay Airport,57.4253997803,-157.74000549299998,132.0,US-AK,Pilot Point,UGB,,http://en.wikipedia.org/wiki/Ugashik_Bay_Airport
RTL,small_airport,Spirit Lake Municipal Airport,43.387500762939,-95.139198303223,1434.0,US-IA,Spirit Lake,,,http://en.wikipedia.org/wiki/Spirit_Lake_Municipal_Airport
GMV,small_airport,Monument Valley Airport,37.0167007446,-110.20099639899999,5192.0,US-UT,Goulding's Lodge,UT25,http://gouldings.com/new/wp-content/uploads/2010/09/Gouldings_Airport_Rules.pdf,
RCE,small_airport,Roche Harbor Airport,48.6123008728,-123.138999939,100.0,US-WA,Roche Harbor,WA09,http://www.wsdot.wa.gov/aviation/AllStateAirports/RocheHarbor_RocheHarbor.htm,http://en.wikipedia.org/wiki/Roche_Harbor_Airport
WBB,small_airport,Stebbins Airport,63.5159988403,-162.277999878,14.0,US-AK,Stebbins,WBB,,http://en.wikipedia.org/wiki/Stebbins_Airport
WEA,small_airport,Parker County Airport,32.7462997437,-97.6824035645,990.0,US-TX,Weatherford,KWEA,,
DTR,small_airport,Decatur Shores Airport,48.499801635699995,-122.81400299100001,38.0,US-WA,Decatur,WN07,,
WSM,small_airport,Wiseman Airport,67.4046020508,-150.123001099,1180.0,US-AK,Wiseman,WSM,,
GWV,small_airport,Glendale Fokker Field,39.948699951200005,-80.7594985962,648.0,US-WV,Glendale,WV66,,
UKN,small_airport,Waukon Municipal Airport,43.280498504639,-91.469497680664,1281.0,US-IA,Waukon,Y01,,
KKI,small_airport,Akiachak Airport,60.904800415039,-161.42199707031,23.0,US-AK,Akiachak,Z13,,https://en.wikipedia.org/wiki/Akiachak_Airport
BCC,small_airport,Bear Creek 3 Airport,63.5733160384,-156.149454117,740.0,US-AK,Bear Creek,Z48,,http://en.wikipedia.org/wiki/Bear_Creek_3_Airport
KBC,small_airport,Birch Creek Airport,66.2740020752,-145.82400512700002,450.0,US-AK,Birch Creek,Z91,,http://en.wikipedia.org/wiki/Birch_Creek_Airport
CZC,small_airport,Copper Center 2 Airport,61.9412002563,-145.29400634799998,1150.0,US-AK,Copper Center,Z93,,http://en.wikipedia.org/wiki/Copper_Center_Airport
ZNC,small_airport,Nyac Airport,60.9807014465,-159.99400329600002,460.0,US-AK,Nyac,ZNC,,http://en.wikipedia.org/wiki/Nyac_Airport
